ENAL 031050Z 23010KT 9999 SCT025 BKN100 04/M02 Q1018= 
ENAL 031120Z 22011KT 9999 SCT025 BKN090 05/M03 Q1018= 
ENAN 031120Z 27022KT 0500 +SHSN VV005 M02/M05 Q1004 TEMPO 9999FEW012CZB BKN020= 
ENAL 031150Z 23011KT 9999 SCT025 BKN070 05/M02 Q1018= 
ENAT 031150Z 26012KT 240V300 9999 FEW017 SCT030 00/M08 Q1000= 
ENAN 031150Z 25010KT 6000SW -SHSN SCT012CB BKN020 M02/M04 Q1004 TEMPO 0500 +SHSNGZS VV005=
ENAN 031220Z 31012KT 9999 -SHSNGS SCT012CB BKN018 M02/M04 Q1004 TEMPO 0500 +SHSNGZS VV005=
ENAN 031250Z 29018KT 9999 SCT012CB M01/M08 Q1004 TEMPO 0500 +SHSNGS=
ENAL 031250Z 25014KT 9999 SCT025 BKN070 05/M03 Q1018= 
ENAT 031250Z 26010KT 240V300 9999 SCT030 00/M08 Q1000=
ENAN 031320Z 29016KT 9999 FEW012CB SCT025 M01/M08 Q1004=
ENAL 031350Z 23015KT 9999 SCT035 BKN070 05/M03 Q1017= 
ENAT 031350Z 26010KT 9999 SCT030 M00/M08 Q1000= 
ENAL 031420Z 23015KT 9999 SCT035 BKN070 05/M03 Q1017= 
ENAN 031420Z 31018G28KT 0500 +SHSNGS VV004 M02/M06 Q1004= 
ENAL 031450Z 23016KT 9999 SCT035 BKN070 05/M03 Q1017= 
ENAL 031520Z 23018KT 9999 SCT035 BKN070 04/M03 Q1017= 
ENAL 031550Z 22017KT 9999 VCSH SCT030 BKN060 04/M03 Q1016=
ENAT 031550Z 26010KT 9999 SCT025 M01/M08 Q1001= 
ENAN 031620Z 30020KT 9999 VCSH FEW012CB BKN020 M02/M06 Q1004 =
ENAL 031650Z 21012KT 9999 VCSH SCT020 BKN030 04/M03 Q1016=
ENAN 031650Z 29014KT 9999 VCSH FEW012CB BKN020 M02/M06 Q1004 =
ENAT 031650Z 24006KT 9999 SCT025 M01/M09 Q1001= 
ENAT 031720Z 23004KT 9999 SCT025 M01/M09 Q1001= 
ENAN 031720Z 29017KT 9999 VCSH FEW012CB BKN020 M02/M07 Q1004 =
ENAL 031750Z 19016KT 9999 VCSH SCT020 BKN030 04/M02 Q1015=
ENAT 031750Z 23009KT 9999 SCT025 M01/M09 Q1001= 
ENAN 031750Z 29015KT 9999 VCSH FEW012CB BKN020 M02/M07 Q1004 =
ENAL 031850Z 19013KT 9999 SCT020 BKN030 05/M01 Q1014= 
ENAN 031850Z 24008KT 9999 FEW012CB BKN020 M02/M06 Q1003 RESN= 
ENAT 031920Z 28010KT 9999 SCT030 M02/M09 Q1000= 
ENAL 031950Z 20015KT 9999 SCT020 BKN030 05/M00 Q1013 =
ENAN 031950Z 27014KT 9999 FEW012CB BKN020 M01/M06 Q1002=
ENAT 032020Z 20006KT 140V240 9999 SCT035 M03/M09 Q1000= 
ENAL 032050Z 20019KT 9999 SCT020 BKN030 06/00 Q1012 = 
ENAT 032050Z 16008KT 140V200 9999 FEW025 SCT035 M04/M10 Q1000=
ENAT 032150Z 20006KT 170V240 9999 FEW025 M04/M10 Q1000= 
ENAN 032150Z 19010KT 2000 SHSN VV012 M03/M04 Q1001= 
ENAT 032250Z 17005KT 140V210 9999 FEW025 M05/M11 Q0999= 
ENAT 040050Z 19007KT 9999 FEW025 M05/M12 Q0998= 
ENAN 040050Z 14007KT 1000 SHSN VV008 M02/M04 Q0996= 
ENAT 040150Z 17006KT 9999 FEW025 M06/M13 Q0998= 
ENAN 040150Z 14010KT 1500 SHSN VV012 M02/M03 Q0994= 
ENAT 040250Z 19006KT 9999 FEW030 M06/M13 Q0997= 
ENAN 040250Z 09016KT 1500 SHSN VV012 M01/M03 Q0993= 
ENAN 040320Z 07018KT 1000 SN VV008 M02/M03 Q0994= 
ENAT 040350Z 13004KT 9999 FEW025 M06/M13 Q0996= 
ENAN 040350Z 07019KT 0800 SN VV006 M02/M03 Q0994= 
ENAT 040420Z 11005KT 9999 FEW025 M06/M12 Q0996= 
ENAL 040420Z 24023G33KT 6000 RA SCT006 BKN010 06/05 Q1007=
ENAN 040420Z 07018KT 3500 -SN VV012 M02/M03 Q0994=
ENAT 040450Z 00000KT 9999 FEW025 M06/M13 Q0996= 
ENAN 040450Z 07018KT 1000 SN VV008 M02/M03 Q0994 TEMPO 5000 -SN=
ENAL 040450Z 25022G32KT 7000 RA SCT005 BKN008 06/05 Q1008=
ENAL 040520Z 26015KT 9999 FEW005 SCT020TCU 06/05 Q1009= 
ENAN 040520Z 04027KT 1200 SN VV008 M02/M03 Q0995 TEMPO 5000 -SN=
ENAT 040520Z 00000KT 9999 FEW025 SCT180 M06/M12 Q0996=
ENAT 040550Z 08004KT 9999 FEW025 BKN180 M06/M12 Q0996=
ENAN 040550Z 04024KT 1000 SN VV007 M02/M03 Q0995 TEMPO 5000 -SN=
ENAL 040550Z 28012KT 9999 SCT015TCU BKN03 06/03 Q1010= 
ENAL 040620Z 29017G36KT 9999 -SHRA SCT015TCU BKN030 06/02 Q1011=
ENAL 040650Z 29013KT 9999NE SCT020TCU 05/02 Q1012=

