
AAXX 10031
01001 46/// /0201 10076 20065 30198 40210 58002 555 0/303=
01003 41340 83101 10049 20040 40205 57005 76162 885// 555 0/607=
01008 41482 71003 10031 20011 30148 40181 58012 70262 875// 333
      81710 84620 87650 91105 555 0/204=
01010 41125 70505 10096 20086 30205 40221 56003 74021 876// 333
      83703 85708 91108 555 0/307=
01028 41580 72405 10070 20057 30223 40243 52006 70222 86570 333
      91108 555 02307=
01055 31242 80611 10085 20076 30221 40239 52011 70242 889// 555
      02112=
01062 41789 32507 10038 20021 30193 40207 51004 70200 83050 555
      02208=
01098 41/15 93302 1//// 2//// 30214 40232 52/// 74584 555 01102=
01102 41580 61313 10152 20106 30156 40174 57004 70222 84508 555
      04114=
01152 41988 21306 10130 20080 30190 40205 52001 70200 80002 333
      82070 91107 555 0/006=
01205 41480 80704 10153 20125 30053 40101 57005 76066 8427/ 555
      03207=
01241 41988 11309 10157 20099 30136 40147 57010 70200 81041 333
      81359 91112 555 0/110=
01271 41886 11305 10158 20093 30150 40173 55000 70200 81042 333
      81358 91113 555 0/308=
01317 41572 81503 10142 20120 30044 40086 52019 76162 8657/ 333
      82630 84640 555 0/309=
01384 41589 33401 10095 20076 39926 40173 52003 70120 81571 333
      81625 83356 555 0/203=
01389 41909 40000 10068 20068 74641 80008 555 0/301 4/30/=
01403 36/// /2305 10133 20103 30031 40098 53026 555 0/309=
01023 41/05 90000 10081 20073 30129 40227 54000 74542 333 91100 555
      0/000=
01025 41080 40204 10082 20076 30219 40229 55000 70341 84631 333
      81700 83702 91105 555 0/004=
01262 46/// /1210 10144 20103 555 0/213=
01288 46/// /1406 10103 20072 39452 40185 53001 555 0/208=
01311 41675 70802 10130 20111 30027 40087 52015 76162 8258/ 333
      82640 85656 91106 555 0/305=
01427 36/// /2102 10124 20089 30114 40098 52015 555 0/307=
01465 32460 71504 10151 20119 30103 40121 51011 8377/ 555 03308=
01121 42989 11206 10150 20106 80001 555 0/706=
01167 42375 83503 10094 20093 30211 40215 53001 886// 555 0/105=
01240 31589 41311 10150 20106 30125 40144 55006 70221 82540 555
      03///=
01360 42688 70603 10092 20065 39375 40151 54000 84448 555 0/803=
01406 46/// /1704 10139 20121 30075 40093 53016 555 0/308=
01442 41588 71203 10125 20111 39861 40112 53015 70182 87800 555
      0//07=
01455 41350 81202 10127 20116 39820 40121 53004 76162 886// 555
      0/305=
01473 46/// /0202 10133 20099 39946 40149 52003 555 0/302=
01494 41786 70905 10135 20100 30089 40153 51003 70322 82531 333
      82656 85360 91109 555 0/206=
01075 41480 80000 10073 20071 30214 40228 52017 70221 886//=
01199 41/06 90000 10045 20041 74342=
01227 42680 31610 10178 21184 30051 40132 54000 83200 555 0/010=
01252 41560 31801 10120 20056 71041 81802 555 0/503=
01393 46/// /0902 10086 20074 39407 40197 52003 555 0/203=
01424 41570 63603 10174 20085 30088 40091 52013 70222 86500=
01007 36/// /1603 10025 21007 30157 40167 58018 555 0/305=
01026 42058 40102 10075 20068 30088 40229 54000 82608 555 0/002=
01078 46/// /3503 10099 20093 30223 40235 53007 555 0/303=
01115 42888 71506 10137 20097 30177 40197 53005 8707/ 555 03208=
01160 42889 20906 10135 20090 30190 40207 51002 82031 555 02107=
01212 46/// /1305 10155 20107 30097 40114 55002 555 0/307=
01238 46/// /1506 10081 20036 39053 40170 51006 555 0/210=
01338 36/// /0804 10173 20083 30054 40113 53007 555 0/206=
01367 42675 83501 10108 20089 39736 40171 53007 885// 555 0/203=
01415 41478 71603 10127 20116 30095 40105 52028 70122 8483/ 333
      81710 83640 86357 91105 555 0/307=
01448 42482 72901 10131 20105 30110 40120 51015 878// 555 04307=
01482 42582 61111 10151 20113 30131 40140 54001 84478 555 04011=
01492 31589 50405 10130 20085 30044 40159 53004 70222 8357/ 555
      0/005=
01433 46/// /1211 10074 20046 38886 40114 53009 555 0/114=
01015 41130 81403 10085 20079 71242 886// 555 03003=
01033 46/// /1902 10089 20080 30203 40233 53001 555 0/403=
01092 46/// /0000 10103 20094 555 0/102=
01304 46/// /1211 10181 20069 30057 40087 55000 555 0/112=
01425 46/// /3401 10117 20109 30037 40115 52023 555 0/204=
01452 36/// /0502 10112 20099 30098 40119 51017 555 0/304=
01467 46/// /1202 10151 20133 30117 40122 53006 555 0/213=
01113 36/// /0000 10114 20071 555 0/301=
01156 36/// /2801 10097 20085 30199 40208 52001 555 0/103=
01180 36/// /0000 10093 20085 30165 40220 54001 555 0/301=
01203 46/// /0704 10173 20064 30051 40099 55003 555 0/105=
01225 46/// /1106 10151 20103 30121 40127 57001 555 0/308=
01228 46/// /1309 10151 20107 30136 40143 56005 555 0/009=
01259 36/// /1310 10158 20084 30139 40161 50002 555 0/312=
01265 36/// /1902 10094 20075 39614 40187 52004 555 0/202=
01277 16/// /1303 10125 20096 69925 555 0/305 42///=
01306 46/// /1305 10143 20123 30060 40086 52018 555 0/311=
01321 36/// /1403 10163 20050 39871 40114 53005 555 0/405=
01350 36/// /1111 10069 2//// 38765 40131 53008 555 0/314=
01366 46/// /1508 10057 20018 555 0/008=
01375 46/// /1306 10070 20068 555 0/309=
01378 46/// /0000 10083 20081 39883 40172 52001 555 0/302=
01383 46/// /0000 10108 20103 39881 52005 555 0/101=
01397 46/// /0000 10057 20041 39766 40203 53004 555 0/302=
01412 46/// /2205 10140 20084 30074 40104 51022 555 0/410=
01434 16/// /0000 10084 20063 39173 40121 53009 69995 555 0/000
      49///=
01441 46/// /1404 10089 20062 39146 40108 53005 555 0/207=
01470 46/// /0000 10132 20126 30024 40136 50000 555 0/000=
01476 36/// /0906 10156 20120 30123 40129 52001 555 0/107=
01481 36/// /0802 10142 20104 555 0/103=
01490 36/// /0705 10094 20080 555 0/206=
01495 36/// /0908 10143 20110 30133 40145 51001 555 0/309=
01300 41597 81409 10142 22190 40071 52004 76166 8//// 90310 22200
      02143 10602 70010=
01400 41598 31703 10143 20085 40100 52001 70100 83200 22200 06159
      10502 70011=
01098 41/08 93201 10099 20094 30213 40231 52007 74584 555 01203=
01106 46/// /1005 10122 20109 30197 40202 53002 555 0/307=
01257 36/// /0902 10148 20087 30011 40168 55002 555 0/103=

BBXX
3FYT  10031 99608 10036 41/98 71607 10140 20121 40078 52005 
70162 8//// 22200 06139 10602 70008=
LF5T 10034 99660 10081 41/98 51521 10151 20111 40154 52003 7////
     8//// 22200 00138 10403 70014=
LAHV 10031 99789 10340 41598 83205 11013 21016 40192 52008
     70222 885// 22221 01013= ice 23080= 
LF4C 10034 99584 10019 43/// /2505 10135 20100 40100 52013 90310
     22200 10602 70008=
LF3J 10034 99612 10023 41597 81418 10142 22190 40071 52004 76166
     8//// 90310 22200 02143 10602 70010=
LF4B 10034 99606 10037 46/// /1615 10137 20119 40079 52012 90310
     22200 00146 1//02 70008=
LF3N 10034 99653 10073 41998 01520 10151 20117 40142 54000 70000
     22200 00142 10602 70012=
LF5U  10034 99565 10032 41598 31705 10143 20085 40100 52001 70100
83200 22200 06159 10502 70011

