AAXX 10091
01001 42486 71601 10088 20069 30199 40210 51003 84530 555 02202=
01008 41380 70101 10052 20041 30143 40177 58001 72586 878// 333
      81708 84824 87640 91106 555 0/305=
01010 41/05 91706 10099 20090 30205 40221 54000 74544 333 89/01=
01026 41150 81602 10088 20080 30090 40230 57001 71042 886// 555
      0/102=
01047 41340 80000 10054 20038 39863 40239 51001 71044 886//=
01049 41480 70000 10112 20078 30242 40245 52002 70222 876// 555
      0/102=
01055 41350 80813 10081 20064 30234 40252 52002 70222 889// 555
      03013=
01098 46/// /0204 1//// 2//// 30235 40253 53/// 555 0/004=
01102 41502 41111 10157 20109 30163 40181 53002 78500 82031 555
      04315=
01152 41989 41107 10151 20084 30194 40209 52002 70300 81042 333
      81360 83070 91109 555 0/207=
01205 41480 61303 10174 20091 30074 40122 52021 71422 8297/ 555
      03307=
01241 41988 61408 10176 20088 30145 40155 52012 70310 82072 333
      82359 86070 91119 555 0/113=
01271 41688 21404 10189 20062 30155 40178 52004 70300 81142 333
      81845 91109 555 0/106=
01317 41180 81302 10141 20118 30096 40139 51019 70262 8687/ 333
      81702 81809 85630 555 0/306=
01384 41487 50703 10139 20079 39930 40177 50000 70222 84548 333
      81712 84620 555 0/104=
01400 41498 42802 10144 20087 40110 52005 70122 84250 22200 06158
      10402 70009=
01403 31584 70402 10144 20110 30065 40132 52014 71522 8392/ 555
      03304=
01415 41485 71103 10142 20120 30121 40131 52010 70222 8223/ 333
      82215 87356 91104 555 0/304=
01492 11486 70805 10143 20074 30054 40169 51006 60025 70322 85571
      555 0/106 47///=
01023 41112 71501 10080 20072 30131 40229 57001 74142 876// 333
      83702 86705 91102 555 0/101=
01025 41180 71903 10095 20081 30221 40232 54000 70222 876// 333
      81702 86705 91103 555 0/103=
01089 41264 80702 10102 20091 30133 40244 52007 70142 886// 555
      0/103=
01262 46/// /1313 10159 20093 555 0/314=
01288 46/// /1804 10125 20063 39457 40185 50000 555 0/106=
01311 41270 71201 10130 20116 30077 40137 51018 72162 8487/ 333
      81705 83650 85357 91105 555 0/305=
01427 31480 80903 10141 20114 30130 40113 52007 70322 8281/ 555
      02303=
01465 41460 81101 10140 20119 30116 40134 51007 71562 8472/ 555
      03205=
01059 41280 70000 10119 20090 40248 52005 70222 875//=
01121 42789 31406 10164 20103 81141 555 0/707=
01167 41770 63604 10097 2//// 30215 40219 52006 71244 86800 555
      0/204=
01210 41986 51305 10184 20083 30106 40132 52016 70122 85038 555
      0/206=
01231 42589 41105 10130 20064 82248 555 0/005=
01406 46/// /1204 10140 20115 30119 40137 51018 555 0/204=
01442 41470 81703 10122 20108 39879 40131 51011 78082 889// 555
      0//03=
01467 41365 80811 10145 20120 30129 40135 51008 70262 8572/ 555
      04112=
01473 46/// /0302 10121 20091 39960 40164 52009 555 0/303=
01474 41576 70303 10124 20100 39822 40171 52012 71022 84661=
01494 41582 40606 10151 20077 30096 40160 50002 70321 83542 333
      83620 91110 555 0/107=
01245 41680 43603 10125 20040 39463 40165 52006 70300 81131 555
      0/003=
01274 41888 11307 10170 20074 70200 81083 555 0/907=
01278 41785 21305 10175 20120 30084 40183 52005 70200 81142 555
      0/107=
01280 42987 21505 10173 20118 30045 40182 54000 80003 555 0/005=
01380 42782 51304 10096 20048 82142=
01393 46/// /0603 10107 20078 39408 40192 58001 555 0/003=
01003 41120 82503 10052 20046 40211 53002 76154 877// 555 0/805=
01007 36/// /1205 10046 20026 30149 40159 58001 555 0/105=
01028 41780 62006 10088 20051 30230 40250 53002 70122 86300 333
      91108 555 02006=
01062 41120 82206 10061 20058 30194 40208 58004 76062 886// 555
      02306=
01078 46/// /0706 10079 20068 30250 40262 51010 555 0/207=
01115 42889 11509 10155 20092 30177 40198 52002 81041 555 0/110=
01160 42987 20806 10139 20084 30193 40210 58001 80002 555 02208=
01212 46/// /1305 10173 20107 30118 40135 53015 555 0/208=
01238 42680 62005 10089 20027 39067 40181 52008 82248 555 0/105=
01338 36/// /1004 10172 20083 30079 40138 51015 555 0/207=
01367 41885 41402 10145 20062 39744 40173 51003 70182 84200 555
      0/203=
01448 41383 83603 10138 20122 30122 40133 51007 70262 8127/ 555
      03003=
01482 42583 41010 10152 20098 30138 40147 52003 81444 555 04312=
01098 41/04 93503 10098 20093 30234 40252 52012 74784 555 02003=
01433 46/// /1111 10072 20040 38905 40136 53010 555 0/213=
01015 46/// /1610 10098 20088 555 0/312=
01033 41356 40102 10110 20088 30200 40229 56004 70242 82602 555
      02002=
01092 46/// /0205 10084 20078 555 0/105=
01304 46/// /2007 10143 20113 30104 40135 53028 555 0/208=
01425 46/// /1601 10136 20117 30053 40131 52005 555 0/301=
01452 11268 80502 10125 20116 30111 40132 51007 69925 70242 8177/
      555 0/002 42///=
01106 46/// /0906 10146 20110 30201 40206 52002 555 0/207=
01113 36/// /0000 10161 20087 555 0/101=
01156 36/// /2301 10133 20105 30202 40212 52002 555 0/202=
01180 16/// /1501 10099 20091 30167 40221 54001 60015 555 0/302
      43///=
01203 46/// /2109 10143 20113 30086 40135 53027 555 0/109=
01225 46/// /1103 10177 20103 30132 40138 51009 555 0/305=
01228 46/// /1307 10174 20088 30143 40150 51007 555 0/308=
01257 36/// /1803 10179 20048 30021 40176 52005 555 0/104=
01259 36/// /1311 10184 20061 30142 40164 56004 555 0/011=
01265 36/// /2004 10135 20071 39621 40185 53002 555 0/205=
01277 36/// /1902 10192 20089 555 0/304=
01306 46/// /1705 10135 20115 30111 40137 51027 555 0/311=
01321 36/// /1502 10179 20063 39897 40139 53019 555 0/205=
01350 36/// /1109 10065 2//// 38780 40151 53007 555 0/009=
01366 46/// /1306 10063 20018 38574 40161 555 0/206=
01375 46/// /1206 10095 20048 555 0/108=
01378 46/// /2002 10142 20081 39889 40172 50001 555 0/002=
01383 46/// /0901 10159 20069 39883 58002 555 0/001=
01397 46/// /1204 10158 20082 39760 40180 58007 555 0/104=
01412 46/// /1103 10144 20113 30097 40128 53008 555 0/304=
01434 36/// /0000 10088 20064 39190 40138 51011 555 0/000=
01441 46/// /1305 10091 20058 39167 40131 51014 555 0/105=
01470 46/// /0000 10143 20107 30039 40150 50007 555 0/000=
01476 36/// /0707 10155 20111 30136 40142 51007 555 0/108=
01481 36/// /0504 10148 20087 555 0/204=
01490 36/// /0704 10099 20073 555 0/206=
01495 36/// /0710 10153 20091 30137 40149 58001 555 0/010=
01300 41598 41906 10134 20100 40120 52031 70121 81178 90910 22200
      02142 10603 70015=
01028 41780 62006 10088 20051 30230 40250 53002 70122 86030 333
      91108 555 02006=







BBXX
LF5T 10094 99660 10081 41998 11519 10150 20110 40161 52005 70200
     80008 22200 00137 10404 70017=
LAJP  10094 99599 10021 41598 42008 10144 20084 40129 52020 
70100 82221 22200=
LAHV 10091 99786 10345 41/93 92706 11010 21013 40204 51009 74544
     22252 01016 20301=
LF3J 10094 99612 10023 41598 41912 10134 20100 40120 52031 70121
     81178 90910 22200 02142 10603 70015=
LF3F 10094 99643 10078 41998 31416 10164 20109 40156 54000 70222
     8103/ 90910 22200 04144 10603 70013=
LF4B 10094 99606 10037 46/// /1807 10141 20114 40135 52026 90910
     22200 00147 1//01 70007=
LF4C 10094 99584 10019 41498 41406 10146 20094 40125 52014 71521
     82961 90910 22200 00154 10601 70006=
3FYT  10091 99608 10036 41499 71703 10140 20118 40133 52031 
70222 8529/ 22200 06140 10402 70009=
LF5U  10124 99565 10032 41598 20202 10149 20093 40119 52009 70100
82200 22200 06158 10502 70010 333 91109 555 0/208=

