AAXX 10001
01001 32587 10202 10063 20035 30200 40212 58001 81530 333 91106 555
      02405=
01003 31470 83001 10045 20023 40210 50003 70222 885// 555 0/608=
01008 41482 79901 10036 20006 30160 40193 52002 70262 875// 333
      82710 84620 87650 91108 555 0/406=
01010 41278 80506 10100 20088 30208 40224 58001 70222 886// 333
      83704 86708 91108 555 0/107=
01026 41020 70902 10081 20072 30088 40228 50003 71022 86630 333
      91106 555 0/404=
01028 31582 72505 10066 20051 30217 40236 51005 70222 86570 333
      91108 555 02106=
01047 41/00 90000 10057 20041 39856 40232 51004 74542=
01055 46/// /2406 10096 20087 30211 40228 52006 333 91109 555 0/208=
01062 31289 32406 10037 20022 30189 40203 52011 70200 81650 333
      91112 555 0/409=
01098 46/// /0000 1//// 2//// 30208 40225 51/// 333 91106 555 0/404=
01102 46/// /1312 10156 20110 30160 40178 52005 333 91117 555 0/416=
01152 31988 31205 10123 20086 30189 40205 52007 70111 81042 333
      81362 83070 91107 555 0/106=
01205 11480 80903 10159 20100 30058 40106 57001 69911 76062 8472/
      333 91111 555 03409 415//=
01218 42885 61407 10144 20075 30105 40126 54000 81288 555 0/007=
01241 31888 11106 10156 20097 30146 40157 52004 70200 81041 333
      81358 91115 555 0/410=
01271 31887 11106 10154 20087 30150 40173 57004 70100 81072 333
      81358 91109 555 0/006=
01317 41584 61209 10185 20074 30025 40067 57009 70282 82878 333
      81833 84357 91114 555 0/009 4/5//=
01384 31789 60802 10117 20084 39923 40168 51002 70122 86071 333
      86356 91106 555 0/204=
01389 41885 32401 10094 20094 70121 81033 555 0/001 4/0//=
01403 16/// /1009 10139 20118 30005 40072 53011 60101 333 91113 555
      0/410 41///=
01415 41470 81403 10130 20116 30067 40077 57013 72162 8887/ 333
      81710 83615 87357 91114 555 0/409 4/5//=
01023 41/05 90000 10078 20068 30129 40227 50005 74741 333 91104 555
      0/403=
01025 31089 41701 10083 20074 30219 40230 51004 74021 81639 333
      81700 84359 91105 555 0/403=
01262 46/// /1110 10147 20103 333 91116 555 0/414=
01288 46/// /1405 10113 20080 39451 40181 57002 333 91108 555 0/106=
01311 41680 71205 10176 20072 30012 40071 55004 75052 8258/ 333
      82640 85357 91109 555 0/105 4/5//=
01364 41660 80000 10096 20074 76164 8807/=
01427 16/// /2706 10136 20110 30099 40083 53028 60251 333 91115 555
      0/212 49///=
01231 41589 70703 10111 20078 70282 87841 555 0/003=
01360 41688 81403 10092 20073 39374 40150 58002 70282 878// 555
      0/407=
01406 46/// /1608 10143 20118 30059 40076 53007 333 91111 555 0/008=
01473 46/// /0302 10138 20091 39943 40145 52005 333 91105 555 0/403=
01494 41986 61106 10147 20096 30086 40150 52002 70222 85031 333
      85359 91109 555 0/106=
01036 42989 40000 10083 20079 80008 555 0/000=
01325 41680 81803 10172 20108 70282 889// 555 0/207=
01393 46/// /1003 10106 20084 39404 40188 57002 333 91107 555 0/503=
01007 36/// /1202 10017 21021 30176 40186 58004 333 91107 555 0/405=
01078 46/// /3602 10100 20088 30216 40228 333 91103 555 0/403=
01115 46/// /1407 10144 20100 30172 40192 51001 333 91108 555 0/007=
01160 32889 30807 10124 20093 30188 40205 50001 83030 333 91110 555
      02107=
01212 46/// /1207 10155 20111 30099 40116 56005 333 91109 555 0/308=
01238 46/// /1609 10090 20050 39048 40159 56005 333 91117 555 0/212=
01338 36/// /1004 10175 20074 30047 40106 53002 333 91114 555 0/407=
01367 42575 81402 10133 20094 39729 40159 53002 885// 333 91105 555
      0/403=
01400 41598 32603 10143 20083 40099 52003 70110 83200 22200 06160
      10502 70012 333 91108 555 0/307=
01448 46/// /2407 10150 20123 30095 40105 51022 333 91120 555 0/416=
01482 32580 31310 10162 20118 30130 40139 52004 82478 333 91115 555
      04413=
01492 31689 70704 10154 20083 30040 40154 52002 70222 8557/ 333
      91109 555 0/405=
01433 46/// /1111 10078 20054 38877 40101 52002 333 91121 555 0/214=
01465 46/// /1707 10151 20133 30092 40110 53002 333 91120 555 0/415=
01015 46/// /2201 10093 20084 333 91104 555 0/402=
01033 46/// /0203 10093 20081 30202 40232 333 91105 555 0/003=
01092 46/// /0000 10104 20093 333 91103 555 0/302=
01304 46/// /0807 10154 20082 30057 40087 58007 333 91112 555 0/410=
01425 46/// /1802 10131 20123 30014 40092 53025 333 91111 555 0/405=
01452 16/// /1302 10144 20125 30082 40102 53012 69951 333 91114 555
      0/409 45///=
01467 42470 81111 10166 20131 30111 40116 55002 8457/ 333 91115 555
      04112=
01106 46/// /0907 10132 20106 30195 40199 51002 333 91110 555 0/108=
01113 16/// /0000 10127 20070 69981 333 91102 555 0/201 48///=
01156 36/// /0501 10101 20089 30198 40207 54000 333 91107 555 0/405=
01180 36/// /2501 10077 20070 30166 40220 52001 333 91104 555 0/402=
01203 46/// /0804 10164 20070 30054 40102 56003 333 91109 555 0/208=
01225 46/// /1008 10155 20105 30122 40128 58007 333 91110 555 0/008=
01228 46/// /1207 10151 20107 30141 40148 58002 333 91109 555 0/007=
01257 36/// /1502 10150 20083 30013 40170 57003 333 91106 555 0/203=
01259 36/// /1312 10165 20085 30137 40159 58010 333 91118 555 0/113=
01265 16/// /2202 10103 20087 39610 40180 50000 69941 333 91104 555
      0/303 44///=
01277 36/// /1502 10152 20084 333 91107 555 0/204=
01306 46/// /1011 10174 20152 30042 40068 58009 333 91114 555 0/011=
01321 36/// /1205 10174 20046 39866 40108 55007 333 91111 555 0/105=
01350 36/// /1013 10073 2//// 38757 40119 56005 333 91119 555 0/415=
01366 46/// /1408 10064 20025 333 91115 555 0/210=
01375 46/// /1508 10080 20076 333 91112 555 0/409=
01378 46/// /1402 10102 20102 39882 40168 52005 333 91103 555 0/102=
01383 46/// /0000 10106 20101 39876 53003 333 91102 555 0/401=
01397 46/// /1802 10114 20095 39762 40189 50001 333 91103 555 0/002=
01412 46/// /2610 10129 21030 30052 40083 53021 333 91113 555 0/110=
01434 16/// /0000 10089 20069 39164 40109 50000 60111 333 91100 555
      0/000 42///=
01441 46/// /1504 10097 20073 39141 40100 55001 333 91114 555 0/308=
01470 46/// /0000 10134 20131 30023 40135 50005 333 91100 555 0/000=
01476 16/// /1105 10157 20121 30122 40128 51005 60021 333 91113 555
      0/409 49///=
01481 36/// /1102 10158 20112 333 91108 555 0/203=
01490 36/// /0706 10114 20079 333 91112 555 0/207=
01495 36/// /1108 10159 20113 30132 40144 52003 333 91112 555 0/410=
01300 41598 81009 10148 22189 40067 57008 76166 8//// 90010 22200
      02143 10602 70010 333 91115 555 0/312=
01098 41/15 93101 10096 20089 30206 40224 52004 74784 333 911// 555
      01001 4/53/=
01167 42380 73404 10100 20099 30210 40214 58004 8367/ 333 91109 555
      0/107=




BBXX
LF5T 10004 99660 10081 41/98 51521 10153 20113 40151 57001 7////
     8//// 22200 00139 10402 70010=
3FYT  10001 99608 10036 41/98 81204 10144 20103 40073 57004 
76162 8//// 22200 06139 10502 70008=
LF5U  10004 99565 10032 41598 32605 10143 20083 40099 52003 70110
83200 22200 06160 10502 70012 333 91115 555 0/313
LF3N 10004 99653 10073 43/// /1419 10150 20118 40142 52002 22200
     10602 70011 333 91122 555 0/221=
LF4C 10004 99584 10019 43/// /2708 10137 20100 40087 52007 90010
     22200 10602 70009 333 91116 555 0/415=
LF4B 10004 99606 10037 47/98 /1212 10160 20095 40067 57006 781//
     90009 22200 00142 333 91121 555 0/420=
LF3J 10004 99612 10023 41598 81018 10148 22189 40067 57008 76166
     8//// 90010 22200 02143 10602 70010 333 91129 555 0/324=

