ZCZC

SINO99 ENBJ 270300

AAXX 27034
01028 41470 40319 10012 21002 39996 40016 52015 70262 83260
      333   91126 555   0/119=
01062 41356 73611 11004 21026 30011 40025 52018 70222 85850
      555   03313=
01003 41580 70304 11036 21073 40058 53005 70222 875// 
      555   0/610=








NNNN

ZCZC

SNPO41 LPMG 270200 RRA

AAXX 27021

08571 42/// /0704 10214 21018 39520 40202 57003 


333  91007 91107


555 60005=






NNNN

ZCZC

SNPO41 LPMG 270200 RRA

AAXX 27021

08571 42/// /0704 10214 21018 39520 40202 57003

333  91007 91107

555 60005=






NNNN

ZCZC

SIBX51 EBWM 270300

AAXX 27031

06432 45975 /2004 10141 20110 30100 40175 57007

  333 87/71 91107 91205=

06452 45975 /9901 10134 20111 30140 40167 58012

  333 87/69 91103 91201=

06465 45969 /1804 10135 20114 30114 40179 58008

  333 85/66 87/74 91106 91204=






NNNN

ZCZC

SIBX50 EBWM 270300

AAXX 27031

06400 42568 71903 10141 20115 30146 40157 58012 81832

  333 81830 86073 91107 91206=

06428 45/74 /2104 10145 20108 30117 40165 58010

  333 91108 91205=

06456 42970 72005 10131 20105 39826 40186 58009 8703/

  333 87361 91107 91205=

06458 42970 72104 10139 20106 30031 40182 56008 84032

  333 83363 87070 91107 91205=

06479 42965 39902 10132 20119 30100 40179 56010 81031

  333 81364 83070 91104 91202=

06496 42967 71903 10108 20093 39529 40194 56006 87071

  333 83362 86365 91105 91203=






NNNN

ZCZC

SISN01 ESGJ 270300

AAXX 27031
02550 46/// /2104 10126 20117 39891 40160 55002=






NNNN

ZCZC

SMFI01 EFKL 270000 RRB

AAXX 27001

02971 41450 81903 10129 20126 40174 56002 71022 8772/=






NNNN

ZCZC

SMFI01 EFKL 270000 RRC

AAXX 27001

02963 46/60 /2004 10120 20112 40199=






NNNN

ZCZC

SMFI95 EFKL 270000 RRA

AAXX 27001

02963 46/60 /2004 10120 20112 40199 555 60115 795//=






NNNN

ZCZC

SIVF99 ENMI 270300

BBXX
LDGJ 27031 99704 10311 43/// /2312 10071 20037 40017 5////  222/9 04083 1//// 3//// 4//// 5////=







NNNN

ZCZC

SIVF99 ENMI 270300

BBXX
LMEL 27031 99756 10387 43/// /0711 10022 20017 49949 5////  222/0 04043 1//// 3//// 4//// 5////=







NNNN

ZCZC

SIWF21 ENMI 270300

BBXX
LDWR 27031 99660 10018 41397 81910 10099 20092 49852 55003 72166 887// 22200 04093 10808 3//// 4//// 5//// 70042=







NNNN

ZCZC

SMSP01 LEMM 270000 RRB

AAXX 27004

08221 02976 01505 10159 20071 39550 40222 51014 60001

  333 60007=






NNNN

ZCZC

SANO99 ENHF 270250 RRA

METAR

ENHF 270250Z 25012KT 9999 SCT030 08/03 Q1001=








NNNN

ZCZC

SISQ20 LZIB 270300

AAXX 27031

11816 41920 00602 10107 20102 30068 40231 57006 71000=

11826 47/13 /9901 10100 20097 30035 40234 57007 71000=

11903 41102 80000 10103 20098 39869 40248 57005 74442 886//

  333 88702=

11934 41950 50000 10069 20063 39431 42856 58003 71011 85030

  333 85360=

11968 42962 69902 10134 20131 39962 40238 57004 86070

  333 82359 85362=






NNNN

ZCZC

SISQ40 LZIB 270300

AAXX 27031

11841 47/01 /9901 10101 20100 39868 40242 57007 73400=

11858 46/// /0000 10106 20097 30082 40233 57007=

11916 46/// /1904 10049 20049 38053 48553 57007=

11927 46/// /9901 10119 20113 39979 40238 57005=

11930 46/// /1705 10013 20001 37458 47157 57005=

11993 46/// /0000 10114 20105 30029 40244 57002=






NNNN

ZCZC

SISQ50 LZIB 270300

AAXX 27031

11855 47/27 /0000 10113 20111 30067 40232 57008 72000=

11867 47/12 /0000 10098 20098 39924 40239 57008 71000=

11880 46/// /0000 10102 20099 30066 40237 57006=

11918 46/// /0701 10064 20064 39434 42856 57003=

11933 46/// /0101 10055 20052 38713 48561 57008=

11938 46/// /9901 10079 20076 39194 42855 57005=

11976 46/// /0000 10116 20113 39981 40242 57003=

11978 46/// /0000 10115 20106 30107 40236 57002=






NNNN

ZCZC

SIHU21 HABP 270300

AAXX 27031

12772 41965 72802 10138 20120 39961 40242 57004 70222 8707/=

12822 41956 01101 10106 20100 30090 40233 56008 70200=

12843 41956 33601 10127 20116 30071 40240 56005 70300 82042=

12882 41950 70000 10120 20111 30108 40239 57005 71022 8707/=

12925 41911 00000 10085 20084 30063 40236 57005 71000=

12942 41965 00901 10130 20107 39990 40235 56007 70200=

12982 41960 20501 10125 20116 30132 40232 55003 70210 80002=






NNNN

ZCZC

SMDL47 EDZW 270000 RRA

AAXX 27001

10514 42670 72501 10137 20100 39982 40210 50000 8557/

  333 85645 87362

  999 02403=






NNNN

ZCZC

SIIY40 LIPE 270300

AAXX 27034


16140 42962 02007 10150 20118 30170 40220 56010=






NNNN

ZCZC

SIAA21 ENMI 270300

AAXX 27031
89504 13/// /2204 11306 21422 38245 49840 53011 6//// 555  4////=







NNNN

ZCZC

SIDL21 EDZW 270300

AAXX 27031

10004 NIL=

10015 32975 72011 10154 20128 30136 40146 58011 8707/

  333 55300 85361 87363 91114 91212=

10020 36/72 /2008 10155 20128 30104 40139 56013

  333 55300 20000 30000 83/62 91113=

10035 31922 21702 10104 20099 30101 40159 58009 80001

  333 55300 82070=

10055 31/01 91803 10119 20116 30164 40174 56004 74700

  333 55300=

10147 21117 21302 10100 20098 30160 40178 58005 71241 83600

  333 55300 69917 83702 96010=

10162 26/02 /1901 10103 20096 30103 40186 58003 88///

  333 55300 69917 88/01=

10184 32960 02102 10111 20102 30181 40188 58002

  333 55300=

10200 32980 71905 10140 20115 30147 40153 58009 8703/

  333 55300 87365=

10224 21665 71703 10128 20112 30165 40171 56010 70262 8253/

  333 55300 20000 30000 69907 82645 87362=

10270 32968 02101 10099 20093 30143 40198 52001

222// 06171

  333 55300=

10338 32665 71703 10123 20108 30115 40187 58007 8257/

  333 55300 82640 87362=

10361 32762 31601 10105 20105 30100 40203 50000 83500

  333 55300 83656=

10393 31/01 92201 10115 20115 30081 40207 56002 74540

  333 55300 20000 30000=

10400 32770 71504 10146 20112 30136 40185 57011 83532

  333 55300 83650 84363 86078=

10438 26/60 /1501 10120 20099 39929 40206 58003 81///

  333 55300 69907 81/43 87/59 87/61=

10469 32772 72102 10129 20114 30046 40209 58003 8553/

  333 55300 85650 85358=

10488 21970 52402 10141 20125 39933 40209 58004 70162 85070

  333 55300 69907 82360 84363=

10506 32983 82003 10122 20096 39626 40200 57004 8807/

  333 55300 88461=

10548 21975 71801 10108 20089 39677 40215 57005 70262 8707/

  333 55300 20000 69907 87459=

10637 32780 82102 10144 20117 30075 40210 58006 8157/

  333 55300 81650 88465=

10685 21738 82003 10117 20115 39550 40215 56011 72162 8553/

  333 553// 69907 85650 84358=

10738 32668 83301 10124 20115 39760 40223 56008 8451/

  333 55300 84642 88462=

10763 31962 71002 10123 20109 39841 40219 57008 71122 84032

  333 55300 20000 3//// 84362 87078=

10788 21657 82002 10137 20124 39792 40216 58004 70262 875//

  333 55300 69907 87648 96460 96413=

10852 21565 80301 10133 20122 39666 40226 56005 72162 885//

  333 55300 69927 87632=

10946 21760 81502 10123 20121 39404 40221 58008 76162 885//

  333 55300 69907 88650=






NNNN

ZCZC

SIDL22 EDZW 270300

AAXX 27031

10046 NIL=

10091 22960 02005 10117 20110 30135 40186 58002

222// 06159

  333 55300 20000 30000 69917=

10113 3//// /1806 10139 20114 30131 40150 58008

  333 55300 20000 30000=

10131 32958 71704 10128 20113 30146 40160 58012 8703/

  333 55300 87363=

10170 32/02 91803 10104 20096 30165 40180 58003 74700

  333 55300 20000 30000 98002=

10315 32670 71702 10136 20109 30114 40177 56008 8153/

  333 55300 81639 87361=

10379 32980 02104 10103 20101 30080 40202 56003

  333 55300 20000 30000 41072=

10384 21875 21501 10120 20116 30144 40203 57002 71161 82530

  333 55300 69907 82658=

10427 21382 82405 10100 20086 39208 48520 55006 72162 875//

  333 55300 69907 82509 87359=

10439 41770 80901 10125 20109 39977 40195 58003 76162 875//

  333 87656

  999 01303=

10453 41582 22312 10067 20067 38877 48508 58005 70240 82500

  333 55300 82620 91114 91212 96241=

10499 31913 80000 10130 20121 39922 40206 56002 72841 8801/

  333 55300 20000 30000 88465=

10501 32980 72003 10144 20104 39937 40180 56007 85032

  333 55300 84362 86069=

10513 32684 81703 10145 20113 30074 40193 56007 8457/

  333 55300 81640 83650 87360=

10544 21486 72105 10093 20080 39148 48531 56006 76062 8357/

  333 55300 69907 83613 87360=

10554 32682 61903 10112 20089 39825 40209 57002 83530

  333 55300 20000 83642 86363=

10567 32765 72203 10116 20106 39841 40212 55003 875//

  333 55300 20000 87656=

10578 21675 82610 10071 20060 38831 48529 57011 76042 875//

  333 55300 20000 30000 69907 87640=






NNNN

ZCZC

SIDL23 EDZW 270300

AAXX 27031

10609 32980 82203 10135 20111 39882 40206 58007 8807/

  333 55300 20000 30000 88463=

10616 21580 82104 10133 20089 39617 40205 58006 76062 8317/

  333 55300 69907 83830 88459=

10655 21770 82002 10141 20114 39890 40212 58009 70262 8157/

  333 55300 20000 30000 69907 81656 87360=

10675 26/48 /1701 10121 20120 39928 40219 57008

  333 55300 69907 87/61=

10708 32980 81903 10137 20107 39834 40213 58006 8707/

  333 55300 20000 30000 87362=

10727 36/60 /2202 10147 20124 30044 40217 58006

  333 55300=

10776 21765 83301 10139 20124 39786 40223 56005 72122 875//

  333 55300 69907 87650=

10791 46/// ///// 1//// 2//// 38608 48/// 55005

  333 553//=

10805 32775 72501 10145 20145 30039 40226 56002 875//

  333 55300 87650=

10870 31565 82101 10140 20132 39696 40220 55005 71322 879//

  333 55300 87928=

10908 42981 82210 10086 20075 38561 48552 56003 8807/

  333 55300 88361 91211=

10929 32764 82901 10141 20136 39702 40226 56005 8652/

  333 55300 20000 30000 86650=

10948 26/63 /0000 10123 20113 39295 48556 58001 88///

  333 55300 69907 88/50=

10961 41/00 92707 10011 20011 37159 47143 58005 74544

  333 55300=

10962 21662 82303 10122 20104 39099 48554 56007 72162 8657/

  333 55300 69907 86646 88358=

10980 46/// /2604 10078 20063 38207 48544 57006

  333 55300=






NNNN

ZCZC

SIDL44 EDZW 270300

AAXX 27031

10007 NIL=

10022 36/56 /1804 10124 20114 30143 40152 56009

  333 55300 85/63=

10028 32965 71907 10149 20125 30136 40149 56010 8703/

  333 55300 87363=

10033 NIL=

10037 41925 51403 10101 20093 30134 40166 56006 71111 80001

  333 85072

  999 01605=

10038 41945 51503 10111 20093 30144 40164 57004 71111 80004

  333 85075

  999 01604=

10042 26/40 /1703 10111 20106 30150 40162 57004

  333 55300 69917=

10044 46/26 /2007 10129 20120 30134 40165 57006

222// 00160

  333 55300=

10067 NIL=

10093 36/59 /2102 10110 20098 30147 40188 55000

  333 55300=

10097 36/58 /2206 10134 20114 30180 40195 54000

222// 06163

  333 553//=

10122 NIL=

10124 NIL=

10126 NIL=

10127 NIL=

10129 NIL=

10130 36/57 /1705 10128 20122 30159 40164 57012

  333 55300=

10136 42765 71802 10127 20112 30130 40168 57007 8253/

  333 82650 87360

  999 02006=

10139 36/36 /1803 10123 20112 30158 40172 58009 83///

  333 55300 83/40 88/63=

10142 36/// /1303 10107 20107 30135 40166 58006

  333 55300 88/65=

10146 36/07 /1602 10100 20100 30157 40173 58004

  333 55300 86/66=

10150 36/25 /1603 10111 20111 30143 40177 58003

  333 55300=

10152 36/14 /1904 10123 20120 30178 40180 57002

  333 55300=

10156 36/07 /1702 10115 20115 30161 40179 58002 88///

  333 55300 88/01=






NNNN

ZCZC

SIDL45 EDZW 270300

AAXX 27031

10161 31/01 92004 10110 20102 30163 40184 57001 71040

  333 55300 98001=

10168 36/48 /2001 10096 20089 30118 40189 58003

  333 55300=

10172 41/01 92103 10115 20115 30120 40192 57003 74540

  333 89/01

  999 02004=

10180 36/11 /0000 10092 20083 30172 40181 58003

  333 55300=

10193 36/02 /1701 10121 20119 30191 40199 53001 88///

  333 55300 88/01=

10215 36/// /1803 10141 20115 30147 40171 56009 81///

  333 55300 81/42 88/62=

10235 36/60 /1802 10097 20097 30089 40184 58006

  333 55300 88/66=

10238 41759 40000 10075 20075 30094 40189 58004 71100 84500

  333 84650

  999 00701=

10246 41950 00000 10071 20065 30079 40188 56004 71100

  999 02201=

10249 26/01 /0000 10090 20085 30127 40183 56003 88///

  333 55300 69917 88/01=

10253 36/60 /1701 10099 20092 30172 40194 58001

  333 55300=

10261 36/43 /1602 10093 20089 30164 40192 55000

  333 55300 20000 30000=

10264 36/56 /2003 10109 20105 30090 40192 56003

  333 55300=

10267 36/11 /2403 10088 20085 30146 40198 57003

  333 55300=

10268 36/// /1802 10116 20116 30122 40210 54000

  333 55300=

10277 26/21 ///// 10092 20090 30117 40193 50000

222// 06174

  333 55300 20000 69917=

10281 42960 02002 10106 20106 30114 40200 50000

  999 01903=

10282 36/02 /2001 10101 20096 30058 40198 50000 88///

  333 55300 88/01=

10289 36/23 /2003 10124 20120 30135 40204 53002

  333 55300 20000=

10291 31/05 91402 10121 20118 30133 40200 55000 74741

  333 55300 89/02=

10304 NIL=

10305 36/// /1903 10137 20109 30141 40172 57009

  333 55300 87/62 88/69=

10306 42970 71702 10135 20104 30112 40171 57010 8703/

  333 87360

  999 01904=

10314 42970 71803 10132 20090 30115 40177 57010 8707/

  333 87360

  999 01905=

10317 36/60 /2004 10143 20108 30061 40176 57010

  333 55300 87/63=






NNNN

ZCZC

SIDL46 EDZW 270300

AAXX 27031

10321 32975 71903 10128 20114 30124 40176 57011 8703/

  333 55300 87362=

10325 26/60 /2102 10123 20108 30018 40185 58009

  333 55300 69907 88/61=

10334 42770 71804 10122 20108 30102 40186 57009 875//

  333 87656

  999 01804=

10335 42770 81804 10135 20108 30088 40182 57011 8553/

  333 85650 87360

  999 01806=

10343 NIL=

10348 32670 21702 10109 20097 30089 40195 58006 82500

  333 55300 82635=

10356 36/60 /1901 10106 20089 30003 40198 58001

  333 55300 85/57=

10359 36/60 /0000 10093 20085 30138 40197 50002

  333 55300 20000=

10365 26/59 /0000 10104 20099 30167 40210 53001

  333 55300 69917=

10368 36/60 /2102 10094 20090 39983 40211 55000

  333 55300 86/59=

10376 36/16 /0000 10100 20087 30137 40204 58002

  333 55300 8//// 8//// 8////=

10381 22970 12103 10108 20106 30115 40202 57004 81030

  333 55300 81360=

10382 21956 10000 10109 20109 30153 40198 58002 74061 81030

  333 55300 69907 81360 96011=

10385 31866 51701 10107 20105 30136 40197 57002 71111 82530

  333 55300 82657 84359 96240 96440=

10389 26/// ///06 10132 20113 30104 40205 55002

  333 553// 69907=

10396 36/01 /1801 10099 20099 30182 40202 50000 82///

  333 55300 82/02=

10404 42965 61803 10132 20100 30122 40174 57010 80001

  333 86075

  999 01806=

10406 36/60 /1902 10135 20111 30145 40174 56008 83///

  333 55300 20000 83/43 84/62 87/68=

10410 32975 61703 10142 20107 39993 40185 57010 85031

  333 55300 85362=

10418 26/81 /2401 10131 20103 39733 40195 56005 86///

  333 55300 20000 69907 86/39 87/61 87/64=

10424 36/82 /1803 10148 20104 30085 40188 58007

  333 55300=

10430 26/// /1903 10141 20100 30001 40189 56008

  333 55300 20000 69907 81/58 88/61=

10433 NIL=

10435 26/59 /2002 10123 20094 39916 40197 55004

  333 55300 69907=

10444 36/60 /1303 10124 20101 39990 40195 58007 88///

  333 55300 88/50=

10449 36/// /0000 10113 20091 39779 40203 56005 87///

  333 553// 20000 87/50=

10452 36/04 /0000 10073 20065 39490 40214 58005 83///

  333 55300 81/31 83/39 83/49=






NNNN

ZCZC

SIDL47 EDZW 270300

AAXX 27031

10454 36/60 /2004 10119 20089 39925 40207 58004

  333 55300 20000=

10458 36/60 /2403 10074 20068 39727 40215 58004

  333 55300 20000 8//// 8//// 8////=

10460 32870 60000 10114 20104 30009 40209 56003 86500

  333 55300 86657=

10466 36/50 /0000 10109 20109 30097 40214 58001

  333 55300 20000=

10471 36/48 /0000 10128 20122 30047 40212 57002 85///

  333 55300 20000 85/50 87/57 88/59=

10474 36/60 /0000 10103 20098 30075 40204 58003

  333 55300 20000 84/59=

10476 41911 22001 10095 20095 30082 40206 58001 74011 82030

  333 82360

  999 01602=

10480 31950 62001 10134 20122 30024 40206 58004 71022 86030

  333 55300 86363=

10490 36/08 /1503 10117 20110 30082 40203 58008 81///

  333 55300 81/01 86/64=

10496 31950 12301 10126 20126 30118 40201 58006 71011 81041

  333 55300 81361=

10502 42780 71802 10143 20104 30024 40185 57007 8453/

  333 84650 87360

  999 01704=

10514 NIL=

10515 36/60 /1001 10149 20107 30047 40200 58007

  333 55300=

10518 NIL=

10519 NIL=

10526 36/// /1602 10121 20096 39549 40198 57007 84///

  333 55300 84/38 86/59 87/61=

10532 2//// /0601 10127 20121 39974 40207 58006

  333 55300 20000 69907=

10535 26/60 /1803 10121 20105 39788 40203 57004

  333 55300 69937=

10542 26/60 /3401 10111 20101 39885 40212 56006 81///

  333 55300 69907 81/37 86/59 88/62=

10552 36/60 /2305 10078 20068 39131 48526 55006 86///

  333 55300 81/15 86/30 88/65=

10555 36/// /1901 10114 20092 39880 40201 56003

  333 55300=

10557 32981 42304 10087 20072 39227 48526 56007 84040

  333 55300 84359=

10558 36/12 /2602 10104 20099 39475 40215 56008

  333 55300=






NNNN

ZCZC

SIDL48 EDZW 270300

AAXX 27031

10564 26/59 /2303 10120 20098 39626 40218 56007

  333 55300 69907=

10565 26/// /0000 10127 20106 39909 40203 55001

  333 55300 6///7=

10569 26/59 /2102 10125 20105 39748 40209 56007 84///

  333 55300 20000 69907 84/50 88/60=

10574 26/// /2302 10091 20077 39175 48529 55007

  333 55300 20000 69917 88/60=

10575 26/60 /0000 10118 20106 39742 40213 56005

  333 55300 20060 69907=

10577 21964 82501 10126 20101 39714 40210 58005 72162 8807/

  333 55300 20000 30000 69907 84359 88462=

10579 26/60 /2501 10105 20091 39468 40217 56008

  333 55300 69917=

10582 36/60 /2502 10097 20081 39200 48535 56006

  333 55300 20000 30000 84/60 87/62 88/65=

10591 36/01 /1801 10124 20117 39823 40210 55002 87///

  333 55300 87/01=

10613 42970 82003 10118 20093 39638 40211 58002 8802/

  333 88460

  999 02106=

10615 26/60 /2104 10134 20092 39639 40204 58006

  333 55300 69907=

10618 42965 83002 10114 20086 39759 40208 58005 8807/

  333 88359

  999 02203=

10635 26/60 /2404 10106 20078 39280 48529 58007

  333 55300 69907 88/59=

10641 36977 80000 10128 20108 30058 40203 58007 88///

  333 55300 84/60 88/63=

10645 NIL=

10648 26/60 /2104 10142 20107 39677 40210 58009

  333 55300 69907 88/60=

10658 26/60 /1001 10118 20104 39879 40215 58004 82///

  333 55300 69907 82/46 87/60 87/62=

10671 36/59 /0201 10117 20105 39808 40219 57006 84///

  333 55300 84/43 88/59=

10688 31940 81801 10117 20117 39703 40222 57002 71022 8707/

  333 55300 87363=

10704 36/60 /2103 10122 20121 39779 40214 58005

  333 55300 82/62 84/65 88/68=

10706 26/60 /2301 10130 20091 39745 40214 58006

  333 55300 4//// 69907 86/64 88/69=

10724 36/60 /2606 10143 20070 39559 40205 58009

  333 55300 88/59=

10729 26/60 /1703 10149 20124 30092 40211 58008 87///

  333 55300 20000 30000 69907 87/56=

10735 NIL=

10736 36/58 /0701 10114 20109 39925 40219 57008

  333 55300=

10739 36/58 /1502 10138 20136 39851 40224 56007 83///

  333 55300 83/50 87/61=

10742 36/60 /3501 10127 20111 39894 40224 56004

  333 55300=

10743 42980 72102 10120 20102 39667 40226 57004 87070

  333 87360

  999 02304=






NNNN

ZCZC

SIDL49 EDZW 270300

AAXX 27031

10761 36/60 /0000 10126 20105 39724 40224 58010

  333 55300 20000 81/57 87/61=

10765 NIL=

10771 NIL=

10777 26/60 /2702 10127 20104 39591 40220 56008 86///

  333 55300 69907 86/56 87/58 87/63=

10796 26/03 /3101 10110 20110 39502 40220 57005

  333 55300 69967=

10803 36/59 /2701 10157 20121 39867 40220 56004

  333 55300 20000 30000 88/57=

10815 36/// /2103 10119 20105 39299 48548 58005 81///

  333 55300 81/50=

10818 36/59 /1702 10112 20100 39104 48545 58004

  333 55300 88/64=

10827 42775 82001 10104 20094 39151 48540 57006 8157/

  333 81650 87364

  999 00102=

10828 427// 72801 10117 20105 39463 40217 56007 8353/

  333 83650 87362

  999 03302=

10836 32965 72002 10128 20116 39363 40215 57007 8703/

  333 55300 87361=

10837 41757 82201 10129 20111 39579 40225 58004 71122 885//

  333 88650

  999 03602=

10838 36/60 /3101 10138 20126 39556 40220 58005 87///

  333 55300 85/30 86/50 87/56=

10850 26/60 /1501 10125 20116 39632 40223 57006 86///

  333 55300 69937 86/50 86/57 88/63=

10853 41260 71902 10134 20110 39770 40228 57001 72986 878//

  333 81805 87650

  999 02003=

10856 NIL=

10857 41758 82102 10127 20102 39490 40221 58003 76162 885//

  333 88650

  999 01803=

10860 41265 72202 10140 20136 39792 40222 58002 729// 879//

  333 82703 83938 87650

  999 02603=

10865 21670 72201 10143 20132 39609 40222 56006 70282 8553/

  333 55300 69907 82635 84650 85357 96480=

10875 26/45 /1201 10134 20123 39741 40224 58005 87///

  333 55300 69917 87/24=

10895 21135 80501 10134 20131 39661 40224 57002 79598 8497/

  333 55300 20000 30000 60177 82702 84915 84520 96063 96010 96282

      95147=

10954 41761 71902 10123 20103 39343 48543 58005 721// 875//

  333 87650

  999 01903=

10963 26/58 /2401 10121 20112 39396 40231 58005

  333 55300 69907=

10982 36/56 /3501 10138 20138 39579 40223 55003 87///

  333 55300 84/04 87/26 88/58=






NNNN

ZCZC

SIVF99 ENEK 270300

BBXX

LF5U  27034 99565 10032 41498 82124 10151 20137 40033 57010 70262

8157/ 22200 06/// 10806 70030








NNNN

ZCZC

SMSP01 LEMM 270000 RRB

AAXX 27004

08221 02976 01505 10159 20071 39550 40222 51014 60001

333 60007=






NNNN

ZCZC

SIDL21 EDZW 270300 RRA

AAXX 27031

10004 46/60 /1813 10161 20138 30127 40127 58012

222// 00168

  333 55300 91116 91213=






NNNN

ZCZC

SIDL44 EDZW 270300 RRA

AAXX 27031

10007 46/58 /2011 10161 20135 30142 40142 56009

222// 00169

  333 55300 91114 91212=






NNNN

ZCZC

SIDL46 EDZW 270300 RRA

AAXX 27031

10433 26/59 /1702 10111 20104 39882 40194 58007

  333 55300 69907=






NNNN

ZCZC

SIDL47 EDZW 270300 RRA

AAXX 27031

10519 36/59 /2103 10147 20108 30004 40197 56007

  333 55300=






NNNN

ZCZC

SIDL47 EDZW 270300 CCA

AAXX 27031

10471 31758 70000 10128 20122 30047 40212 57002 71022 8357/

  333 55300 20000 83650 85359 87360=






NNNN

ZCZC

SIDL48 EDZW 270300 RRA

AAXX 27031

10645 36/60 /2302 10125 20092 39524 40201 57009

  333 55300=

10735 36/58 /1401 10132 20132 30012 40214 57008

  333 55300=






NNNN

ZCZC

SMBU01 LZSO 270000

AAXX 27001

15502 12970 70000 10126 20124 30193 40232 54000 60001 87050 333 10150

20114 555 599//=

15525 12561 61102 10143 20136 39972 40233 54000 60001 83550 333 10169

20143 555 595//=

15528 12968 70000 10150 20136 30027 40213 54000 60001 87050 333 10170

20145 555 591//=

15535 11970 30000 10150 20139 30174 40223 58001 60001 70111 83050 333

10166 20136 555 59400=

15549 12570 23202 10133 20114 39817 40227 58002 60001 82500 333 10151

20131 555 589//=

15552 11570 43608 10160 20112 30138 40189 57009 60001 70111 84500 333

10176 20160 555 573// 92025 92428=

15614 12962 00000 10128 20104 39535 40229 52006 60001 333 10156 20128

555 585//=

15626 11640 40000 10154 20147 30040 40225 52006 69901 70300 82432 333

10202 20150 555 596//=

15627 11/00 90505 10028 20029 37690 47137 51000 60001 74544 333 10037

20026 555 500//=

15640 12670 62904 10184 20098 39904 40207 58007 60001 86500 333 10186

20174 555 557//=

15655 11970 03203 10164 20132 30172 40205 58005 60001 70211 222//

336// 4//02 333 10183 20164 555 582// 92032 92438=

15712 11980 03602 10168 20117 39975 40315 51007 60001 70100 333 10210

20167 555 572//=

15730 12970 00000 10150 20123 39836 40225 52002 60001 333 10197 20140

555 584//=






NNNN

ZCZC

SMBU40 LZSO 270000

AAXX 27001

15501 11964 80000 10139 20130 30182 40237 52002 60001 70322 8807/ 333

10160 20129 555 59400=

15505 12970 01801 10123 20114 39866 40234 52001 60001 333 10146 20117

555 594//=

15511 11961 62702 10149 20146 30197 40237 52003 60001 70322 80007 333

10181 20143 555 59800=

15514 11556 82703 10160 20150 30197 40238 52007 60001 71022 885// 333

10172 20152 555 59300=

15530 11/03 90000 10134 20130 30004 40239 51001 60001 74542 333 10157

20134 555 598//=

15533 11970 80000 10156 20136 30197 40228 52001 60001 70222 80007 333

10171 20151 555 58800=

15550 11965 00000 10144 20129 30198 40217 54000 60001 70200 333 10180

20144 555 59100=

15561 11468 63007 10176 20129 30184 40192 58004 60001 70222 86500

222// 2//02 333 10196 20170 555 574// 92035 92437=

15562 11474 63410 10168 20121 30120 40193 57004 60001 70222 86500

222// 2//02 333 10180 20168 555 574// 92035 92438=

15601 11980 00000 10104 20088 39613 40227 51007 60001 70200 333 10175

20104 555 590//=

15613 11970 31402 10047 20033 37794 47568 54000 60001 70300 83070 333

10056 20046 555 590//=

15628 12680 32902 10142 20131 39973 40225 52008 60001 83200 333 10197

20138 555 593//=

15635 12665 33401 10138 20127 30003 40210 54000 60001 82530 333 10190

20138 555 593//=

15642 12970 00000 10134 20130 30048 40215 54000 60001 333 10170 20130

555 598//=

15661 11970 02702 10162 20142 30169 40204 58007 60001 70200 222//

20000 333 10168 20160 555 577// 92013 92417=

15726 11372 23203 10074 20074 38328 48584 58002 60001 70300 82600 333

10084 20072 555 500//=






NNNN

ZCZC

SMBU01 LZSO 270000 RRD

AAXX 27001

15615 11984 03602 10001 21005 37203 47156 54000 60001 70200 333 10010

20001 444 27182 555 596//=






NNNN

ZCZC

SMBU40 LZSO 270000 RRC

AAXX 27001

15605 11975 00000 10087 20082 39402 40242 54000 60001 70200 333 10132

20085 555 597//=






NNNN

ZCZC

SMYG10 LYBM 270000

AAXX 27001

13160 32997 03101 10114 20099 30127 40235 54000=

13262 32997 00000 10123 20116 30098 40246 51002=

13272 32960 31501 10145 20132 30113 40236 51001 83030 90000 333 83360

=

13285 32997 30702 10136 20128 30141 40242 53003 83030=

13289 31/91 91404 10106 20101 48559 52003 74722=

13363 32665 70000 10118 20115 39312 48546 54000 87500=

13376 32697 70000 10127 20118 39983 40243 52006 87500=

13388 32698 60000 10131 20119 39995 40237 52004 84530=

13462 32970 03401 10159 20120 30186 40225 52007 92353=

13473 NIL=

13489 NIL=






NNNN

ZCZC

SMYG21 LYBM 270000

AAXX 27001

13067 32997 03601 10132 20123 30119 40245 54000=

13183 32965 40203 10136 20115 30136 40235 54000 84030 333 84360=

13279 31991 00000 10110 20106 30089 40236 53002 74640=

13295 NIL=

13367 32497 22001 10103 20095 48556 56002 82500=






NNNN

ZCZC

SMRO01 YRBK 270000

AAXX 27001

15015 02998 31902 10117 20079 39658 42863 54001 60001 80001 333 55039

60007 91003 91103=

15020 02997 02800 10101 20087 30054 40251 54000 60001 333 55056 60007

=

15090 02997 22502 10113 20092 30118 40243 57001 60001 80008 333 55078

60007=

15108 02997 00906 10061 20054 38198 48609 51001 60001 333 55054 60007

95157 444 17082=

15120 02997 42202 10120 20106 39761 40252 52003 60001 84070 333 55021

60007=

15150 02997 00202 10119 20104 30028 40252 54001 60001 333 55063 60007

91003 91103=

15170 01996 00000 10058 20055 39428 42864 52002 60001 71000 333 55055

60007 91001 91102=

15200 02697 50000 10153 20127 30095 40236 52004 60001 85500 333 55024

60007=

15230 01597 71801 10136 20131 39964 40254 52003 69921 70282 84370 333

55300 10078 20000 3//// 55012 00185 20658 3//// 60007 91001 91101=

15260 02997 60500 10121 20108 39720 40250 52001 60001 86070 333 55037

60007=

15280 NIL=

15292 02997 01102 10106 20099 39957 40252 52006 60001 333 4//// 55000

60007 91002 91103=

15310 02998 20203 10155 20069 30139 40223 54001 60001 81031 333 55300

10193 20000 30000 55079 00634 21476 31061 60007 91006 91106=

15335 02997 33001 10143 20097 30212 40219 54001 60001 82042 333 55060

60007 91002 91102=

15346 01597 73502 10152 20142 39959 40244 52002 69921 70282 83370 333

55050 60007 91004 91104=

15350 02997 03203 10146 20088 30111 40227 57001 60001 333 55094 60007

=

15360 02998 00510 10186 20161 30196 40203 54000 60001 222// 0////

2//// 333 55047 60007 91014 92438=

15410 NIL=

15420 02997 43401 10110 20108 30108 40218 54000 60001 84030 333 55021

60007 91002 91102=

15450 02997 50302 10152 20137 30005 40237 54000 60001 85030 333 55027

60007 91003 91103=

15460 02997 02000 10124 20105 30195 40218 57002 60001 333 55010 60007

=

15470 02997 33301 10148 20134 30109 40233 52002 60001 83040 333 55061

60007 91002 91102=

15480 02997 33503 10181 20126 30183 40200 57002 60001 83030 222//

0//// 2//// 333 55000 60007 91006 91108 92437=






NNNN

ZCZC

SMYG10 LYBM 270000 RRA

AAXX 27001

13160 32997 03101 10114 20099 30127 40235 54000=

13262 32997 00000 10123 20116 30098 40246 51002=

13285 32997 30702 10136 20128 30141 40242 53003 83030=

13289 31/91 91404 10106 20101 48559 52003 74722=

13376 32697 70000 10127 20118 39983 40243 52006 87500=

13279 31991 00000 10110 20106 30089 40236 53002 74640=

13279 31991 00000 10110 20106 30089 40236 53002 74640=

13489 32998 00602 10121 20117 39622 40233 51004=






NNNN

ZCZC

SMYG21 LYBM 270000 RRA

AAXX 27001

13067 32997 03601 10132 20123 30119 40245 54000=

13279 31991 00000 10110 20106 30089 40236 53002 74640=

13367 32497 22001 10103 20095 48556 56002 82500=






NNNN

ZCZC

SMYG22 LYBM 270000 RRA

AAXX 27001

13168 31996 02701 10115 20111 30133 40239 54000 71000=

13174 32997 01401 10139 20125 30136 40236 54000=

13269 32998 00000 10120 20117 30030 40244 54000=

13274 32997 51801 10145 20128 30072 40230 53001 85030=






NNNN

ZCZC

SIVF99 ENMI 270300

BBXX
LF4H 27034 99596 10022 46/// /2022 10124 20113 49966 57003 8////
     22200 06124 10808 70041=







NNNN

ZCZC

SIVF99 ENMI 270300

BBXX
LF5T 27034 99660 10081 41696 81623 10107 20089 49936 57023 76266
     889// 22200 00100 10605 70026=







NNNN

ZCZC

SIUK21 EGRR 270300

AAXX 27034

03005 42770 22126 10116 20086 39809 49905 58007 82500 90250 333

55300 20000 82656 91033 90710 91134=

03017 45775 /2120 10114 20088 39885 49915 58005 90250 333 55300

20000 81/50 91027 90710 91128=

03023 47658 /2330 10116 20088 39888 49892 53002 782// 90250 333

81/37 87/45 91038 90710 91142=

03026 47764 /2125 10117 20093 39856 49873 58010 723// 90250 333

55300 20000 83/50 91034 90710 91140=

03063 47680 /2112 10111 20069 39674 49942 57009 781// 90250 333

55300 20000 82/30 85/45 90710 91129=

03066 42682 12113 10122 20073 39916 49923 58010 81800 90250 333

55300 20000 81830 90710 91126=

03075 45768 /2012 10116 20079 39877 49921 56007 90250 333 81/50=

03091 42475 62111 10121 20085 39883 49964 57006 865// 90250 333

81618 86625=

03100 45662 /2427 10114 20092 39915 49931 57001 90255 333 55300

20000 86/46 84/61 91036 90710 91139=

03111 46965 /2122 10128 20091 39976 49987 57008 90252 333 8//99

91032 90710 91132=

03134 47766 /2118 10125 20096 39913 49984 58006 723// 90250 333

55300 20000 87/50 91029 90710 91133=

03136 45968 /2016 10126 20082 39961 49994 58005 90250 333 55300

20000 82/60 90710 91127=

03162 41470 62111 10114 20096 39734 40021 57005 72582 862// 90250

333 55300 20000 86818 90710 91127=

03166 45977 /2315 10124 20079 39918 49988 58009 90250 333 55300

20000 8//99 90710 91126 91026=

03171 42570 22218 10124 20088 39969 49983 58009 82500 90250 333

55300 20000 82628 91025 90710 91129=

03204 42475 22320 10136 20101 30010 40036 58004 82800 90250 333

81818 90710 91129 91029=

03240 45968 /1704 10100 20086 39993 40026 58006 90250 333 55300

20000 81/67=

03257 42981 21706 10120 20103 30011 40056 58002 80001 90250 333

55300 20000 82075=

03292 42968 32307 10138 20112 30036 40059 51001 80001 90250 333

83080=

03302 42462 72321 10147 20118 30049 40062 58002 81132 90250 333 55300

 20000 81815 87070 91027 90710 91131=

03354 45975 /2406 10129 20114 39944 40086 50005 90250 333 55300 20000

 84/72=

03377 41682 52308 10145 20132 39996 40082 51004 72162 82532 90250

333 55300 20000 82640 83070=

03414 45969 /1808 10119 20097 39995 40086 50002 90250 333 55300

20000 8//99=

03462 41482 82312 10157 20143 30000 40091 58003 76062 885// 90250

333 55300 20000 84713 88623=

03482 41575 82011 10155 20141 30070 40096 58009 72162 885// 90250

333 88620=

03495 41762 82112 10160 20130 30074 40100 57012 76062 8457/ 90250

333 55300 20000 84656 88360=

03502 47760 /2213 10133 20118 39932 40091 58001 704// 90250 333

55300 20000 85/56=

03535 41980 52206 10132 20117 39978 40094 51009 70262 80002 90250

333 85072=

03590 41560 82111 10153 20132 30002 40110 58011 76222 885// 90250

333 55300 20000 87621 88645=

03649 41470 82205 10142 20129 39998 40108 55002 76165 885// 90250

333 81710 88641=

03740 41465 82305 10134 20129 39939 40113 52001 72165 885// 90250

333 81710 83625 88633=

03746 41256 82710 10140 20138 39963 40115 55009 763// 887// 90250

333 85704 87711 88619=

03772 41350 82014 10161 20145 30083 40113 58009 75065 886// 90250

333 55300 20000 82708 88710=

03796 42575 82317 10163 20135 39998 40137 58011 885// 90250 333

88620 90710 91132 91028=

03803 46767 /2513 10154 20125 40135 52006 90255 333 81/56=

03808 41462 72308 10136 20132 30027 40133 51006 72581 85802 90250

 333 55300 20000 82818 84656 85075=

03809 42562 52309 10148 20143 30030 40134 50006 85800 90250 333

83820 85656=

03817 41360 62211 10144 20137 39999 40127 50006 72582 868// 90250

333 81706 83818 86656=

03827 47460 /2408 10148 20143 30072 40133 51006 710// 90250 333

81/13 87/71=

03840 47363 /2607 10132 20128 39823 40122 52004 723// 90250 333

86/08 84/14 85/50=

03853 41765 80000 10143 20136 30095 40118 53001 72162 885// 90250

333 55300 20000 88650=

03874 41556 82224 10165 20155 30106 40121 58012 76262 885// 90250

333 88620 91030 90710 91133=

03882 47468 /2212 10163 20138 30073 40137 58010 781// 90250 333

55300 20000 88/14=

03894 41242 82117 10156 20148 40146 57010 76366 885// 333 83704

85707 87611 90710 91127=

03917 45561 /1915 10118 20090 39929 40005 58004 90250 333 55300

20000 84/23 84/50=






NNNN

ZCZC

SIFR11 LFPW 270300

AAXX 27034

07005 26/// /2008 10136 20109 30078 40170 58008

  333 60007 90710 91116

  555 60005=

07015 22775 82010 10142 20104 30111 40167 58010 8557/

  333 60007 85656 87360 90710 91114 93100

  555 60005=

07020 26/// /2027 10163 20152 30121 40138 58012

  333 69947 91039 90710 91139

  555 69945=

07027 24983 /2210 10146 20123 30089 40169 58008 700//

  333 60007 90710 91117

  555 60005=

07037 26/84 /1806 10120 20106 30000 40182 58008

  333 60007 90710 91116

  555 60005=

07070 26/82 /2106 10137 20112 30088 40197 56007

  333 60007 90710 91110

  555 60005=

07110 21250 82612 10155 20152 30045 40158 55002 76166 877//

  333 60097 87703 90710 91131

  555 60035=

07117 21570 82214 10159 20151 30077 40147 56008 76262 88700

  333 60027 90710 91127 92438

  555 60015=

07130 24973 /2010 10145 20134 30131 40183 56009 700//

  333 60007 90710 91116

  555 60005=

07139 26/// /2104 10121 20112 30019 40192 58007

  333 60007 90710 91110

  555 60005=

07149 269// /1806 10134 20100 30090 40198 58006

  333 60007 90710 91110

  555 60005=

07168 26/// /1806 10130 20114 30067 40209 57009

  333 60007 90710 91108

  555 60005=

07181 26986 /1906 10142 20090 39800 40213 57007

  333 60007 90710 91108

  555 60005=

07190 22662 71702 10137 20128 30034 40217 57005 83572

  333 60007 83640 85356 87073 90710 91104

  555 60005=

07207 22565 62317 10176 20149 30134 40185 58008 81130

222// 326//

  333 60007 90710 91129 92437

  555 60005=

07222 22965 11904 10125 20120 30164 40195 56009 80001

  333 60007 81075 90710 91106

  555 60005=

07240 22980 61806 10133 20108 30071 40204 58009 86070

  333 60007 86365 90710 91108

  555 60005=

07255 26/// /1602 10128 20114 30019 40218 56007

  333 60007 90710 91104

  555 60005=

07280 22770 82402 10127 20111 39947 40218 58008 85502

  333 60007 85650 88071 90710 91104

  555 60005=

07299 22860 71702 10131 20123 39899 40223 57005 82531

  333 60007 82656 85363 87073 90710 91104 93100

  555 60005=

07314 26/70 /1406 10134 20125 30179 40207 58010

  333 60007 90710 91110

  555 60005=

07335 24972 /1804 10106 20098 30070 40216 58006 700//

  333 60007 90710 91106

  555 60005=

07434 21956 70704 10106 20100 39743 40222 57009 74022 80002

  333 60007 87076 90710 91104 93100

  555 60005=

07460 22965 82704 10121 20105 39831 40222 58010 88031

  333 60007 85358 87073 90710 91104 93100

  555 60005=

07471 26/// /2202 10102 20097 39270 48550 56006

  333 60007 90710 91104

  555 60005=

07481 22762 71704 10155 20132 39935 40219 58008 84502

  333 60007 84656 87075 90710 91108

  555 60005=

07510 22965 21204 10122 20116 30146 40211 58007 80001

  333 60007 82075 90710 91106 93100

  555 60005=

07535 26/// /1204 10106 20104 39910 40224 58013

  333 60007 90710 91108

  555 60005=

07577 26/// /0000 10139 20134 30137 40226 58004

  333 60007 90710 91104

  555 60005=

07591 24/// /0406 10115 20082 39230 48562 57006 700//

  333 60007 90710 91108

  555 60005=

07607 26961 /0804 10086 20086 30141 40213 58008

  333 60007 90710 91104

  555 60005=

07621 22980 21810 10117 20101 39787 40219 58004 80001

  333 60007 82073 90710 91110

  555 60005=

07627 26/// /0000 10105 20093 39734 40223 58007

  333 60007 90710 91114

  555 60005=

07630 21020 63302 10110 20105 30033 40224 58004 74011 86602

  333 69927 86701 85075 90710 91102 93100

  555 69925=

07643 23759 63602 10154 20148 30211 40221 58005 86500

  333 60007 86650 90710 91108

  555 60005=

07650 22457 21404 10181 20169 30182 40220 57006 82500

  333 60007 82616 90710 91106

  555 60005=

07661 26/68 /2808 10179 20164 30065 40225 55004

  333 69927 90710 91108

  555 60005=

07690 22962 43310 10175 20134 30187 40219 56005 80002

  333 60007 84073 90710 91112

  555 60005=

07747 22965 22404 10135 20121 30164 40221 57001 80001

  333 60007 82075 90710 91106

  555 60005=

07761 22965 00406 10149 20129 30211 40222 56008

  333 60007 90710 91108 95090

  555 60005=

07790 22960 02304 10155 20139 30210 40224 56001

  333 60007 90710 91106 95090

  555 60005=






NNNN

ZCZC

SICZ20 OKPR 270300

AAXX 27031

11423 21113 82703 10109 20107 39355 42843 57005 71022 886//

  333 60005 88703=

11464 42975 72807 10116 20090 39247 42836 55007 8707/

  333 87460 9512/=

11487 21657 73001 10125 20123 39609 40221 57005 71392 81443

  333 60005 81633 83359 87068 9512/=

11518 22962 72402 10131 20120 39787 40219 55004 8707/

  333 60005 82360 87362=

11603 21550 71201 10123 20123 39740 40215 55001 71022 82570

  333 60005 82622 87359=

11659 21522 81102 10109 20105 39590 40222 57007 79582 889//

  333 60125 82923 86823=

11782 21957 00000 10099 20097 39917 40231 57005 71000

  333 60005=






NNNN

ZCZC

SMRO01 YRBK 270000 RRB

AAXX 27001

15015 02998 31902 10117 20079 39658 42863 54001 60001 80001 333 55039

60007 91003 91103=

15020 02997 02800 10101 20087 30054 40251 54000 60001 333 55056 60007

=

15090 02997 22502 10113 20092 30118 40243 57001 60001 80008 333 55078

60007=

15108 02997 00906 10061 20054 38198 48609 51001 60001 333 55054 60007

95157 444 17082=

15120 02997 42202 10120 20106 39761 40252 52003 60001 84070 333 55021

60007=

15150 02997 00202 10119 20104 30028 40252 54001 60001 333 55063 60007

91003 91103=

15170 01996 00000 10058 20055 39428 42864 52002 60001 71000 333 55055

60007 91001 91102=

15200 02697 50000 10153 20127 30095 40236 52004 60001 85500 333 55024

60007=

15230 01597 71801 10136 20131 39964 40254 52003 69921 70282 84370 333

55300 10078 20000 3//// 55012 00185 20658 3//// 60007 91001 91101=

15260 02997 60500 10121 20108 39720 40250 52001 60001 86070 333 55037

60007=

15292 02997 01102 10106 20099 39957 40252 52006 60001 333 4//// 55000

60007 91002 91103=

15310 02998 20203 10155 20069 30139 40223 54001 60001 81031 333 55300

10193 20000 30000 55079 00634 21476 31061 60007 91006 91106=

15335 02997 33001 10143 20097 30212 40219 54001 60001 82042 333 55060

60007 91002 91102=

15346 01597 73502 10152 20142 39959 40244 52002 69921 70282 83370 333

55050 60007 91004 91104=

15350 02997 03203 10146 20088 30111 40227 57001 60001 333 55094 60007

=

15360 02998 00510 10186 20161 30196 40203 54000 60001 222// 0////

2//// 333 55047 60007 91014 92438=

15420 02997 43401 10110 20108 30108 40218 54000 60001 84030 333 55021

60007 91002 91102=

15450 02997 50302 10152 20137 30005 40237 54000 60001 85030 333 55027

60007 91003 91103=

15460 02997 02000 10124 20105 30195 40218 57002 60001 333 55010 60007

=

15470 02997 33301 10148 20134 30109 40233 52002 60001 83040 333 55061

60007 91002 91102=

15480 02997 33503 10181 20126 30183 40200 57002 60001 83030 222//

0//// 2//// 333 55000 60007 91006 91108 92437=






NNNN

ZCZC

SISN01 ESSB 270300

AAXX 27031
02464 45927 /1602 10121 20110 30140 40158 57006 710// 8////=






NNNN

ZCZC

SISN01 ESNU 270300

AAXX 27031
02286 45946 /1905 10111 20100 30091 40100 58009 710// 8////=






NNNN

ZCZC

SISN01 ESMQ 270300

AAXX 27031
02670 45/00 /1903 10131 20131 30173 40179 57005 733// 8//// 333
89/01=






NNNN

ZCZC

SIFR31 LFPW 270300

AAXX 27034

07031 26481 /2012 10135 20124 30002 40173 58010

  333 60007 90710 91121

  555 60005=

07039 26/// /2210 10163 20138 30078 40150 58010

  333 60007 90710 91123

  555 60005=

07100 21462 82912 10160 20152 30072 40153 53005 72164 888//

  333 60047 90710 91121 92447

  555 69905=

07103 21560 82423 10155 20152 30063 40159 55000 76362 885//

  333 60047 90710 91133 92437

  555 60025=

07107 21658 82712 10151 20146 30134 40155 53002 76162 888//

  333 60097 90710 91129 92436

  555 60055=

07118 26365 82014 10157 20149 30048 40151 56008

  333 69967 90710 91125

  555 69965=

07120 26481 /2214 10161 20138 30000 40159 58006

  333 60007 90710 91123

  555 60005=

07125 24982 /2012 10153 20140 30096 40166 58006 700//

  333 60007 90710 91117

  555 60005=

07134 26/// /2006 10123 20121 30074 40191 58010

  333 60007 90710 91110

  555 60005=

07200 21556 82221 10172 20157 30142 40162 58010 76362 88500

222// 330//

  333 69907 90710 91129 92446

  555 69905=

07201 243// 82212 10159 20157 30054 40165 56012 761//

  333 60017 90710 91123

  555 60015=

07203 22668 22221 10176 20152 30123 40176 58010 82140

222// 327//

  333 60007 90710 91133 92437

  555 60005=

07205 24583 82214 10176 20150 30125 40177 58009 700//

  333 60007 90710 91123

  555 60005=

07210 26/// /2208 10170 20148 30180 40184 58008

  333 60007 90710 91116

  555 60005=

07217 24983 /2210 10166 20144 30185 40190 58011 700//

  333 60007 90710 91117

  555 60005=

07230 26/// /1706 10126 20118 30141 40199 56011

  333 60007 90710 91110

  555 60005=

07235 26/// /1804 10110 20099 30135 40198 57010

  333 60007 90710 91106

  555 60005=

07300 22880 22214 10171 20140 30158 40196 56009 82050

  333 60007 92438=

07306 26/// /1404 10119 20117 30098 40208 58010

  333 60007 90710 91108

  555 60005=






NNNN

ZCZC

SIFR32 LFPW 270300

AAXX 27034

07140 26982 /1904 10106 20087 30050 40204 58009

  333 60007 90710 91108

  555 60005=

07143 26/// /1906 10127 20099 30011 40197 57008

  333 60007 90710 91110

  555 60005=

07145 26/// /2204 10124 20092 39996 40196 58007

  333 60007 90710 91108

  555 60005=

07146 26986 /1904 10123 20095 30005 40198 58006

  333 60007 90710 91108

  555 60005=

07150 24915 /2108 10157 20100 30132 4//// 58004 700//

  333 60007 90710 91110

  555 60005=

07153 266// 71806 10128 20103 30092 40203 58005

  333 60007 90710 91108

  555 60005=

07156 26/// /1804 10137 20103 30105 40197 58005

  333 60007 90710 91108

  555 60005=

07157 22970 62108 10151 20101 30060 40194 58005 82032

  333 60007 82361 84075 90710 91112 93100

  555 60005=

07245 26/// /1906 10120 20101 30056 40202 58008

  333 60007 90710 91108

  555 60005=

07257 22980 53204 10130 20119 30007 40219 56007 80001

  333 60007 85075 90710 91108 93100

  555 60005=

07354 24982 /2102 10130 20100 30029 40217 56008 700//

  333 60007 90710 91104

  555 60005=






NNNN

ZCZC

SIFR33 LFPW 270300

AAXX 27034

07090 26985 /1804 10127 20106 39983 40213 58002

  333 60007 90710 91104

  555 60005=

07093 24981 /1508 10129 20104 39905 40212 58004 700//

  333 60007 90710 91110

  555 60005=

07173 26/// /0000 10119 20116 39841 40222 57003

  333 60007 90710 91102

  555 60005=

07180 22960 81102 10123 20109 39963 40217 58004 86032

  333 60007 86363 88073 90710 91102 93100

  555 60005=

07288 26/// /0000 10135 20122 39855 40222 58005

  333 60007 90710 91100

  555 60005=

07295 26/// /0000 10126 20120 39724 40223 57005

  333 60007 90710 91104

  555 60005=

07386 24959 /0904 10136 20125 39987 40220 58006 700//

  333 60007

  555 60005=

07390 26/// /1104 10149 20138 39890 40221 58006

  333 60007 90710 91106

  555 60005=






NNNN

ZCZC

SIFR34 LFPW 270300

AAXX 27034

07260 26/// /0000 10105 20102 30008 40221 56009

  333 60007 90710 91102

  555 60005=

07265 26/// /1804 10134 20113 39961 40214 57008

  333 60007 90710 91106

  555 60005=

07374 26/// /2102 10117 20112 39926 40227 58008

  333 60007 90710 91104

  555 60005=

07379 24970 /0000 10117 20114 39930 40222 58009 700//

  333 60007 90710 91102

  555 60005=

07385 26/// /0000 10134 20120 39961 40220 58008

  333 60007 90710 91102

  555 60005=

07469 26/// /0000 10089 20083 39051 48555 55003

  333 60007 90710 91102

  555 60005=

07475 26960 /1504 10139 20121 39749 40222 58009

  333 60007 90710 91108

  555 60005=

07480 24/63 /1602 10153 20137 39982 40222 58007 700//

  333 60007 90710 91104

  555 60005=

07482 26/// /0902 10142 20122 39926 40225 58005

  333 60007 90710 91104

  555 60005=

07486 24958 /0808 10139 20133 39770 40224 58005 700//

  333 60007 90710 91110

  555 60005=

07487 26/// /1202 10137 20134 39966 40228 58003

  333 60007 90710 91104

  555 60005=

07491 26956 /1402 10132 20127 39947 40228 58003

  333 60007 90710 91104

  555 60005=

07497 26/// /0000 10114 20095 39239 48561 56006

  333 60007 90710 91102

  555 60005=

07549 26/// /1006 10102 20096 39479 40231 58008

  333 60007 90710 91108

  555 60005=






NNNN

ZCZC

SIFR35 LFPW 270300

AAXX 27034

07316 26976 /1608 10138 20130 30183 40207 58009

  333 60007 90710 91110

  555 60005=

07330 26/// /1404 10114 20106 30139 40213 58008

  333 60007 90710 91108

  555 60005=

07360 26/// ///// 10122 20092 39570 40217 57013

  333 60007

  555 60005=

07412 26911 /0804 10108 20099 30178 40215 58009

  333 60007 90710 91104

  555 60005=

07438 26/// /0000 10094 20089 30084 40227 58012

  333 60007 90710 91104

  555 60005=

07500 26/65 /1210 10144 20124 30174 40209 58008

  333 60007 90710 91116

  555 60005=

07503 26/// /1008 10130 20117 30161 40208 57005

  333 60007 90710 91114

  555 60005=

07524 26/03 91006 10108 20100 30144 40217 58010

  333 60007 90710 91108

  555 60005=

07530 26/03 90804 10094 20091 30155 40217 56012

  333 60007 90710 91108

  555 60005=

07540 26/// /0000 10088 20080 30093 40225 58007

  333 60007 90710 91102

  555 60005=

07552 26966 /0502 10112 20107 39550 40229 58004

  333 69927 90710 91106

  555 60005=

07600 26/70 /2208 10161 20123 30152 40203 57010

  333 60007 90710 91116

  555 60005=

07602 26986 /1402 10114 20101 30118 40204 57009

  333 60007 90710 91108

  555 60005=

07603 26/// /1102 10112 20103 30168 40207 58007

  333 60007 90710 91104

  555 60005=

07610 24970 /1206 10108 20100 39993 40214 58006 700//

  333 69927 90710 91108

  555 60005=

07622 26/// /2002 10098 20096 30065 40221 58008

  333 69927 90710 91106

  555 60005=

07632 26/// /0702 10107 20102 30021 40228 58001

  333 69927 90710 91104

  555 69925=






NNNN

ZCZC

SIFR36 LFPW 270300

AAXX 27034

07555 26/// /0000 10101 20096 39063 48553 58009

  333 60007 90710 91102

  555 60005=

07560 26/// /1812 10087 20084 38497 48562 56007

  333 60007 90710 91116

  555 60005=

07563 24938 /1702 10156 20146 30165 40222 58007 700//

  333 69927 90710 91104

  555 69925=

07586 26/// /1102 10147 20137 30097 40223 57008

  333 69927 90710 91104

  555 60005=

07588 26/// /0202 10130 20124 39689 40231 57007

  333 69927 90710 91106

  555 69925=

07635 26958 /2602 10113 20104 30069 40227 57002

  333 60007 90710 91104

  555 60005=

07638 24970 /0000 10142 20131 30201 40220 55005 700//

  333 60007 90710 91108

  555 60005=

07641 26682 /0502 10175 20160 30123 40219 56005

  333 60007 90710 91106

  555 60005=

07645 26/// /3502 10149 20136 30147 40221 57006

  333 60007 90710 91104

  555 60005=

07646 26/// /1502 10163 20155 30106 40220 58007

  333 60007 90710 91104

  555 60005=

07647 26/21 /0000 10175 20167 30191 40221 58007

  333 60007 90710 91104

  555 60005=

07666 26275 /3406 10162 20124 30164 40214 57004

  333 60007 90710 91110

  555 60005=

07667 24959 /3206 10167 20152 30216 40221 56004 700//

  333 69927 90710 91110

  555 69925=

07675 26/// /0000 10139 20133 30124 40223 56006

  333 60007 90710 91104

  555 60005=

07684 369// /3402 10153 20133 30215 40220 56005=

07749 26574 /3208 10158 20135 30108 40218 58003

  333 60007 90710 91110

  555 60005=

07753 26/// /2002 10186 20174 30053 40223 55001

  333 60007 90710 91104

  555 60005=

07754 26/// /2208 10147 20131 30157 40227 55001

  333 60007 90710 91110

  555 60005=

07770 26/70 /0606 10170 20162 30084 40221 56008

  333 60007 90710 91106

  555 60005=

07775 26/75 /3308 10182 20133 30136 40224 55003

  333 60007 90710 91110

  555 60005=

07780 26/// /0204 10124 20116 30195 40223 56008

  333 60007 90710 91104

  555 60005=

07785 26/// /0000 10195 20182 30096 40229 55001

  333 60007 90710 91102

  555 60005=






NNNN

ZCZC

SIFR37 LFPW 270300

AAXX 27034

07002 26/// /2321 10166 20135 30069 40151 58011

  333 60007 91035 90710 91135

  555 60005=

07003 265// /2112 10164 20127 30150 40161 58009

  333 60007 90710 91119

  555 60005=

07010 26170 /2112 10151 20122 30130 40150 57012

  333 60007 90710 91119

  555 60005=

07028 26/81 /2121 10151 20135 30045 40170 58006

  333 60007 90710 91131

  555 60005=

07040 26/// /2012 10144 20121 30119 40168 58009

  333 60007 90710 91123

  555 60005=

07046 24983 /2014 10150 20135 30056 40168 58009 700//

  333 60007 90710 91123

  555 60005=

07055 24984 /2006 10115 20092 30051 40185 58008 700//

  333 60007 90710 91108

  555 60005=

07057 26/86 /1806 10124 20096 30084 40190 58006

  333 60007 90710 91108

  555 60005=

07061 26/// /2208 10130 20107 30064 40185 58008

  333 60007 90710 91112

  555 60005=

07075 26/// /0902 10119 20110 30017 40196 56009

  333 60007 90710 91104

  555 60005=

07283 26/// /2802 10135 20094 39669 40214 57009

  333 60007

  555 60005=






NNNN

ZCZC

SIFR36 LFPW 270300 CCA

AAXX 27034

07579 22958 70802 10148 20140 30158 40224 56006 83032

  333 60007 83358 87073 90710 91102

  555 60005=






NNNN

ZCZC

SIHU41 HABP 270300

AAXX 27031

12812 41202 40000 10085 20079 39991 40239 56007 74640 84601

  333 84703=

12851 41665 70000 10117 20096 39082 42862 56006 70222 8257/

  333 82640 444 37034=

12860 41950 70000 10153 20137 30129 40236 57003 71022 8707/=

12892 NIL=

12935 41958 01201 10119 20111 30102 40234 55005 70200

  333 92518=

12950 41920 10000 10099 20094 30116 40236 55005 71000 81042=

12992 41962 70000 10145 20137 30131 40236 56006 70222 8703/=






NNNN

ZCZC

SIDL44 EDZW 270300 RRB

AAXX 27031

10033 42758 21606 10114 20101 30118 40158 58008 81501

  333 81650

  999 01810=

10126 42965 52003 10122 20102 30149 40163 56007 85030

  333 85362

  999 01805=






NNNN

ZCZC

SINO98 ENTO 270300

AAXX 27031

01483 47365 71906 10135 20123 30002 40106 58016 87/// 333 81/08

 83/09 85/11 87/16=








NNNN

ZCZC

SIRO21 YRBK 270300

AAXX 27031

15015 22998 21901 10102 20077 39653 42857 57005 80001 333 60007 91002 91102=

15020 22597 83000 10092 20079 30051 40249 57003 885// 333 60007=

15090 22997 82402 10093 20078 30118 40244 54000 80007 333 60007=

15108 22997 00904 10060 20060 38192 48599 58006 333 60007 95150 444 27081=

15120 22997 22002 10106 20093 39757 40251 57004 82030 333 60007=

15150 22997 00302 10099 20091 30026 40252 57002 333 60007 91002 91102=

15170 21992 00000 10038 20037 39481 42861 54000 74440 333 60007 91000 91101=

15200 22997 01001 10119 20105 30088 40231 57007 333 60007=

15230 21496 62301 10123 20118 39959 40251 57004 71022 86600 333 55300 10096

20000 3//// 60007 91001 91101=

15260 22997 61200 10110 20098 39716 40248 57004 86070 333 60007=

15280 22598 10712 10011 20003 37580 47128 57004 81040 333 60007 91018=

15292 23/// /1302 10113 20099 39948 40242 57009 333 60007 91003 91103=

15310 22998 50203 10135 20073 30140 40225 54001 83032 333 55300 10159 20000

30000 60007 91006 91106=

15335 22997 42901 10133 20099 30214 40220 52002 82042 333 60007 91003 91103=

15346 22597 63501 10144 20138 39955 40241 55004 83370 333 60007 91003 91104=

15350 22997 03204 10142 20080 30109 40225 57002 333 60007=

15360 22998 00510 10186 20152 30193 40200 56003 333 60007 91014 92438=

15410 22597 43301 10127 20100 30143 40237 57005 84900 333 60007=

15420 22997 23502 10114 20108 30106 40216 57002 82030 333 60007 91003 91103=

15450 22997 63201 10141 20136 30002 40235 57003 86070 333 60007 91002 91103=

15460 22997 52600 10126 20098 30196 40219 52001 85070 333 60007=

15470 22997 03402 10141 20129 30104 40229 57005 333 60007 91003 91103=

15480 22997 33504 10174 20130 30181 40198 54001 83030 333 60007 91008 91108

92437=






NNNN

ZCZC

SIFR60 LFPW 270300

AAXX 27034

07004 42/81 /2325 1//// 2//// 3//// 4////

  333 1//// 2//// 91037 90710 91139 92438=

07019 41/97 62014 10172 702//

  333 92437=

07029 22684 52116 10152 20134 30071 40159 58007 81150

  333 60007 90710 91125 92439

  555 60005=

07106 26250 82214 10158 20155 30018 40154 58005

  333 60057 90710 91125

  555 60025=

07109 261// 82319 10156 20148 30064 40163 55004

  333 60067 90710 91129

  555 60025=

07133 41/98 31725 10160 70000

  333 92448=

07147 26986 /2004 10127 20097 39983 40197 58006

  333 60007 90710 91106

  555 60005=

07148 26/// /2006 10125 20102 30097 40201 58006

  333 60007 90710 91110

  555 60005=

07216 22970 62316 10174 20156 30159 40187 58010 86044

222// 300//

  333 60007 90710 91121 92438

  555 60005=

07311 26/// /1508 1//// 2//// 3//// 4////

  333 6///7=

07315 26/// /1404 10128 20120 30195 40207 58009

  333 60007 90710 91106

  555 60005=

07502 26973 /3504 10093 20085 30181 40210 58004

  333 60007 90710 91104

  555 60005=

07631 26/// /3004 10104 20098 30026 40227 58004

  333 69927 90710 91104

  555 69925=

07660 26/// /3302 10171 20154 30197 40224 55004

  333 69927 90710 91104

  555 60005=

07678 26/// /2708 10183 20176 30066 40220 55004

  333 69927 90710 91112

  555 69925=

07695 21475 20604 10190 20155 30048 40217 57005 701// 82600

  333 60007 82716 90710 91106 92428

  555 60005=

07791 42980 00000 10185 20177 3//// 4//// 5////

  333 92428=






NNNN

ZCZC

SMRS10 RUMS 270000 CCA

AAXX 27001

34247 42967 00000 10050 20033 30176 40291 52004=






NNNN

ZCZC

SIDL44 EDZW 270300 RRC

AAXX 27031

10129 32758 51805 10144 20123 30152 40165 56011 85500

  222// 20000

  333 55300 85650=






NNNN

ZCZC

SIDL47 EDZW 270300 RRB

AAXX 27031

10514 42765 89901 10128 20105 39971 40199 57011 8252/

  333 82650 88462

  999 02202=






NNNN

ZCZC

SIRO21 YRBK 270300

AAXX 27031

15015 22998 21901 10102 20077 39653 42857 57005 80001 333 60007 91002

91102=

15020 22597 83000 10092 20079 30051 40249 57003 885// 333 60007=

15090 22997 82402 10093 20078 30118 40244 54000 80007 333 60007=

15108 22997 00904 10060 20060 38192 48599 58006 333 60007 95150 444

27081=

15120 22997 22002 10106 20093 39757 40251 57004 82030 333 60007=

15150 22997 00302 10099 20091 30026 40252 57002 333 60007 91002 91102

=

15170 21992 00000 10038 20037 39481 42861 54000 74440 333 60007 91000

91101=

15200 22997 01001 10119 20105 30088 40231 57007 333 60007=

15230 21496 62301 10123 20118 39959 40251 57004 71022 86600 333 55300

10096 20000 3//// 60007 91001 91101=

15260 22997 61200 10110 20098 39716 40248 57004 86070 333 60007=

15280 22598 10712 10011 20003 37580 47128 57004 81040 333 60007 91018

=

15292 23/// /1302 10113 20099 39948 40242 57009 333 60007 91003 91103

=

15310 22998 50203 10135 20073 30140 40225 54001 83032 333 55300 10159

20000 30000 60007 91006 91106=

15335 22997 42901 10133 20099 30214 40220 52002 82042 333 60007 91003

91103=

15346 22597 63501 10144 20138 39955 40241 55004 83370 333 60007 91003

91104=

15350 22997 03204 10142 20080 30109 40225 57002 333 60007=

15360 22998 00510 10186 20152 30193 40200 56003 333 60007 91014 92438

=

15410 22597 43301 10127 20100 30143 40237 57005 84900 333 60007=

15420 22997 23502 10114 20108 30106 40216 57002 82030 333 60007 91003

91103=

15450 22997 63201 10141 20136 30002 40235 57003 86070 333 60007 91002

91103=

15460 22997 52600 10126 20098 30196 40219 52001 85070 333 60007=

15470 22997 03402 10141 20129 30104 40229 57005 333 60007 91003 91103

=

15480 22997 33504 10174 20130 30181 40198 54001 83030 333 60007 91008

91108 92437=






NNNN

ZCZC

SIFI20 EFKL 270300

AAXX 27031

02755 47457 71904 10132 20114 30044 40137 57007 71010 87/// 90239=

02836 46/60 /2004 10101 20090 40075=

02866 47460 72205 10134 20111 39974 40118 57006 70000 87/// 90239=

02913 41407 81905 10137 20121 40137 58007 71022 887//=

02939 47960 01904 10095 20089 30021 40212 57002 70000 90239=

02944 47250 71803 10120 20112 40185 57006 70000 87/// 90230=

02963 46/58 /1904 10120 20114 40195=

02971 42365 31703 10125 20120 40159 57015 70121 82705=

02974 42870 71804 10118 20109 30145 40210 57004 70311 8703/=

02976 42975 12104 10133 20117 40217 57002 70200 81010=

02981 41950 01810 10132 20127 30173 40181 57009 71000=

02982 42970 01806 10128 20123 40194 57005 70200=

02805 NIL=

02807 NIL=

02845 NIL=

02849 NIL=

02897 NIL=

02917 NIL=

02924 NIL=

02935 NIL=

02947 NIL=

02952 NIL=






NNNN

ZCZC

SIHU42 HABP 270300

AAXX 27031

12815 46/// /1201 10112 20106 30085 40233 56005=

12825 46/// /1301 10098 20095 30067 40234 57006=

12830 46/// /0000 10122 20113 39902 40242 55006=

12870 NIL=

12910 46/// /3501 10101 20100 39860 40239 56007=

12932 41908 00000 10097 20092 30047 40236 56007 74640=

12970 41950 40301 10118 20107 30099 40238 56006 71000 83032=






NNNN

ZCZC

SIHU43 HABP 270300

AAXX 27031

12756 NIL=

12766 46/// /0000 10123 20114 39873 40246 56006=

12786 46/// /0000 10126 20115 30115 40243 55004=

12805 46/// /0601 10086 20083 30083 40229 57006=

12836 46/// /0000 10104 20093 30085 40237 55005=

12846 46/// /0000 10118 20109 30106 40235 56004=

12847 46/// /0000 10102 20096 30103 40239 55005=

12866 46/// /0701 10142 20137 30129 40238 56004=

12915 46/// /2801 10095 20089 39945 40238 55005=

12922 NIL=

12960 46/// /0901 10093 20088 30096 40234 56006=






NNNN

ZCZC

SITU10 LTAA 270300

AAXX 27034

17022 42662 71905 10189 20137 30019 40178 55002 84270

  333 84834 87360 92427=

17031 42670 21404 10148 20138 30172 40178 57003 82100 333 82836=

17038 42670 31404 10188 20109 30141 40182 53001 83100

  333 83835 92428=

17050 42970 09903 10157 20127 30149 40210 57005=

17060 42660 52705 10166 20132 30155 40195 54000 83250

  333 83835 85360=

17096 42970 02303 10035 20000 38269 48531 51003=

17124 42965 40101 10132 20115 39301 40186 58002 84030 333 84360=

17128 42970 03602 10082 20060 39105 40193 55001=

17170 42970 00000 10087 20054 38348 48515 53001=

17195 42970 00304 10070 20056 38994 48529 57002=

17199 42970 11203 10158 20055 39087 40131 54000 81030

333 81360=

17219 42965 00205 10168 20136 30041 40181 56002=

17240 42975 39902 10121 20091 39060 40169 56004 83030

  333 83360=

17244 42970 03407 10150 20114 39017 48543 57003=

17280 42970 03007 10168 20018 39363 40114 52006=

17350 42960 03606 10177 20165 30072 40146 57004=






NNNN

ZCZC

SITU11 LTAA 270300

AAXX 27034

17026 42/// /0000 10198 20193 30140 40178 57004

  333 924//=

17034 42670 20000 10190 20148 30128 40173 58002 82100

333 82835 92428=

17070 42665 59902 10138 20124 39336 40180 56006 85200

  333 85833=

17084 42670 69901 10103 20093 39292 40167 55002 84250

  333 84835 86360=

17098 42670 22004 10040 20019 38234 48531 54000 82100

333 82840=

17150 42960 09903 10141 20124 30074 40194 57006=

17160 42/// /9902 10103 20084 39041 48518 55002=

17184 42970 09903 10162 20130 30083 40192 56002=

17190 42/// /9901 10100 20087 39026 48531 57002=

17210 42970 01601 10180 20082 39146 40124 54000=

17234 42970 09902 10170 20124 30114 40180 55001=

17260 42970 00103 10146 20061 39346 40129 51001=

17290 42970 09901 10208 20142 30143 40174 55003

  333 92408=

17090 NIL=

17370 NIL=






NNNN

ZCZC

SITU12 LTAA 270300

AAXX 27034

17024 42670 71611 10172 20139 30098 40173 56003 83570

  333 83635 87460 92428=

17056 42/// /2905 10166 20146 30204 40207 57006

  333 924//=

17067 42670 62603 10191 20163 30157 40178 58003 86200

  333 86840 92418=

17092 42970 00000 10084 20069 38878 48522 55000=

17112 42965 01004 10155 20131 30205 40208 55000

  333 92417=

17115 42660 30105 10176 20156 30148 40198 55004 83100 333 83835=

17116 42965 09901 10152 20142 30083 40201 55004=

17188 42970 09902 10104 20081 39146 40179 57005=

17202 42970 02704 10110 20040 39150 40141 53007=

17248 42975 02702 10106 20052 39000 48528 54000=

17292 42970 03004 10151 20111 39435 40165 56005=

17300 42970 02502 10169 20133 30073 40148 57005=

17310 42/// /9902 10225 20158 30141 40148 57003

  333 924//=

17330 NIL=






NNNN

ZCZC

SITU13 LTAA 270300

AAXX 27034

17074 42/// /9903 10119 20111 39274 40181 55003=

17086 42970 00902 10121 20099 39480 40171 54000=

17140 42665 00000 10089 20074 38737 48529 57002=

17155 42670 59901 10125 20114 39099 40184 57004 83140

  333 83840 85360=

17203 42970 02802 10128 20066 38860 48530 56002=

17237 42970 09902 10172 20114 39694 40178 56005=

17250 42975 00404 10103 20060 38832 48534 56004=

17295 42960 09902 10195 20131 30149 40155 55005=

17320 42970 03603 10200 20180 30127 40132 58003

  333 92418=

17375 42975 09902 10186 20138 30148 40150 57005

  333 92408=

17042 NIL=

17088 NIL=

17270 NIL=






NNNN

ZCZC

SITU14 LTAA 270300

AAXX 27034

17521 42960 02908 10181 20148 30016 40150 55004=

17500 NIL=

17510 NIL=

17515 NIL=

17540 NIL=






NNNN

ZCZC

SIOS20 LOWM 270300

AAXX 27031

11010 41228 82902 10131 20131 39852 40225 55004 76164 885// 333

81706 85628 87360=

11012 27/// /2702 10139 39761 7404/ 333 69947=

11028 NIL=

11035 32964 10601 10116 20107 39968 40218 57007 80002 333 81075=

11036 41912 21803 10111 20104 30003 40225 56007 71000 80002 333

82078=

11101 36/// /1202 10148 20133 39711 40225=

11120 42360 80000 10133 20126 39539 40233 55006 888// 333 83707

85656 85658=

11146 NIL=

11150 42765 71502 10144 20126 39692 40224 55008 8357/ 333 83656

86359=

11155 36/// /2701 10141 20118 38433 48554=

11157 42765 73101 10100 20091 39478 40241 50008 8387/ 333 83650

86359=

11190 32660 10202 10122 20116 39992 40223 58006 81500 333 81640=

11212 NIL=

11231 41108 60000 10107 20100 39676 40243 57006 74122 8663/ 333

82702 85703=

11240 41903 00000 10110 20108 39799 40234 57006 74144=






NNNN

ZCZC

SITU13 LTAA 270300 RRA

AAXX 27034

17270 42970 01602 10153 20123 39610 40120 54000=






NNNN

ZCZC

SIOS40 LOWM 270300

AAXX 27031

11022 36/// /3403 10120 20118 39851 40236=

11126 36/// /1505 10052 20038 37817 48560=

11130 36/// /2202 10137 20124 39647 40224=

11204 36/// /0000 10126 20105 39460 40234=

11245 NIL=






NNNN

ZCZC

SIOS41 LOWM 270300

AAXX 27031

11001 26/// /3203 10142 20110 39501 40218 333 69967=

11014 NIL=

11024 36/// /2504 10124 20111 39122 48548=

11030 41/01 92902 10112 20103 30011 40223 56006 74544 333 89/01=

11053 36/// /3401 10141 20131 39724 40230=

11105 36/// /3001 10142 20137 39716 40231=

11110 36/// /2803 10071 20045 37973 48555=

11112 36/// /1802 10130 20117 39302 40227=

11127 36/// /0801 10058 20044 38125 48567=

11136 27/// /0801 10103 20098 39084 48559 7404/ 333 69937=

11142 NIL=

11147 26/// /0000 10105 20099 39242 40236 333 69947=

11148 NIL=

11153 NIL=

11156 NIL=

11160 NIL=

11165 41060 32602 10090 20080 39441 40244 58009 71100 81601 333 81701

83077=

11175 36/// /0000 10130 20115=

11180 36/// /2203 10102 20062 38501 48555=

11207 NIL=

11210 NIL=

11229 36/// /0000 10098 20092 39759 40242=

11318 46/// /2503 11015 21027=






NNNN

ZCZC

SIOS44 LOWM 270300

AAXX 27031

11302 36/// /2301 10141 20130 39742 40225=

11308 36/// /2001 10089 20078 38592 48560=

11310 36/// /0602 10062 20033 37770 47166=

11340 27/// /2203 10061 20041 38104 48559 7404/ 333 60027=

11345 NIL=

11346 NIL=

11348 36/// /2201 10083 20073 38932 48559=

11350 36/// /2301 10144 20121 39725 40221=

11351 27/// /0000 10098 20090 38863 48555 7404/ 333 69937=

11354 26/// /1101 10123 20110 39640 40233 333 69917=

11355 36/// /0000 10109 20098 39515 40236=

11356 27/// /1201 10115 20106 39458 40232 7404/ 333 69937=

11357 36/// /0000 10137 20122 39597 40223=

11358 46/// /0000 10098 20084 39304 40238=

11360 NIL=

11370 36/// /0901 10129 20119 39651 40244=

11380 46/// /3301 10076 20069 39654 40237=

11382 36/// /2901 10066 20063 39550 40246=

11384 36/// /2204 10088 20084 38746 48555=

11387 36/// /2102 10115 20102 39986 40210=

11137 NIL=

11173 NIL=

11193 36/// /0000 10092 20086=

11221 46/// /0000 10125 20115=






NNNN

ZCZC

SANO99 ENZV 270320

METAR

ENZV 270320Z 17021G31KT 9999 -RA FEW010 BKN017 14/12 Q1003=








NNNN

ZCZC

SIUK42 EGRR 270300

AAXX 27034

03002 46968 /1919 10116 20094 49911 57002 90253 333 80/99=

03006 46/// /2124 90250 333 91033 90710 91135=

03010 46/// /2132 10133 20100 49881 57009 333 90710 91142=

03014 46/// /2025 10126 20101 39878 49903 57009 90250 333 8////

90710 91134=

03031 46569 /2323 10108 20063 49915 57007 90251 333 81/23 82/32

81/39=

03034 46561 /2023 10121 20103 49906 57010 90253 333 81/26 82/50

81/59=

03035 46/// /2423 10116 20096 39902 49906 53005 90250 333 91037

90710 91142=

03037 47458 /2217 10120 20107 39893 49914 58005 783// 90250 333

81/15 86/34 91034 90710 91134=

03039 46/// /2051 10066 20066=

03041 46/// /2242 10044 20043=

03044 46669 /2112 10121 20071 49904 57008 90253 333 82/39 86/50=

03047 46568 /2019 10106 20096 49939 57010 90251 333 82/23 82/39

82/50=

03062 46980 /2213 10118 20077 49921 57007 90255 333 80/99=

03065 46/// /2353 10034 20033=

03068 42780 12012 10122 20063 39919 49931 58010 81500 90250 333

81650=

03072 46/// /1936 10072 20069=

03080 46974 /2323 10129 20066 49945 57022 90252 333 80/99=

03088 46964 /2231 10117 20091 49970 57014 90253 333 80/99=

03094 46970 /1611 10112 20081 39938 49942 58010 90250 333 8//99=

03105 45766 /2022 10125 20087 39935 49969 57007 90252 333 81/56

91034 90710 91134=

03132 46662 /2122 10129 20100 40012 57003 90256 333 82/33 82/50=

03138 42665 82219 10132 20105 49982 57002 885// 333 88630=

03144 46573 /2315 10123 20091 49977 57008 90253 333 81/25 82/46=

03148 46/// /2224 10088 20076=

03153 46586 /2224 10133 20093 40023 57003 90252 333 86/21=

03155 46974 /2213 10107 20078 40004 57008 90252 333 80/99=

03158 46566 /2311 10121 20097 40010 57007 90259 333 83/25 81/34=

03174 42980 22014 10125 20104 49992 57009 82070 333 82358 92438=

03210 46567 /2316 10128 20088 40039 54000 90252 333 81/22 81/27

86/50=

03212 46/// /2409 10149 20105 40038 57004 90252 333 8////=

03214 46462 /2316 10143 20117 40043 57001 90251 333 81/13 81/16=

03220 46574 /2113 10140 20105 40028 57002 90251 333 81/26 82/57=

03224 46476 /2211 10110 20084 39684 40022 58006 90250 333 87/19=

03225 46467 /2218 10120 20094 40033 57009 90252 333 81/12 85/18

82/32=

03226 46568 /2313 10121 20087 40038 57003 90251 333 83/21 82/32

81/50=

03227 46/// /2336 10075 20074=

03230 46560 /2315 10117 20093 39768 40019 57010 90250 333 81/23

86/35 90710 91129=

03238 45965 /2313 10116 20084 39855 40027 58006 90250 333 8//99=

03246 46/// /1906 10134 20084 39970 40031 58007 90250=

03261 42980 61904 10109 20099 30018 40061 58001 80002 90250 333

86075=

03265 46571 /2007 10107 20095 30019 40060 50002 90252 333 82/23=

03266 42680 52105 10129 20106 30042 40061 58001 81502 90250 333

81640 85075=

03275 45967 /2114 10111 20111 39863 40053 58004 90250 333 8//99=

03281 41270 82110 10109 20107 40061 54000 76162 886// 333 88705=

03903 46463 /2013 10125 20099 49993 54000 90253 333 85/19 84/50=

03904 47765 /2118 10113 20095 39925 49987 57004 781// 90250 333

84/50 90710 91127 91027=

03908 46969 /2120 10121 20085 39973 49980 58004 90250 333 8//99

90710 91128 91028=

03911 46460 /2209 10103 20092 39724 49991 58003 90250 333 87/11=

03915 46565 /1814 10118 20094 39914 49991 58004 90250 333 84/22

83/50=

03916 46969 /1912 10110 20085 49985 57003 90253 333 80/99=

03923 46462 /1915 10106 20087 40008 57003 90252 333 85/18=

03927 42570 32013 10126 20082 40004 57006 83500 333 83620 92458=






NNNN

ZCZC

SIUK43 EGRR 270300

AAXX 27034

03305 46470 /2228 10136 20111 40063 57005 90252 333 85/16 81/34

82/50=

03313 46968 /2301 10127 20091 40072 57002 90251 333 80/99=

03316 46961 /2014 10141 20119 30051 40062 58003 90250 333 8//99=

03321 46968 /1909 10129 20087 40078 57001 90251 333 80/99=

03330 45973 /2308 10106 20100 39731 40086 50004 90250 333 8//99=

03344 46968 /2211 10113 20095 39750 40067 58003 90250 333 8//99=

03345 42962 22320 10117 20097 82030 333 82360=

03348 45976 /2111 10125 20106 39971 40076 51001 90250 333 55300

20000 8//99=

03355 45978 /2006 10117 20097 30054 40064 55001 90250 333 55300 20000

 8//99=

03373 46973 /2311 10137 20128 39999 40078 50002 90250 333 81/73=

03379 41681 72411 10147 20136 30007 40082 51003 721// 875/8 90250

333 87635 90710 91127=

03382 45978 /2408 10139 20119 30053 40063 50002 90250 333 55300

20000 81/73=

03385 46481 /2314 10160 20137 30060 40073 50000 90250 333 83/13

87/25=

03391 41682 82410 10158 20142 30072 40081 58002 72065 885// 90250

333 88630=

03392 46/// ///// 90252=

03405 46456 /2125 10143 20132 40070 57004 90251 333 82/16 81/31

86/47=

03410 46558 /2212 10116 20102 40079 54000 90252 333 81/23=

03453 41480 72509 10137 20126 39922 40091 50002 72162 8353/ 90250

333 81615 83656 86360=

03469 46459 /2016 10157 20143 40090 57007 90252 333 87/11=

03488 46962 /2116 10158 20131 40094 57008 90252 333 80/99=

03503 46/// /1605 10133 20118 40091 57004 90252 333 8////=

03507 46258 /2213 10130 20126 39731 40095 58003 90250 333 87/05

83/15=

03520 46965 /0000 10107 20097 40098 52004 90252 333 80/99=

03522 45962 /1601 10113 20105 30010 40101 51005 90250 333 8//99=

03529 46/// /2206 10141 20128 40100 52005 90252 333 8////=

03544 46784 /2204 10140 20132 40098 52004 90254 333 84/56=

03560 46344 /2111 10156 20149 40103 57006 90254 333 88/06=

03604 42661 52514 10149 20149 30059 40096 57002 85500 90250 333

85640=

03605 46958 /2322 10159 20138 30083 40097 58003 90250 333 8//99

91026 90710 91129=

03609 42670 62526 10160 20139 30064 40102 58004 865// 90250 333

86630 90710 91130 91030=

03628 45966 /2409 10142 20131 30036 40108 57002 90250 333 55300

20000 8//99=

03647 46266 /2509 10135 20127 40102 57010 90252 333 83/04 82/37

86/48=

03658 41230 82710 10142 20135 30045 40113 55004 76565 886// 90250

333 82704 86706=

03660 46157 ///// 10148 20145 39878 40110 58010 90250 333 87/02=

03672 46368 /2111 10164 20143 30068 40114 58010 90250 333 88/08=

03684 46482 /2215 10163 20127 30007 40111 58010 90250 333 88/15=

03693 46471 /2315 10170 20133 30119 40121 58012 90250 333 87/19=

03696 42672 82115 10170 20137 40119 57012 885// 333 88630 92438=

03707 46459 /2412 10153 20133 30107 40118 52002 90250 333 87/13=

03710 46157 /2507 10124 20120 40122 52003 90251 333 86/02 82/09

82/11=

03717 42462 72310 10147 20133 30054 40110 51002 84502 90250 333

81712 84628 87075=

03743 46159 /2506 10140 20131 39958 40117 56009 90250 333 83/02

87/18=

03749 41340 82211 10156 20153 30002 40111 57015 76365 887// 90250

333 88706=

03761 41356 82115 10155 20148 39971 40115 58009 76362 887// 90250

333 55300 20000 85706 88712 90710 91125=

03768 469// /1912 10159 20153 40118 57012 90252 333 80/99=

03769 47356 /2109 10155 20146 30042 40123 58010 761// 90250 333

55300 20000 88/09=

03779 41475 82311 10168 20142 30057 40113 58011 72162 885// 90250

333 86712 88618=

03780 46350 /2211 10156 20146 30052 40127 58011 90250 333 86/09=

03781 46256 /2011 10151 20140 40122 57009 90251 333 88/04=

03784 46/// /2111 10166 20147 30114 40120 57009 90250 333 90710

91125=

03791 42580 82320 10171 20134 885// 333 88625=

03810 42460 82408 10140 20136 40132 52007 885// 333 88615 92447=

03823 46156 /2409 10125 20124 40129 52009 90252 333 81/02 82/14=

03837 41575 82410 70262 885// 333 88620=

03857 46257 /2611 10153 20146 30059 40121 57009 90250 333 81/03

90710 91134=

03862 47350 /2413 10162 20155 30105 40118 58011 762// 90250 333

55300 20000 87/08 87/15 90710 91127=

03866 46/// /2323 10165 20155 30100 40128 57014 90250 333 90710

91131 91031=

03876 46/// /2217 10165 20152 30116 40132 58014 90250 333 90710

91127 91025=

03895 41465 82117 10162 20139 40153 58010 76062 885// 222// 10504

70018 333 87617=






NNNN

ZCZC

SINL50 EHDB 270300

AAXX 27031

06239 47/59 /2012 10162 20134 30029 40087 58014 70410 
333 91014 91115 91213 
555 51115 51213=

06252 46/// /2213 10174 20143 30075 40111 56011 222// 00168 10705
333 91015 91116 91213 
555 51116 51213=

06260 45967 81703 10130 20105 30153 40155 58013 8//// 
333 84/68 88/74 91005 91106 91204 
555 51105 51203=

06270 46/65 /1805 10138 20117 30141 40141 57014 
333 91007 91108 91206 
555 51108 51206=

06290 46/80 /1803 10138 20107 30129 40170 56009 
333 91005 91107 91204 
555 51107 51204=






NNNN

ZCZC

SINL51 EHDB 270300

AAXX 27031

06235 45467 81806 10141 20122 30134 40134 58013 8//// 
333 83/18 86/21 88/25 91008 91111 91209 
555 51108 51206=

06240 45967 81705 10136 20115 30152 40147 58014 8//// 
333 86/68 88/74 91008 91108 91205 
555 51206=

06251 45565 81910 10155 20133 30131 40132 56012 8//// 
333 81/21 85/25 86/30 91013 91114 91210 
555 51114 51210=

06269 45965 81805 10133 20108 30157 40152 58013 8//// 
333 88/70 91007 91108 91205 
555 51107 51205=

06280 45562 81905 10138 20112 30147 40151 58011 8//// 
333 84/31 86/36 88/69 91008 91108 91205 
555 51108 51205=

06310 45970 81907 10152 20118 30144 40154 58012 8//// 
333 88/68 91008 91110 91208 
555 51110 51208=

06344 45971 81905 10147 20118 30156 40150 58014 8//// 
333 88/68 91007 91110 91206 
555 51205=

06370 46/72 /1704 10126 20112 30145 40170 58009 
333 91006 91106 91204 
555 51106 51204=

06380 45976 71904 10138 20108 30048 40183 56007 8//// 
333 81/64 87/73 91006 91107 91205 
555 51107 51204=






NNNN

ZCZC

SINL20 EHDB 270300

AAXX 27031

06239 47/59 /2012 10162 20134 30029 40087 58014 70410 
333 91014 91115 91213=

06252 46/// /2213 10174 20143 30075 40111 56011 222// 00168 10705
333 91015 91116 91213=

06260 45967 81703 10130 20105 30153 40155 58013 8//// 
333 84/68 88/74 91005 91106 91204=

06270 46/65 /1805 10138 20117 30141 40141 57014 
333 91007 91108 91206=

06290 46/80 /1803 10138 20107 30129 40170 56009 
333 91005 91107 91204=






NNNN

ZCZC

SINL21 EHDB 270300

AAXX 27031

06235 45467 81806 10141 20122 30134 40134 58013 8//// 
333 83/18 86/21 88/25 91008 91111 91209=

06240 45967 81705 10136 20115 30152 40147 58014 8//// 
333 86/68 88/74 91008 91108 91205=

06251 45565 81910 10155 20133 30131 40132 56012 8//// 
333 81/21 85/25 86/30 91013 91114 91210=

06269 45965 81805 10133 20108 30157 40152 58013 8//// 
333 88/70 91007 91108 91205=

06280 45562 81905 10138 20112 30147 40151 58011 8//// 
333 84/31 86/36 88/69 91008 91108 91205=

06310 45970 81907 10152 20118 30144 40154 58012 8//// 
333 88/68 91008 91110 91208=

06344 45971 81905 10147 20118 30156 40150 58014 8//// 
333 88/68 91007 91110 91206=

06370 46/72 /1704 10126 20112 30145 40170 58009 
333 91006 91106 91204=

06380 45976 71904 10138 20108 30048 40183 56007 8//// 
333 81/64 87/73 91006 91107 91205=






NNNN

ZCZC

SINL50 EHDB 270300

AAXX 27031

06239 47/59 /2012 10162 20134 30029 40087 58014 70410

333 91014 91115 91213

555 51115 51213=

06252 46/// /2213 10174 20143 30075 40111 56011 222// 00168 10705

333 91015 91116 91213

555 51116 51213=

06260 45967 81703 10130 20105 30153 40155 58013 8////

333 84/68 88/74 91005 91106 91204

555 51105 51203=

06270 46/65 /1805 10138 20117 30141 40141 57014

333 91007 91108 91206

555 51108 51206=

06290 46/80 /1803 10138 20107 30129 40170 56009

333 91005 91107 91204

555 51107 51204=






NNNN

ZCZC

SINL54 EHDB 270300

AAXX 27031

06209 NIL=

06229 46/// /2113

333 91016 91116 91213

555 51116 51213=

06253 NIL=

06254 46/// /2211 10167 20124 30120 40141 58014 222// 00176 10603

333 91013 91114 91212

555 51113 51211=

06255 NIL=

06285 46/// /1910

333 91012 91113 91211

555 51112 51210=

06308 NIL=

06311 NIL=

06312 NIL=

06313 NIL=

06315 NIL=

06316 NIL=

06320 46/70 /2111 10171 20129 30119 40142 58014 222// 00181 10503

333 91014 91114 91211

555 51114 51211=

06321 46/69 /2113 10176 20138 30115 40137 56013 222// 00181 10603

333 91015 91116 91213

555 51115 51213=

06324 NIL=

06331 NIL=

06343 46/// /1907

333 91011 91111 91207

555 51111 51207=






NNNN

ZCZC

SIFI21 EFKL 270300

AAXX 27031

02862 46/// /2113 10110 20104 30086 40095 5/005 90239=

02873 47557 72014 10130 20120 30102 40111 57005 71010 87/// 90239=

02907 46/// /2010 10127 20117 30111 40117 57008 90239=

02964 47121 81809 10127 20126 30160 40164 57010 72086 88/// 90239=

02965 41915 00000 10052 20046 30113 40212 57003 71000=

02967 47967 12006 10143 20115 30217 40223 57002 70000 80/// 90239=

02972 47928 01602 10124 20122 40185 57006 71010 90233=

02979 46/// /1808 10136 20130 30155 40172 57010 90239=

02980 46/// /1908 10126 20125 30153 40165 57009 90239=

02984 46/// /2006 10127 20118 30191 40205 57005 90239=

02987 46/// /2009 10138 20112 30185 40214 57004 90239=

02988 42967 22006 10134 20118 40213 54000 70100 82050=

02991 46/// /2107 10127 20117 30183 40215 57002 90239=

02993 46/// /1808 10123 20120 30131 40150 57013 90239=

02790 NIL=

02823 NIL=

02863 NIL=

02889 NIL=

02910 NIL=

02911 NIL=

02920 NIL=

02958 NIL=

02992 NIL=






NNNN

ZCZC

SINL52 EHDB 270300

AAXX 27031

06210 45973 81904 10149 20116 30145 40145 58015 8////

333 88/67 91007 91108 91204

555 51108 51204=

06225 46/// /1707

333 91008 91112 91210

555 51110 51209=

06242 46/68 /1908 10155 20131 30125 40129 56011

333 91011 91115 91212

555 51112 51210=

06257 46/// ///// 10154 20118=

06265 46/// /1603 10125 20107 30139 40156 58013

333 91005 91106 91204

555 51105 51204=

06275 45672 81904 10132 20107 30105 40165 58010 8////

333 82/40 88/70 91007 91107 91204

555 51107 51204=

06330 46/// /2008 10150 20118 30133 40146 57013

333 91011 91111 91209

555 51111 51209=

06340 46/81 /2104 10157 20104 30140 40158 57012

333 91008 91110 91205

555 51110 51205=

06350 45971 81904 10132 20107 30149 40163 58011 8////

333 88/73 91006 91106 91204

555 51106 51204=

06375 46/66 /1903 10131 20113 30145 40169 58009

333 91004 91105 91203

555 51105 51203=






NNNN

ZCZC

SINL53 EHDB 270300

AAXX 27031

06248 46/// /1911

333 91013 91113 91211

555 51113 51211=

06249 46/70 /1906 10139 20114

333 91008 91108 91206

555 51108 51206=

06267 45965 81808 10151 20128 8////

333 88/69 91010 91112 91208

555 51112 51208=

06273 46/75 /1805 10134 20109

333 91007 91107 91205

555 51107 51205=

06277 46/// /1807 10141 20121

333 91009 91111 91208

555 51110 51208=

06278 46/// /1702 10130 20108

333 91005 91105 91203

555 51105 51203=

06279 45964 81905 10133 20107 30140 40159 58010 8////

333 88/68 91006 91108 91205

555 51108 51205=

06283 46/// /1702 10137 20114

333 91005 91105 91202

555 51105 51202=

06286 46/// /1905 10130 20112

333 91006 91107 91205

555 51106 51205=

06319 46/// /1904 10146 20105

333 91006 91107 91204

555 51107 51204=

06323 46/// /2005 10148 20113

333 91008 91109 91205

555 51108 51205=

06348 46/// /1804 10132 20115 30155 40155 58013

333 91005 91106 91204

555 51106 51204=

06356 46/// /1704 10126 20110

333 91005 91105 91204

555 51105 51204=

06377 45961 71803 10130 20117 8////

333 82/64 87/70 91005 91105 91203

555 51105 51203=

06391 46/// /1702 10123 20110

333 91003 91104 91203

555 51103 51202=






NNNN

ZCZC

SIFR11 LFPW 270300 RRA

AAXX 27034

07558 26/// /0202 10124 20111 39396 40224 58008

  333 60007 90710 91108

  555 60005=






NNNN

ZCZC

SIIE21 EIDB 270300

AAXX 27031

03953 41575 62411 10141 20107 30032 40068 53002 70381 862// 

333 86824 92448 90710 91119=

03955 42670 52406 10115 20094 39879 40073 58001 85500 

333 85632=

03957 41575 32308 10142 20100 30044 40074 50001 70181 82802 

333 81822 92448=

03962 42570 42008 10129 20093 30018 40041 58003 83830 

333 81822 83648=

03967 42680 12211 10121 20082 39926 40037 58003 81501 

333 81630=

03969 42680 42209 10122 20086 39940 40042 58006 84500 

333 81630 84650=

03973 41480 52205 10102 20090 39759 40008 52007 72582 85300 

333 81919 85632=

03976 41470 52611 10120 20084 39979 49991 53015 72581 85900 

333 81716 84920=

03980 NIL=






NNNN

ZCZC

SANO98 ENMI 270320

METAR

ENZV 270320Z 17021G31KT 9999 -RA FEW010 BKN017 14/12 Q1003=








NNNN

ZCZC

SIOS42 LOWM 270300

AAXX 27031

11008 27/// /3205 10127 20117 39529 40231 740// 333 69997=

11015 46/// /2001 10103 20095 39581 40228=

11020 36/// /0000 10082 20067 39629 40233=

11021 36/// /3102 10116 20105 39574 40226=

11032 36/// /2601 10104 20096 39977 40227=

11078 36/// /2204 10114 20101 39420 40230=

11128 36/// /1501 10083 20076 38621 48563=

11135 27/// /2502 10082 20048 38296 48561 7404/ 333 60017=

11138 36/// ///// 10039 20028 37762 47141=

11141 26/// /1502 10125 20115 39594 40236 333 69937=

11144 27/// /2001 10116 20108 39349 40237 740// 333 60017=

11154 26/// /0301 10143 20130 39721 40223 333 69947=

11170 36/// /0000 10082 20075 39514 40243=

11174 36/// /2502 10123 20107 39561 40231=

11182 36/// /1701 10105 20100 39890 40236=

11192 36/// /0000 10073 20066 39911 40236=

11194 36/// /0703 10130 20115 30037 40226=

11211 NIL=

11213 36/// /1101 10124 20113 39655 40236=

11225 NIL=

11241 36/// /2701 10096 20065 38621 48559=

11261 26/// /2801 10112 20103 39302 40237 333 69947=

11342 NIL=






NNNN

ZCZC

SIOS43 LOWM 270300

AAXX 27031

11018 36/// /1401 10108 20099 39898 40224=

11019 36/// /2503 10116 20105 39513 40222=

11034 36/// /2201 10137 20121 30018 40231=

11040 36/// /1801 10110 20101 39981 40221=

11051 36/// /3201 10142 20127 39765 40224=

11055 NIL=

11060 27/// /0000 10138 20130 39906 40218 7404/ 333 69927=

11070 36/// /2501 10105 20097 39980 40227=

11075 36/// /3002 10106 20098 39975 40221=

11082 36/// /0000 10104 20092 39953 40222=

11149 26/// /0802 10064 20054 38312 48558 333 69917=

11152 36/// /0201 10141 20133 39634 40221=

11185 36/// /3301 10100 20086 39105 48563=

11248 36/// /2601 10116 20113 39978 40236=

11252 36/// /2601 10090 20083 38885 48556=

11255 36/// /0000 10119 20105 39406 40231=

11270 36/// /0000 10128 20120 39505 40232=

11275 NIL=

11280 27/// /2501 10073 20067 39301 40256 7404/ 333 69917=

11292 36/// /0401 10131 20129 39602 40225=

11295 NIL=

11343 36/// /2408 11004 21004 37025 47137=

11385 36/// /1701 10119 20096 39158 48560=






NNNN

ZCZC

SICZ40 OKPR 270300

AAXX 27031

11406 21940 89901 10118 20112 39644 40221 55007 71022 8807/

  333 60005 88362=

11457 21110 82701 10101 20100 38948 48554 56003 76098 887//

  333 69915 88702=

11520 21856 89901 10141 20131 39857 40217 55003 71062 85077

  333 60005 85357 88270=

11541 NIL=

11546 26/// /3502 10127 20124 39757 40226 55002

  333 60055=

11636 27435 /3201 10116 20111 39552 42843 55005 72031

  333 69915 81/12 85/16 88/19=

11679 21546 71602 10118 20112 39744 40225 57004 74011 876//

  333 60005 87722=

11723 22960 10903 10113 20095 39929 40224 57007 80001

  333 60005 81070=

11766 26/// /2104 10109 20104 39353 42846 56006

  333 69915=

11774 21958 01202 10139 20123 39955 40222 58007 71000

  333 60005=

11787 21/00 91810 10088 20087 38734 48555 57008 74544

  333 60005 89/00 91114=






NNNN

ZCZC

SIFR32 LFPW 270300 RRA

AAXX 27034

07247 26/// /0000 10104 20095 30111 40213 58006

  333 60007 90710 91102

  555 60005=

07249 26986 /1806 10127 20101 30053 40203 58007

  333 60007 90710 91108

  555 60005=






NNNN

ZCZC

SIFR33 LFPW 270300 RRA

AAXX 27034

07292 26959 /1004 10128 20119 39895 40220 58007

  333 60007 90710 91106

  555 60005=






NNNN

ZCZC

SIFR34 LFPW 270300 RRA

AAXX 27034

07570 26/// /0602 10137 20129 39903 40236 57006

  333 60007 90710 91102

  555 60005=






NNNN

ZCZC

SIFR36 LFPW 270300 RRA

AAXX 27034

07648 26/25 /0502 10159 20154 30151 40223 58006

  333 60007 90710 91104

  555 60005=

07765 26/// /2704 10154 20108 30197 40223 55004

  333 60007 90710 91108

  555 60005=






NNNN

ZCZC

SIFR37 LFPW 270300 RRA

AAXX 27034

07017 26/83 /2112 10142 20100 30082 40174 58010

  333 60007 90710 91117

  555 60005=

07038 26/85 /1910 10121 20102 30019 40185 58011

  333 60007 90710 91112

  555 60005=

07169 26/81 /1906 10142 20115 30042 40208 58009

  333 60007 90710 91108

  555 60005=






NNNN

ZCZC

SIUK21 EGRR 270300 RRA

AAXX 27034

03011 46/// /2139 10113 20098 49857 52014 333 90710 91154=

03716 45466 /2512 10154 20133 30037 40107 50002 90250 333 55300

20000 85/15=






NNNN

ZCZC

SIGR20 LGAT 270300

AAXX 27034

16622 42860 10000 10166 20130 30209 40214 54000 81030 333 91108

      555 40000 47691 44250 50000 50146=

16641 42460 30000 10156 20138 30199 40205 58003 81205 333 81818

      83068 91104=

16682 42460 10000 10166 20149 30176 40195 55004 81200 333 91105

      555 40000 47669 44250 50000 50156=

AAXX 27033

16716 42560 20000 10188 20168 30180 40198 58003 81150 333 91102

      555 40000 47672 44245 50000 50176=

AAXX 27034

16749 42960 03008 10212 20170 30142 40155 56004 333 91112 555

      40000 47642 44245 50000 50186=

16754 42560 41704 10190 20156 30140 40187 57007 84400 333 91107

555 40000 47644 44255 50000 50170=

16734 NIL=

16743 NIL=






NNNN

ZCZC

SIGR21 LGAT 270300

AAXX 27034

16650 42960 00404 10186 20163 30191 40195 55003 333 91109 555

      40000 47676 44230 50000 50172=

16643 NIL=

16648 NIL=

16684 NIL=

16732 NIL=






NNNN

ZCZC

SIGR22 LGAT 270300

AAXX 27034

16627 42960 00000 10168 20133 30200 40205 56002 333 91105 555

      40000 47684 44240 50000 50148=

16667 42965 00000 10198 20151 30190 40195 56001 333 91109 555

      40000 47677 44240 50000 50170=

16723 42560 33611 10210 20168 30163 40171 56002 82240 333 91118

      555 40000 47660 44255 50000 50184=

16746 42560 20000 10180 20167 30013 40193 58002 82230 333 91104

      555 40000 47547 44250 50000 50172=

16614 NIL=

16675 NIL=

16710 NIL=

16738 NIL=






NNNN

ZCZC

SIPL20 SOWR 270300

AAXX 27031

12120 41940 41801 10112 20106 30191 40198 54000 71100 84030=

12140 41940 42102 10128 20110 30193 40202 53001 71011 84030=

12205 NIL=

12250 41920 02401 10108 20105 30124 40212 55000 71000 =

12295 42960 01101 10086 20077 30052 40238 55003 =

12330 41930 31301 10135 20127 30100 40206 57012 71086 83030=

12375 41760 21302 10117 20104 30096 40226 54000 71111 82500=

12424 41658 70902 10123 20110 30067 40218 57004 71022 8553/=

12465 41956 01302 10119 20098 39991 40221 57002 71000 =

12560 41965 00000 10095 20089 39896 40237 56004 71100 =

12695 NIL=






NNNN

ZCZC

SIPL30 SOWR 270300

AAXX 27031

12100 NIL=

12105 41930 01502 10122 20116 30156 40198 57001 71011 =

12135 41935 32002 10144 20136 30197 40200 55001 71000 83050=

12185 46/61 /1102 10118 20104 30087 40218 57006=

12195 41956 00802 10089 20080 30010 40238 57004 71000 =

12235 41910 01802 10096 20087 39998 40208 54000 71000 =

12270 41940 00903 10109 20098 30037 40218 58005 71000 =

12300 41935 02001 10127 20122 30116 40205 58004 71000 =

12360 41950 01301 10118 20097 30082 40214 57004 71000 =

12385 41908 01401 10097 20086 30044 40234 50000 74600 =

12400 41/01 91402 10128 20123 39979 40211 55007 74711 =

12435 41640 60901 10113 20105 30045 40216 56001 71011 86500=

12495 41944 41501 10114 20101 39945 40235 58005 71000 84050=

12510 41/90 92507 10070 20069 38427 48543 56005 79584 =

12520 41558 73202 10112 20104 39798 40228 56002 71011 875//=

12570 41904 00000 10077 20071 39920 40240 50000 74244 =

12575 41940 00000 10106 20092 39984 40238 54000 71011 =

12595 36/// /2001 10085 20077 39972 40245 54000=






NNNN

ZCZC

SILJ20 LJLM 270300

AAXX 27031

14014 41004 30000 10079 20077 39780 40242 57006 74140 82601 333

      82701=






NNNN

ZCZC

SILJ21 LJLM 270300

AAXX 27031

14008 42999 41801 10034 21010 37574 47150 57010 80008 333

95160 444 16120=

14015 41115 81901 10119 20110 39878 40233 57004 71021 886// 333

 88703=

14023 41/93 90000 10105 20101 39948 40239 56003 747//=

14024 42997 02803 10116 20116 39147 48551 57007

333 95000 95180

444 46031=

14026 41193 20000 10086 20080 39915 40237 56006 74444 82600 333

      82701=

14031 41/90 90000 10110 20107 30007 40233 57007 745//=

14105 42997 01103 10125 20119 30217 40221 58005=

14121 41/91 92401 10110 20107 39966 40231 58003 74544=






NNNN

ZCZC

SILJ50 LJLM 270300

AAXX 27031

14015 41115 81901 10119 20110 39878 40233 57004 71021 886// 333

 88703=

14023 41/93 90000 10105 20101 39948 40239 56003 747//=

14031 41/90 90000 10110 20107 30007 40233 57007 745//=

14121 41/91 92401 10110 20107 39966 40231 58003 74544=






NNNN

ZCZC

SIRH20 LDZM 270300

AAXX 27031

14240 41930 03301 10115 20109 30075 40229 58002 71000=

14258 41608 70000 10104 20102 30042 40229 57002 74441 87500

  333 87633=

14445 42970 00402 10184 20124 30060 40211 58005

  333 92311=






NNNN

ZCZC

SIRH21 LDZM 270300

AAXX 27031

14241 NIL=

14284 NIL=

14307 NIL=

14317 NIL=

14431 NIL=

14444 NIL=

14474 NIL=






NNNN

ZCZC

SIDN21 EKMI 270300

AAXX 27034

06030 21256 71810 10129 20116 30116 40131 57012 71000 87600

  333 6///7 82706 85707 =

06060 21125 81808 10129 20120 30065 40129 58014 71022 886//

  333 6///7 84703 87705 =

06070 27956 01503 10128 20122 30119 40149 57008 710//

  333 6///7 =

06120 47220 71707 10125 20119 30131 40156 57006 710//

  333 83/04 87/06 =

06180 22370 22007 10134 20122 30165 40171 57005 82600

  333 6///7 82708 =

06193 37957 01906 10134 20121 30175 40186 57006 71010 =






NNNN

ZCZC

SISP20 LEMM 270300

AAXX 27034

08001 42965 11605 10136 20088 30130 40211 58004 80001=

08015 42965 02502 10124 20117 39810 40212 55001=

08023 42965 02210 10161 20136 30138 40208 56004=

08027 42880 11709 10168 20096 39898 40202 57007 81040=

08045 NIL=

08141 NIL=

08160 42980 00901 10144 20114 39922 40228 54000=

08181 21558 23411 10171 20142 30214 40220 58009 71000 81501

  333 60007=

08221 22980 03204 10123 20027 39553 40235 50003

  333 60007=

08231 NIL=

08261 42980 01104 10156 20018 39745 40220 58004=

08284 22570 43207 10182 20133 30141 40215 58007 82870

  333 60007=

08306 42565 20403 10163 20147 30211 40217 58003 82807=

08314 22565 10705 10175 20148 30115 40217 58003 81500

  333 60007=

08430 42570 12202 10172 20155 30145 40219 57002 81800=

08482 41458 13005 10182 20151 30192 40200 58008 71000 81600=






NNNN

ZCZC

SIFA21 EKMI 270300

AAXX 27034

06011 41559 71910 10107 20088 39725 49790 52002 7028/ 87800

  333 86826 91127 =






NNNN

ZCZC

SIOS44 LOWM 270300 RRA

AAXX 27031

11173 36/// /3601 10094 20082 39049 48567=






NNNN

ZCZC

SIDL47 EDZW 270300 CCB

AAXX 27031

10532 21675 70601 10127 20121 39974 40207 58006 72162 8353/

  333 55300 20000 69907 83640 86359=






NNNN

ZCZC

SIFI42 EFKL 270300

AAXX 27031

02777 47741 51603 10111 20108 30052 40198 57004 71010 85/// 90239

555 799// 81620 0/203=

02801 42670 61405 10055 21006 39464 40041 57010 70222 86630 555 765//

0/005=

02844 47236 71603 10099 20093 39972 40076 57004 71010 87/// 90239

555 796// 80100 0/104=

02869 47356 72105 10122 20104 40112 57002 70000 87/// 90251 555 789//

80274 0/010=

02874 46/// /2107 10138 20117 90239 555 787// 0/307=

02875 47460 71903 10142 20117 40120 57002 70000 87/// 90251 555 785//

80579 0/007=

02915 47357 71901 10111 20105 30010 40170 57003 71010 87/// 90239

555 796// 80240 0/403=

02929 47958 01703 10105 20097 40203 57003 70000 90248 555 795// 0/005=

02942 41250 81904 10124 20119 40163 58009 71022 887// 555 60121 700//=

02945 41356 81703 10107 20102 40185 57005 71011 886// 555 797// 80200=

02965 41915 00000 10052 20046 30113 40212 57003 71000 555 796// 0/100=

02966 41945 01603 10094 20090 40219 57002 71000 555 60092 798//=

89014 NIL=






NNNN

ZCZC

SIBU20 LZSO 270300

AAXX 27031

15502 42970 50000 10110 20106 30192 40231 58001 80008 333 10150 20110

555 597//=

15525 42961 71802 10140 20131 39972 40233 54000 87050 333 10169 20140

555 594//=

15528 42968 40000 10138 20127 30027 40214 54000 84030 333 10170 20134

555 593//=

15535 41970 00000 10127 20121 30176 40225 53002 70100 333 10166 20118

555 59600=

15549 42568 22901 10119 20102 39819 40231 53002 82200 333 10151 20119

555 589//=

15552 41570 33610 10150 20100 30135 40187 57003 70111 83500 333 10176

20150 555 573// 92025 92428=

15614 42962 00000 10092 20084 39534 40237 57001 333 10156 20092 555

595//=

15615 41/08 93204 10004 20004 37191 47139 58012 74700 333 10010 20001

555 500//=

15626 41970 32701 10152 20138 30037 40225 58003 70100 333 10202 20142

555 591//=

15627 41/01 90502 10025 20017 37686 47130 58004 74141 333 10037 20023

555 595//=

15640 42970 12304 10176 20090 39905 40209 53001 81030 333 10186 20174

555 557//=

15655 41970 32702 10162 20114 30168 40201 57004 70300 83020 333 10183

20161 555 573// 92032 92438=

15712 41675 33602 10157 20119 39975 40216 51000 70300 83200 333 10210

20154 555 578//=

15730 42970 00000 10130 20111 39831 40222 58005 333 10197 20120 555

588//=






NNNN

ZCZC

SIBU40 LZSO 270300

AAXX 27031

15501 41962 62702 10125 20118 30180 40226 58002 70122 80006 333 10160

20125 555 59500=

15505 41950 00000 10110 20104 39869 40239 52003 71000 333 10146 20110

555 596//=

15511 41961 02301 10130 20128 30193 40233 58004 70111 333 10181 20128

555 59900=

15514 41556 82703 10154 20142 30199 40240 52002 71022 885// 333 10172

20152 555 59200=

15530 41/03 90000 10126 20122 30005 40240 53001 74544 333 10157 20126

555 598//=

15550 41965 50000 10137 20120 30196 40215 58002 70311 85050 333 10180

20137 555 58900=

15561 41468 73106 10170 20127 30184 40192 54000 70222 87500 333 10196

20166 555 576// 92024 92427=

15562 41974 03612 10162 20126 30115 40188 57005 70111 333 10180 20162

555 579// 92036 92438=

15600 41982 00000 10071 20071 38381 48576 54000 70100 333 10076 20068

555 500//=

15601 41980 20000 10094 20086 39614 40230 51001 70300 82030 333 10175

20090 555 595//=

15605 41975 00000 10076 20074 39401 40244 58001 70200 333 10132 20074

555 599//=

15613 41980 10000 10046 20024 37787 47158 58007 70200 81030 333 10056

20046 555 585//=

15628 42680 10000 10122 20111 39973 40227 54000 81100 333 10197 20122

555 593//=

15635 42965 23403 10146 20135 30000 40206 58003 82030 333 10190 20136

555 593//=

15642 42970 00000 10120 20116 30043 40210 58005 333 10170 20118 555

598//=

15661 41970 02702 10154 20116 30169 40204 54000 70200 333 10168 20150

555 578// 92012 92418=

15726 41480 23304 10069 20058 38325 48579 57003 70200 82500 333 10084

20068 555 593//=






NNNN

ZCZC

SIPL40 SOWR 270300

AAXX 27031

12115 41540 21802 10138 20124 30185 40198 54000 71011 82501=

12125 46/// /0902 10090 20082 30152 40200 57002=

12200 41410 41801 10121 20115 30189 40196 53001 71000 84500=

12215 NIL=

12272 41960 01302 10111 20098 30048 40214 57004 71100 =

12280 42960 01503 10124 20110 30070 40225 57004 =

12285 NIL=

12345 41935 01702 10111 20105 30071 40214 57002 71000 =

12415 41558 82103 10139 20133 30068 40218 53001 79122 889//=

12455 41936 01902 10119 20098 39981 40224 55000 71000 =

12497 41558 51402 10107 20091 30021 40240 56002 71011 84530=

12500 41550 80000 10127 20120 39811 40221 55007 79198 873//=

12530 41904 00801 10098 20092 30026 40225 56003 74200 =

12550 41940 01902 10118 20107 39875 40231 58002 71000 =

12580 NIL=

12585 41625 31602 10118 20112 39971 40235 57002 71000 83500=

12600 NIL=

12650 42984 11903 10060 20038 38074 48567 57004 81030=

12660 41910 00000 10101 20096 39890 40249 53001 71000 =






NNNN

ZCZC

SIPL50 SOWR 270300

AAXX 27031

12160 42960 01302 10142 20114 30155 40207 55000 =

12210 46/// /1802 10116 20107 30136 40199 57001=

12230 41435 30000 10129 20116 30120 40209 55002 71082 83500=

12310 NIL=

12399 42560 71301 10116 20092 30072 40239 54000 875//=

12418 41540 71602 10136 20131 30101 40214 55005 71082 879//=

12469 NIL=

12488 NIL=

12540 41920 01402 10113 20107 39981 40232 57004 71000 =

12566 41201 10000 10089 20088 39948 40239 56002 74600 81600=

12625 41756 30000 10065 20061 39254 42861 56005 71000 81501=

12670 41660 71002 10134 20125 39843 40239 57004 72582 8397/=

12690 NIL=






NNNN

ZCZC

SISP21 LEMM 270300

AAXX 27034

08055 NIL=

08075 NIL=

08084 42980 00000 10106 20082 39807 40241 51004=

08184 NIL=

08202 42960 20000 10048 20024 39309 48530 57002 80001=

08235 NIL=

08238 NIL=

08280 42965 20000 10138 20120 39421 40232 57004 82050=

08348 NIL=

08360 22970 13104 10179 20130 30171 40209 56004 80002

  333 60007=

08373 22565 59904 10198 20178 30186 40208 5//// 85801

  333 60007=

08410 NIL=

08419 NIL=

08451 42970 00808 10178 20140 30165 40197 58002=

08487 22980 40205 10194 20126 30176 40201 55005 80001

  333 60007=






NNNN

ZCZC

SIOS43 LOWM 270300 RRA

AAXX 27031

11055 27/// /1301 10129 20118 39854 40232 7404/ 333 60157=

11275 36/// /0000 10115 20112=






NNNN

ZCZC

SIFI21 EFKL 270300 RRA

AAXX 27031

02958 47950 01701 10107 20102 40228 52001 70000 90251=






NNNN

ZCZC

SMYG10 LYBM 270000 RRC

AAXX 27001

13272 32960 31501 10145 20132 30113 40236 51001 83030 90000 333

83360=






NNNN

ZCZC

SIYG20 LYBM 270300

AAXX 27031

13160 32997 00101 10099 20084 30125 40233 58002=

13262 31/92 90000 10129 20124 30094 40241 58004 74344=

13272 NIL=

13285 32997 20702 10133 20123 30139 40240 58001 82030=

13289 31/91 91304 10104 20100 48556 57003 74544=

13363 42230 80000 10115 20106 39312 48546 54000 886//=

13376 31/93 90000 10121 20115 39981 40241 58002 74544=

13388 32698 60000 10126 20116 39995 40239 50000 83530=

13462 NIL=

13473 NIL=

13489 31994 00000 10100 20095 39727 40245 51003 71000=






NNNN

ZCZC

SIYG21 LYBM 270300

AAXX 27031

13067 32997 00302 10120 20114 30119 40245 54000=

13183 NIL=

13279 31991 00000 10110 20106 30089 40226 51002 74444=

13295 32697 40000 10110 20105 30177 40231 56005 81530=

13367 32497 52501 10094 20086 48551 56004 85500=






NNNN

ZCZC

SISN21 ESWI 270300

AAXX 27031

02020 42685 82501 10028 20012 39417 40038 58019 885// 333 88643=

02080 NIL=

02096 42397 71603 10089 20085 39864 40066 56008 876// 333 87793=

02104 42580 80901 10092 20066 39451 40020 57022 885// 333 88695=

02120 41570 83201 10063 20038 39668 40046 57023 76122 8802/ 333
88520=

02124 35464 /1603 10097 20076 39528 40041 58020

333 85/13 88/19=

02128 42584 80000 10110 20081 39722 40057 58016 885// 333 88695=

02151 45/60 /1403 10090 20085 39718 40047 58020=

02186 47106 /1806 10091 20087 30049 40074 58014 73431 333 88/01=

02196 41/08 82304 10101 20096 30087 40094 57005 75142 887// 333
89/90=

02206 NIL=

02222 42689 71401 10091 20060 39631 40021 57021 875// 333 87696=

02226 NIL=

02244 NIL=

02269 37939 /2009 10106 20094 71011=

02288 46/// /1809 10112=

02297 37233 /1909 10097 20097 30048 40100 58012 71031

333 81/02 85/04=

02308 35583 /2104 10090 20052 39216 40054 57017

333 85/27=

02324 42404 71404 10110 20069 39573 40081 57010 875// 333 87615=

02355 37102 /1706 10069 20065 30106 40118 58015 73331

333 83/01 87/03=

02366 41950 61704 10095 20093 30096 40102 57021 71011 80001
333 86076=

02410 42375 61804 10120 20096 39757 40121 56010 86600 333 86793=

02418 45132 /2103 10120 20111 30006 40135 56008 710// 8//// 333
81/03 88/05=

02435 45357 /1603 10113 20097 39948 40131 55010 710// 8//// 333
81/10=

02440 37949 /2101 10097 20091 71031=

02452 37024 /2002 10114 20106 71011

333 81/01 87/50=

02456 37218 /1902 10122 20114 30108 40150 57005 71011

333 88/03=

02469 37/21 /1703 10124 20118 71011=

02496 41995 02009 10124 20122 30153 40168 57007 71011=

02518 37960 /1809 10154 20137 70010=

02520 47836 ///// 10118 20117 30076 40143 57009 71032 333 86/57=

02550 46/// /2104 10126 20117 39891 40160 55002=

02562 47102 /2002 10109 20109 30047 40161 55003 73432 333 88/01=

02563 35/// /2004 10102 20081 30140 40162 58007

333 89/01=

02566 41/92 91801 10125 20117 30053 40172 58006 74344=

02584 41995 01806 10139 20134 30165 40179 57006 71000 8////=

02590 45926 /0000 10119 20114 30118 40178 57003 710// 8////=

02620 41456 72507 10133 20120 30060 40164 53001 71021 875// 333
87615=

02664 41015 50000 10112 20112 30113 40184 58004 740// 85600 333 81701

85710=

02680 42962 02202 10136 20131 30137 40184 57002=






NNNN

ZCZC

SISN41 ESWI 270300

AAXX 27031

02036 35999 /1502 10054 21002 39484 40042 58017

333 86/63 87/66=

02049 35/99 /0602 10071 20040 39620 40049 58019=

02154 NIL=

02181 37245 /1703 10103 20092 39997 40071 58014 71011

333 88/04=

02188 37/02 /1810 10092 20090 73331

333 89/01=

02221 35/83 /2103 10067 20050=

02245 35/70 /1804 10099 20073 39635 40048 58017=

02247 35569 /1903 10123 20088 39850 40067 57018

333 81/32=

02286 45946 /1905 10111 20100 30091 40100 58009 710// 8////=

02338 35463 /2202 10118 20102 39897 40118 55008=

02378 47022 81601 10113 20111 30091 40124 57013 710// 88/// 333
85/01 88/04=

02408 37350 /1601 10116 20110 39922 40126 58010 71031

333 87/07 88/09=

02432 37/06 /0000 10079 20075 30082 40150 57005 73133=

02453 37/43 /2003 10126 20115 71011=

02458 46/20 ///// 20112 30126 40151 57005=

02476 37001 /0000 10073 20073 30116 40157 57003 73333

333 83/01 85/20 88/25=

02484 46/// ///// 10124 20118=

02488 37/43 /1808 10123 20115 30134 40146 57006 71011=

02505 37957 /1808 10147 20139 71011=

02512 463// /1806 10147 20144 30123 40145 57010 333 83/09 88/19=

02536 NIL=

02567 37101 /1905 10114 20111 30142 40166 58007 73331

333 88/02=

02574 37/01 /0000 10077 20069 30117 40159 55004 73333

333 89/01=

02575 37008 /2305 10127 20127 30168 40173 57003 73431

333 88/01=

02605 37343 /1907 10131 20127 71011

333 81/07=

02611 37/50 /2103 10128 20123 30119 40172 55003 71011=

02625 37960 /2502 10114 20111 30177 40183 57004 70031=

02628 37940 /1905 10132 20126 71031=

02644 37008 /2103 10140 20135 30181 40185 58003 73331

333 85/02 87/13=

02648 37/30 /2102 10119 20110 39937 40176 55005 71031=

02670 45/00 /1903 10131 20131 30173 40179 57005 733// 8//// 333
89/01=






NNNN

ZCZC

SISN85 ESWI 270300

AAXX 27031

02489 NIL=

02490 37928 /1801 10113 20107 30138 40158 57009 71011=

02493 47940 /2008 10125 20119 71011=

02499 46/// /20// 10133 20128=

02507 45/// /1402 10128 20123=

02515 45/// /1804 10136 20128=

02517 46/// /2008 10153 20136=

02521 45/// /1803 10129 20120=

02539 37350 /1502 10132 20121 71011

333 83/08 87/19=

02540 37012 /1901 10121 20121 71031

333 87/01 88/08=

02542 37732 /2102 10084 20080 30059 40146 58007 71031=

02546 37/57 /1701 10116 20104 39897 40150 57007 71011=

02548 37/24 /1905 10126 20116 71011=

02549 37020 /2103 10117 20113 71031

333 87/02=

02552 37226 /1802 10128 20128 71011

333 83/03 86/05 87/07 88/11=

02553 45/// /1803 10115 20106=

02554 37124 /2002 10126 20121 71011

333 85/02 87/26=

02556 47358 ///// 10131 20127 39966 40169 57001 71011 333 81/07 84/10

85/14=

02557 37009 /2003 10119 20116 30058 40168 55002 73033

333 88/01=

02558 37901 /1801 10105 20105 73433=

02559 37/06 /2101 10118 20117 73333=

02583 46/// /2005 10126 20120=

02587 37931 /1803 10134 20131 71011=

02589 37930 /1906 10139 20139 30157 40178 57005 71011=

02595 45/// /0000 10070 20068=

02598 46/// /1804 10139 20136=

02602 45/// /2302 10128 20116=

02603 45/// /1804 10135 20125=

02609 45/// /1801 10112 20111=

02622 37429 /1902 10123 20122 72031

333 81/05 85/14 87/20=

02623 37014 /1702 10124 20106 71010

333 88/01=

02632 NIL=

02646 46/// /////=

02661 47224 /2002 10121 20087 39901 40177 57007 71032 333 88/03=






NNNN

ZCZC

SISN86 ESWI 270300

AAXX 27031

02271 37/60 /1804 10098 20081 39697 40065 58018 70010=

02282 37/60 /1903 10101 20083 70010=

02284 37936 /1909 10109 21032 30095 40103 58013 70411=

02287 37/50 /2007 10114 20107 30093 40102 57012 71011=

02292 45/// /1805 10095 20094=

02302 45/// /2306 10095 20065=

02303 45/// /1811 10073 20042=

02307 46/// /2111 10077 20050=

02311 45/// /2306 10084 20072=

02317 35683 /2205 10100 20062=

02319 35/99 /2203 10114 20050=

02321 35477 /1503 10120 20093 39807 40107 58010

333 85/19 87/37=

02325 35/80 /2109 10078 20048 39134 40064 56016=

02329 35/78 /2103 10103 20079 39566 40103 56009=

02331 35683 /2007 10120 20071=

02337 45/// /1404 10112 20076=

02343 35579 /1402 10130 20095 39969 40088 58015

333 81/28=

02347 37963 /1804 10124 20102 30022 40108 57018 70010=

02349 45/// ///// 10111 20088=

02354 45/// /1802 10100 20094=

02368 37003 /2106 10075 20069 73431

333 88/01=

02382 37/12 /1909 10076 20074 71011=

02411 37350 /1502 10113 20108 30046 40127 58010 71031

333 81/09 87/11=

02413 45/// /1403 10132 20091=

02423 37137 /1803 10113 20105 71011

333 87/04 88/06=

02426 37256 /2101 10112 20110 39905 40129 56008 71031

333 85/06 87/08=

02429 37240 /1701 10121 20121 71031

333 87/05 88/07=

02441 35567 /1703 10126 20099 39883 40117 58008

333 81/18 83/22 87/26=

02449 47517 /1902 10109 20106 30103 40154 57005 72032 333 87/28=

02450 47/32 /2104 10118 20109 71011=

02468 37/02 /2003 10096 20095 73433=

02472 45/// ///// 10117 20109=

02481 37002 /1801 10117 20117 30079 40149 57003 73331

333 88/01=

02482 37122 /2002 10122 20116 30078 40147 57003 71011

333 87/03=

02486 37/24 /1603 10120 20112 71011=

02487 46/// /1905 10126 20126=






NNNN

ZCZC

SISN87 ESWI 270300

AAXX 27031

02013 35/99 /0202 10077 20013 39383 40020 58031=

02024 45/82 /1208 10058 20008=

02029 46/// /0101 10031 21011 38729 58007=

02031 35/99 /2004 10059 21004=

02038 45/99 /1101 10053 20038=

02044 45984 /2103 10052 20008 39497 40045 58014 8////=

02054 45/// /0903 10045 21065=

02055 27881 /1002 10054 20006 76160

333 69905 88/56=

02064 35/99 /1501 10065 20049=

02072 35/99 /1501 10058 20042 39682 40059 58010=

02102 46/// ///// 10045 20038=

02103 46/// /1507 10068 20051=

02110 35/81 /3401 10073 20049=

02121 36/// /1004 10071 20048 39306 40028 56027=

02130 46/// /////=

02135 37466 /1703 10098 20076 70010

333 87/20=

02141 NIL=

02143 NIL=

02145 NIL=

02146 45/// /1404 10105 20092=

02147 37/60 /1704 10094 20077 70010=

02149 37463 /1804 10099 20080 39600 40052 58017 70010

333 88/12=

02161 NIL=

02171 47243 /1602 10098 20091 30045 40064 58015 71011 333 88/04=

02173 37457 /1503 10107 20098 71011

333 88/20=

02174 37357 /1402 10107 20095 39836 40057 56017 71011

333 87/10=

02176 37920 /1707 10085 20078 71011=

02184 37/16 /1502 10091 20091 39787 40060 58016 72031=

02191 37016 /1807 10102 20093 71011

333 88/01=

02199 37008 /1503 10097 20091 73431

333 89/02=

02209 NIL=

02216 45/// /1807 10123 20014=

02217 45/// /2305 10126 20054=

02230 35/75 /1604 10101 20068=

02231 35982 /2005 10112 20042=

02233 45/// /2302 10086 20066=

02236 35983 /1906 10105 20069 39600 40043 56018=

02242 35/73 /1602 10100 20074=

02254 35568 /2004 10100 20076 39698 40064 57016

333 81/22=

02256 45/// /1803 10086 20071=

02260 47/33 /1401 10094 20094 39924 40095 57017 71011=

02261 37/65 /1603 10108 20082 39815 40065 57018 70010=

02263 37358 /1703 10093 20086 71011

333 82/11 84/18=

02265 37457 /1603 10100 20092 39867 40087 58016 71011

333 81/13=






NNNN

ZCZC

SISN22 ESWI 270300

AAXX 27031

02464 45927 /1602 10121 20110 30140 40158 57006 710// 8////=

02500 37965 /1908 10142 20122 30075 40117 58012 70010=

02513 37/50 /1901 10146 20140 71011=

02616 42568 12007 10138 20122 30172 40178 56004 81500 333 81695=

02635 37/10 /1601 10093 20093 73131=






NNNN

ZCZC

SIPL99 SOPR 270300

AAXX 27031

12203 41/62 41803 1//// 2//// 702// 8//// 333 92417=

12103 41/59 41302 1//// 2//// 702// 8//// 333 92417=

12114 41/63 31301 1//// 2//// 702// 8//// 333 92417=

12116 41/61 22601 1//// 2//// 702// 8//// 333 92417=

12118 41/61 31802 1//// 2//// 702// 8//// 333 92416=

12119 41/40 61702 1//// 2//// 710// 8//// 333 92416=

12127 41/58 61701 1//// 2//// 710// 8//// 333 92416=

12129 41/50 41302 1//// 2//// 710// 8//// 333 92416=

12131 41/69 22201 1//// 2//// 702// 8//// 333 92417=

12137 41/68 12203 1//// 2//// 702// 8//// 333 92417=

12138 41/62 41302 1//// 2//// 702// 8//// 333 92417=

12139 41/63 31302 1//// 2//// 702// 8//// 333 92417=

12147 41/60 11701 1//// 2//// 702// 8//// 333 92417=

12148 41/60 10000 1//// 2//// 710// 8//// 333 92417=

12149 41/59 31302 1//// 2//// 710// 8//// 333 92416=

12153 41/60 41801 1//// 2//// 702// 8//// 333 92417=

12156 41/97 11901 1//// 2//// 702// 8//// 333 92417=

12238 41940 02501 10083 20077 40207 50001 71144 555 6//96=

12212 41640 42003 10112 20103 40199 57002 71000 8255/ 555 6//94=

12490 41930 00000 10106 20100 40230 54000 71000 555 6//96=

12485 41956 11701 10108 20097 40231 52001 71000 80001 555 6//93=

12146 41940 39901 10096 20087 40201 57001 71100 83030 555 6//94=

12428 42660 69901 10119 20110 30072 40219 57004 865// 555 6//94=

12154 42960 01301 10131 20106 40198 57001 555 6//85=

12124 41905 31601 10109 20103 74444 83030 555 6//96=

12376 41950 31501 10111 20100 40227 57001 71022 83030 555 6//93=

12556 41915 20000 10082 20080 39947 4//// 5//// 71122 82030 555 6//99=

12326 41905 60000 10137 20131 30106 40205 57012 74444 86050 555 6//96=






NNNN

ZCZC

SANO98 ENGM 270320

ENGM 270320Z 19011KT 9999 FEW009 BKN013 12/11 Q1009=








NNNN

ZCZC

SIOS44 LOWM 270300 RRB

AAXX 27031

11345 36/// /3101 10116 20110 39369 40239=

11137 27/// /2901 10113 20105 39322 40260 740// 333 60017=






NNNN

ZCZC

SICR20 GCLP 270300

AAXX 27034

60020 NIL=

60030 42560 13617 10218 20155 30099 40154 57008 81800

  333 924/6=

60040 NIL=

60338 NIL=






NNNN

ZCZC

SIUK21 EGRR 270300 CCA

AAXX 27034

03414 42975 71808 10119 20097 39995 40086 50002 80001 90250 333

55300 20000 87075=






NNNN

ZCZC

SIFR31 LFPW 270300 RRA

AAXX 27034

07024 24472 72110 10156 20136 39983 40146 58009 700//

  333 60007 90710 91123

  555 60005=






NNNN

ZCZC

SANO98 ENMI 270320

METAR

ENGM 270320Z 19011KT 9999 FEW009 BKN013 12/11 Q1009=








NNNN

ZCZC

SIVF99 ENMI 270300

BBXX
LF3F 27034 99643 10078 43/// /2009 22200 04107 10805 70024=







NNNN

ZCZC

SIVF99 ENMI 270300

BBXX
LF3N 27034 99653 10073 41596 81728 10110 20095 49936 57024 76162
     8//// 22200 00101 10807 70034=







NNNN

ZCZC

SIVF99 ENMI 270300

BBXX
LF4C 27034 99584 10019 43/// /2322 10135 20111 49999 57003 22200
     10708 70041=







NNNN

ZCZC

SNVF99 ENMI 270200

BBXX
LF4B 27024 99606 10037 46/// /1927 10120 49971 52005 90210 22200
     10713 70065=







NNNN

ZCZC

SIVF99 ENMI 270300

BBXX
LF4B 27034 99606 10037 47/96 /1923 10120 49966 57001 751// 22200
     10812 70062=







NNNN

ZCZC

SISN87 ESWI 270300 RRA

AAXX 27031

02141 47257 /1804 10089 20089 39365 40047 58021 71010 333 86/04 87/06

88/17=






NNNN

ZCZC

SISN41 ESWI 270300 RRA

AAXX 27031

02154 45564 /1702 10118 20095 39838 40055 58018 333 88/21=






NNNN

ZCZC

SISW23 LSSW 270300

AAXX 27033

06702 43/// /2614 10083 20069 38385 48562 57005 90240

  333 91119 91215=

06639 43/// /2505 10102 20091 38655 48557 57003 90240

  333 91116 91210=

06628 43/// /2302 10119 20104 39042 48558 57003 90240

  333 91112 91206=

06643 41460 80000 10128 20128 39731 40230 57000 71022 88600 90240

  333 88719 91104 91202=

06792 43/// /1502 10051 20038 38358 48568 57007 90240

  333 91106 91204=

06770 42/70 /3403 10158 20135 39910 40236 57006 90240

  333 91105 91204=

06786 43/// /0000 10141 20117 39587 40235 57005 90240

  333 91107 91204=

06672 41763 81302 10143 20129 39703 40232 55001 71022 90240

  333 88656 91110 91207=

06794 42775 80000 10097 20084 39017 48566 57004 8802/ 90240

  333 88450 91104 91202=

06760 43/// /0601 10157 20125 39784 40229 57004 90240

  333 91104 91202=

06712 41757 81603 10139 20128 39775 40226 57006 70262 90240

  333 88556 91108 91205=

06689 43/// /2306 10124 20097 38956 48561 57005 90240

  333 91108 91207=

06604 43/// /0702 10148 20133 39662 40231 57002 90240

  333 91106 91204=

06724 43/// /0000 10096 20079 38563 48569 57005 90240

  333 91105 91202=

06759 43/// /0101 10083 20080 38418 48568 57005 90240

  333 91104 91204=

06783 43/// /2401 10069 20064 38423 48563 57003 90240

  333 91102 91201=

06680 41/00 91410 10039 2//// 37589 47144 57004 74544 90240

  333 91125 91216=

06660 43/// /0501 10137 20118 39563 40226 57002 90240

  333 91104 91203=

06782 42660 73001 10114 20096 38897 48560 57006 90240

  333 87737 91103 91201=

06734 43/// /0000 10138 20120 39555 40228 57007 90240

  333 91109 91204=

06612 43/// /2602 10110 20095 39068 48556 58006 90240

  333 91108 91203=

06730 43/// /0000 11008 21041 36638 47149 57005 90240

  333 91121 91211=

06669 43/// /2203 10133 20105 39249 48549 57005 90240

  333 91109 91206=

06771 43/// /1901 10137 20125 39808 40229 57005 90240

  333 91104 91202=

06616 42965 81902 10132 20109 39529 40224 57004 90240

  333 88460 91107 91205=

06756 43/// /3103 10136 20111 39626 40273 54000 90240

  333 91106 91204=

06791 43/// /2509 11003 21020 36877 47157 57005 90240

  333 91112 91210=

06753 42560 81201 10119 20094 39085 48570 58002 90240

  333 88720 91106 91203=

06681 43/// /1502 10132 20106 39317 48557 57004 90240

  333 91109 91206=






NNNN

ZCZC

SIIE22 EIDB 270300

AAXX 27031

03960 46/// /2205 10111 20091 39985 40062 54000 =

03965 46/// /2108 10123 20081 39955 40040 50000 =

03971 46/// /2106 10114 20084 39909 40033 52001 =

03974 46/// /2106 10114 20096 39907 40010 54000 =






NNNN

ZCZC

SIIL21 BIRK 270300

AAXX 27034

04005 41456 80427 10021 20010 49874 54000 76876 886//=

04018 41584 70121 10049 20008 49768 54000 70262 83870

  333 83820 84626 87357=

04030 42584 80215 10047 20014 49755 53001 8357/

  333 83625 87357=

04048 42689 20304 10027 20000 49717 52014 81542=

04063 41470 83607 10047 20032 49781 58015 76366 8772/=

04077 41/30 90528 10050 20036 49780 57004 76166=

04082 NIL=

04097 41589 83612 10068 20057 49732 57001 76166 8572/=






NNNN

ZCZC

SISW22 LSSW 270300

AAXX 27033

06670 41960 70000 10124 20118 39721 40232 57003 71022 8702/ 90240

  333 87469 91106 91204=

06750 43/// /2104 10056 20043 37785 48563 57004 90240

  333 91111 91209=

06700 41960 81301 10139 20119 39737 40227 57006 71022 8707/ 90240

  333 82359 87464 91106 91204=

06720 42765 80503 10141 20114 39660 40223 58001 886// 90240

  333 88750 91105 91204=

06990 41640 71602 10144 20126 39688 40231 57002 71022 86502 90240

  333 86645 91106 91204=

06762 41962 80000 10146 20132 39987 40223 57006 71011 8801/ 90240

  333 88458 91107 91204=






NNNN

ZCZC

SISW21 LSSW 270300

AAXX 27033

06610 41658 81802 10138 20125 39651 40226 50004 71022 886// 90240

  333 88734 91109 91204=






NNNN

ZCZC

SISW42 LSSW 270300

AAXX 27033

06717 43/// /3103 10047 20025 37609 47154 57003 90240

  333 91112 91210=

06621 43/// /2104 10144 20122 39713 40229 57004 90240

  333 91108 91206=

06798 43/// /2401 10084 20065 38786 48560 57005 90240

  333 91108 91204=

06659 43/// /2414 10064 20052 37957 48564 57005 90240

  333 91125 91217=

06780 43/// /2608 10034 20017 37433 47152 57005 90240

  333 91111 91208=

06748 43/// /2101 10079 20051 38424 48566 58003 90240

  333 91104 91203=

06751 43/// /0000 10075 20063 38168 48561 57005 90240

  333 91103 91201=

06620 43/// /2601 10136 20121 39714 40228 57005 90240

  333 91106 91205=

06711 43/// /0204 10157 20127 39689 40228 58004 90240

  333 91106 91204=

06664 43/// /0000 10138 20124 39706 40224 57002 90240

  333 91103 91202=

06650 43/// /0000 10144 20131 39692 40226 57003 90240

  333 91106 91203=

06601 43/// /1302 10140 20130 39849 40225 57004 90240

  333 91107 91204=

06679 43/// /1402 10128 20113 39602 40233 57004 90240

  333 91106 91203=

06735 43/// /2301 10097 20086 38746 48562 57006 90240

  333 91105 91202=

06645 43/// /1502 10143 20114 39513 48551 57005 90240

  333 91103 91202=

06673 43/// /1503 10145 20123 39658 40225 58006 90240

  333 91106 91204=

06727 43/// /2101 10119 20109 39485 48551 57005 90240

  333 91104 91202=

06619 43/// /2302 10113 20095 38866 48552 57004 90240

  333 91107 91203=

06609 43/// /2706 10071 20053 38088 48562 57004 90240

  333 91122 91211=

06685 43/// /2603 10143 20132 39651 40225 58000 90240

  333 91109 91204=

06631 43/// /2203 10132 20119 39569 40231 55002 90240

  333 91105 91203=

06605 43/// /2517 10084 20071 38429 48561 57003 90240

  333 91120 91217=

06722 43/// /0503 10090 20052 38231 48561 58006 90240

  333 91107 91205=

06716 43/// /0802 10140 20106 39390 48560 58002 90240

  333 91107 91204=

06788 43/// /2301 10073 20059 38444 48564 57008 90240

  333 91107 91204=

06784 43/// /2303 10081 20058 38476 48568 57006 90240

  333 91108 91204=

06633 41560 83202 10132 20124 39769 40229 50001 71022 90240

  333 88730 91107 91202=

06744 43/// /1611 10078 20061 38095 48561 57006 90240

  333 91116 91211=

06705 43/// /3503 10139 20127 39718 40226 55002 90240

  333 91106 91205=

06745 43/// /0501 10101 20088 38725 48565 57006 90240

  333 91105 91203=

06655 43/// /0000 10113 20104 39069 48556 55001 90240

  333 91106 91203=






NNNN

ZCZC

SMBU40 LZSO 270000 RRD

AAXX 27001

15600 11982 20906 10075 20075 38381 48575 54000 60001 70340 80001 333

10076 20068 444 46154 555 500//=






NNNN

ZCZC

SIVF99 ENMI 270300

BBXX
LF3J 27034 99612 10023 41797 52023 10111 20101 49934 54000 70162
     8//// 90310 22200 02114 10811 70056=







NNNN

ZCZC

SIVF99 ENVV 270300

BBXX
3FYT  27031 99716 10213 43/// /2903 10071 20048 40002 5//// 22200 06069 10807 70037=









NNNN

ZCZC

SIBX20 EBBR 270300

AAXX 27031

06407 42568 61905 10137 20107 30142 40156 57010 81832

  333 81830 86070 91109 91206=

06408 NIL=

06447 NIL=

06451 42965 61903 10133 20108 30106 40176 56007 85032

  333 85362 91106 91205=

06456 42970 72005 10131 20105 39826 40186 58009 8703/

  333 87361 91107 91205=

06476 NIL=

06590 42965 71901 10123 20099 39764 40213 58004 80002

  333 87070 91103 91202=






NNNN

ZCZC

SIBX21 EBBR 270300

AAXX 27031

06400 42568 71903 10141 20115 30146 40157 58012 81832

  333 81830 86073 91107 91206=

06428 45/74 /2104 10145 20108 30117 40165 58010

  333 91108 91205=

06479 42965 39902 10132 20119 30100 40179 56010 81031

  333 81364 83070 91104 91202=

06490 NIL=






NNNN

ZCZC

SIBX22 EBBR 270300

AAXX 27031

06431 NIL=

06432 45975 /2004 10141 20110 30100 40175 57007

  333 87/71 91107 91205=

06449 42663 72005 10136 20104 39959 40188 57006 8353/

  333 83644 87362 91108 91206=

06450 42960 21702 10144 20110 30155 40180 57008 82030

  333 82365 91104 91202=

06452 45975 /9901 10134 20111 30140 40167 58012

  333 87/69 91103 91201=

06458 42970 72104 10139 20106 30031 40182 56008 84032

  333 83363 87070 91107 91205=

06463 NIL=

06465 45969 /1804 10135 20114 30114 40179 58008

  333 85/66 87/74 91106 91204=

06470 NIL=

06473 NIL=

06478 42975 21904 10142 20108 39969 40191 57005 80002

  333 82070 91106 91205=

06480 NIL=

06481 NIL=

06496 42967 71903 10108 20093 39529 40194 56006 87071

  333 83362 86365 91105 91203=






NNNN


