ZCZC 863
SIVF99 ENVV 101500
BBXX
LAJP  10154 99599 10021 41598 21401 10159 20096 40157 52012 
70110 81243 22200=








NNNN
ZCZC 864
SINO91 DNMI 101500
AAXX 10151
01001 42384 61501 10091 20072 30186 40197 56008 81631 555 02103=
01003 41430 82202 10051 20042 40193 58014 76122 875// 555 0/806=
01007 NIL=
01008 41275 82407 10068 20045 30122 40155 57013 76065 885// 333
      81705 84712 86625 91113 555 0/109=
01010 41/05 91203 10106 20086 30192 40208 57006 74642 333 89/01
      91106 555 0/205=
01026 42188 10601 10107 20088 30071 40210 57011 81600 555 0/102=
01028 41685 72204 10076 20051 30216 40236 58010 70322 888// 333
      91107 555 01206=
01047 41586 50000 10130 20089 39853 40219 56006 70222 84440=
01049 NIL=
01055 31365 60909 10089 20072 30213 40231 58015 70222 86900 555
      03311=
01062 41389 62608 10068 20040 30183 40197 57006 70222 84570 555
      03110=
01078 NIL=
01098 46/// /0503 1//// 2//// 30241 40259 54/// 555 0/404=
01102 41584 31409 10184 20110 30151 40169 55000 70200 81038 555
      03311=
01115 NIL=
01152 41789 30403 10190 20075 30182 40197 57007 70211 81102 333
      81856 83070 91105 555 0/304=
01160 NIL=
01205 41385 62704 10156 20156 30102 40151 52009 70222 81138 555
      03308=
01212 NIL=
01218 NIL=
01238 NIL=
01241 41688 71306 10190 20082 30144 40155 53001 70322 84172 333
      81835 83359 87068 91112 555 0/309=
01271 41688 51703 10205 20073 30144 40167 56004 70222 81142 333
      81840 83359 91109 555 0/306=
01300 NIL=
01317 41484 63202 10150 20125 30104 40146 52005 70222 8557/ 333
      81716 85638 555 0/103=
01338 NIL=
01367 NIL=
01384 41588 60604 10167 20080 39921 40162 58003 70322 85848 333
      81825 83835 85850 555 0/307=
01389 NIL=
01400 NIL=
01403 31584 80603 10149 20111 30075 40142 52005 70222 8582/ 555
      03303=
01415 41475 80000 10137 20120 30132 40142 52008 78082 8387/ 333
      81812 83640 88357 91106 555 0/103=
01448 NIL=
01482 NIL=
01492 NIL=







NNNN
ZCZC 865
SIVF99 ENEK 101500
BBXX
LF5U  10154 99565 10032 41598 33605 10152 20097 40124 52005 70200
83200 22200 06160 10502 70010=







NNNN
ZCZC 866
SINO92 DNMI 101500
AAXX 10151
01023 41989 10000 10164 20106 30108 40202 57011 70200 81078 333
      81360 91102 555 0/302=
01025 41170 23003 10108 20087 30201 40212 58013 74020 82600 333
      82700 91104 555 0/003=
01089 41/09 90404 10093 20089 30135 40246 54001 74542 555 0/204=
01262 NIL=
01288 46/// /1204 10142 20061 39452 40175 57001 555 0/305=
01311 41384 73503 10139 20119 30086 40146 52005 70262 83871 333
      81707 83650 85357 91105 555 0/103=
01355 NIL=
01364 NIL=
01427 16/// /0103 10113 20097 30139 40122 51008 60015 555 0/205
      40///=
01433 NIL=
01450 NIL=
01465 41563 80612 10156 20112 30105 40123 58010 71562 8472/ 555
      04012=







NNNN
ZCZC 867
SIVF99 ENMI 101500
BBXX
LF5T 10154 99660 10081 41998 11616 10151 20107 40156 57002 70200
     80008 22200 00139 10504 70018=







NNNN
ZCZC 868
SINO93 DNMI 101500
AAXX 10151
01015 NIL=
01033 NIL=
01059 41280 83401 10104 20081 40237 57011 70222 885//=
01092 NIL=
01121 42789 21204 10194 20124 81201 555 0/706=
01167 42586 43503 10104 20098 30201 40206 57011 81506 555 0/305=
01210 41986 33102 10162 20125 30132 40158 52007 70120 80008 555
      0/306=
01231 NIL=
01240 46/// /1506 10162 20096 30138 40157 54001=
01304 NIL=
01360 NIL=
01406 46/// /0303 10146 20118 30127 40145 51005 555 0/304=
01425 NIL=
01442 41482 83505 10127 20086 39881 40132 51004 78082 889// 555
      0//07=
01452 NIL=
01455 NIL=
01467 NIL=
01473 46/// /0603 10154 20072 39952 40154 57001 555 0/104=
01474 42587 50203 10162 20079 39815 40159 54000 83811=
01494 41586 51005 10176 20078 30086 40149 57004 70222 84142 333
      81835 83840 85070 91111 555 0/307=







NNNN
ZCZC 869
SINO94 DNMI 101500
AAXX 10151
01034 NIL=
01036 NIL=
01075 NIL=
01108 NIL=
01134 NIL=
01199 NIL=
01227 NIL=
01245 NIL=
01252 NIL=
01274 NIL=
01278 NIL=
01280 NIL=
01292 42686 51501 10201 20006 39895 40174 57002 82171 555 0/001=
01295 NIL=
01322 NIL=
01325 NIL=
01341 NIL=
01372 41689 53003 10191 20042 39950 40144 57008 70211 82201 333
      0/005=
01374 42589 40903 10144 20068 83201 555 0//03=
01380 NIL=
01393 46/// /1103 10132 20056 39402 40179 57002 555 0/204=
01417 NIL=
01424 NIL=
01432 NIL=
01436 NIL=
01446 NIL=
01496 NIL=
01498 NIL=







NNNN
ZCZC 870
SINO91 DNMI 101500 RRA
AAXX 10151
01007 36/// /2705 10044 20014 30134 40144 56004 555 0/107=
01049 41589 13201 10136 20081 30218 40221 57015 70120 81400 555
      0/403=
01078 46/// /1006 10078 20070 30241 40253 58007 555 0/107=
01115 42989 10607 10145 20100 30162 40182 58013 80001 555 0/007=
01160 42886 30903 10158 20082 30185 40202 58004 81042 555 02306=
01212 46/// /2902 10168 20137 30142 40159 52012 555 0/309=
01238 42685 31905 10138 20024 39061 40154 55003 82240 555 0/305=
01338 36/// /2801 10172 20092 30085 40144 56002 555 0/303=
01367 42885 31602 10171 20063 39733 40158 55001 82102 555 0/203=
01400 41598 33603 10152 20097 40124 52005 70200 83200 22200 06160
      10502 70010=
01448 41460 83303 10123 20110 30115 40125 58008 76162 8572/ 555
      03107=
01482 42583 31010 10172 20094 30129 40138 57004 81442 555 03010=
01492 31486 60804 10172 20061 30041 40154 58005 70222 83141 555
      0/307=







NNNN
ZCZC 871
SIVF99 ENMI 101500
BBXX
LF3F 10154 99643 10078 41999 02106 10215 20095 40167 52002 70100
     22200 04145 10602 70008=







NNNN
ZCZC 872
SIVF99 ENMI 101500
BBXX
LF3N 10154 99653 10073 41998 21911 10177 20117 40153 52002 70200
     80001 22200 00146 10602 70011=







NNNN
ZCZC 873
SIVF99 ENMI 101500
BBXX
LF4C 10154 99584 10019 41498 20406 10147 20105 40145 52008 70100
     81101 91510 22200 00156 10601 70005=







NNNN
ZCZC 874
SIVF99 ENMI 101500
BBXX
LF3J 10154 99612 10023 41598 31908 10140 20094 40148 52009 70200
     82178 91510 22200 02142 10603 70013=







NNNN
ZCZC 875
SIVF99 ENMI 101500
BBXX
LF4B 10154 99606 10037 47/98 /3502 10150 20118 40154 52009 700//
     91510 22200 00150 1//01 70006=







NNNN
ZCZC 876
SINO92 DNMI 101500 RRA
AAXX 10151
01433 46/// /1308 10101 20011 38908 40126 51003 555 0/209=







NNNN
ZCZC 877
SINO93 DNMI 101500 RRA
AAXX 10151
01015 46/// /2101 10095 20085 555 0/306=
01033 42375 10102 10114 20086 30180 40209 57011 81600 555 02203=
01092 46/// /0803 10080 20071 555 0/204=
01304 46/// /3101 10144 20116 30124 40154 53006 555 0/103=
01425 46/// /2901 10118 20104 30064 40143 52009 555 0/303=
01452 11162 83001 10121 20110 30103 40124 58009 60035 76166 8772/
      555 0/203 41///=
01467 42565 70709 10164 20105 30126 40131 57006 81278 555 04310=







NNNN
ZCZC 878
SINO97 DNMI 101500
AAXX 10151
01106 46/// /0906 10149 20103 30190 40194 58009 555 0/306=
01113 36/// /1502 10206 20077 555 0/102=
01156 36/// /3302 10136 20108 30191 40201 57005 555 0/203=
01180 36/// /0000 10137 20092 30151 40205 57008 555 0/301=
01203 46/// /2205 10138 20112 30107 40156 52008 555 0/308=
01225 46/// /3202 10179 20110 30148 40154 52006 555 0/303=
01228 46/// /3202 10206 20069 30156 40163 51006 555 0/304=
01257 36/// /2202 10194 20058 30011 40165 55005 555 0/205=
01259 36/// /1607 10192 20087 30140 40162 51004 555 0/311=
01265 36/// /2303 10157 20064 39610 40169 56002 555 0/204=
01277 36/// /0502 10202 20091 555 0/304=
01306 46/// /3105 10145 20119 30123 40149 52005 555 0/005=
01321 NIL=
01350 36/// /1107 10094 2//// 38783 40138 53003 555 0/211=
01366 46/// /1007 10086 20008 38580 40154 555 0/208=
01375 46/// /1605 10108 20054 555 0/306=
01378 46/// /1302 10177 20059 39879 40158 53001 555 0/103=
01383 46/// /1305 10176 20056 39875 53006 555 0/205=
01397 46/// /1303 10157 20061 39761 40181 50002 555 0/205=
01412 46/// /1102 10122 20092 30110 40141 53008 555 0/103=
01434 36/// /0000 10118 20023 39192 40129 51004 555 0/000=
01441 46/// /0204 10102 20037 39174 40134 52007 555 0/306=
01470 46/// /0000 10164 20068 30035 40145 56002 555 0/000=
01476 36/// /0607 10177 20094 30129 40135 56005 555 0/308=
01481 36/// /0704 10177 20080 555 0/305=
01490 36/// /0806 10133 20060 555 0/006=
01495 36/// /0908 10177 20097 30129 40141 57003 555 0/210=







NNNN
ZCZC 879
SINO91 DNMI 101500 RRB
AAXX 10151
01300 41598 31904 10140 20094 40148 52009 70200 82178 91510 22200
      02142 10603 70013=







NNNN
ZCZC 880
SINO91 DNMI 101500 CCA
AAXX 10151
01098 41150 80603 10082 20073 30241 40259 54000 70222 886// 555
      02003=







NNNN
ZCZC 881
SINO91 DNMI 101500 CCB
AAXX 10151
01098 41150 80603 10082 20073 30241 40259 54000 70222 886// 555
      02003=







NNNN
ZCZC 882
SINO98 DNMI 101500
NIL=







NNNN
ZCZC 883
SINO91 DNMI 101500 CCC
AAXX 10151
01028 41685 82204 10076 20051 30216 40236 58010 70322 888// 333
      91107 555 01206=







NNNN
