ZCZC 717
SINO91 DNMI 092100
AAXX 09211
01001 46/// /2303 10082 20048 30201 40213 51007 555 0/105=
01003 41482 83001 10044 20011 40207 52008 70222 885// 555 0/508=
01007 NIL=
01008 41482 72604 10029 20020 30158 40192 52009 70262 875// 333
      83710 87650 91108 555 0/206=
01010 41278 80404 10101 20088 30209 40225 52003 70322 886// 333
      83705 86710 91106 555 0/105=
01026 42287 60202 10092 20080 30085 40225 52003 81630 555 0/104=
01028 41585 72305 10065 20052 30212 40231 52006 70222 86570 333
      91107 555 01106=
01047 NIL=
01049 41882 60000 10092 20074 30221 40224 52010 70222 83038 555
      0/203=
01055 41575 82406 10099 20087 30205 40222 53006 70222 889// 555
      02106=
01062 41289 32407 10038 20029 30178 40192 52010 70300 82640 555
      02209=
01078 NIL=
01098 41480 71901 1//// 2//// 30204 40221 51/// 70282 85941 555
      02304=
01102 41582 61314 10160 20110 30154 40173 53002 70221 82278 555
      04216=
01115 NIL=
01152 41988 41001 10133 20095 30182 40198 52005 70211 81078 333
      81462 83270 91105 555 0/304=
01160 NIL=
01205 41580 50906 10163 20101 30059 40107 52001 70222 8317/ 555
      03309=
01212 46/// /1207 10163 20095 30104 40121 58001 555 0/108=
01218 NIL=
01238 NIL=
01241 41888 11307 10169 20089 30142 40153 52009 70100 81072 333
      81358 91115 555 0/310=
01271 41887 11303 10120 20082 30154 40178 52011 70200 81042 333
      81358 91105 0/207=
01300 NIL=
01317 41584 51104 10175 20070 30034 40076 57003 70182 82260 333
      81833 83357 555 0/209=
01338 NIL=
01367 46/// /0501 10121 20100 39727 40159 51002 555 0/303=
01384 41687 70802 10140 20101 39921 40164 52007 70222 8147/ 333
      81645 83356 87358 555 0/103=
01389 NIL=
01400 NIL=
01403 11570 81508 10147 20122 39994 40061 52004 60015 78082 8482/
      555 03310 40///=
01415 41457 81903 10151 20123 30054 40064 52012 76362 888// 333
      81715 87635 91114 555 0/309=
01448 NIL=
01482 NIL=
01492 31689 70704 10165 20098 30038 40152 51006 70222 8557/ 555
      0/105=







NNNN
ZCZC 718
SINO92 DNMI 092100
AAXX 09211
01023 41889 40000 10097 20082 30124 40221 52006 70120 84038 333
      81358 83362 91104 555 0/303=
01025 41289 69902 10092 20081 30215 40226 51005 70222 81659 333
      81704 85259 91105 555 0/103=
01089 41/09 91602 10090 20082 30108 40220 52005 74742 555 0/304=
01262 46/// /1213 10156 20100 555 0/114=
01288 46/// /1302 10103 20068 39453 40186 52006 555 0/204=
01311 41684 71303 10168 20073 30016 40075 57003 70222 8258/ 333
      82640 85357 91108 555 0/104=
01355 NIL=
01364 NIL=
01427 16/// /1503 10131 20123 30071 40054 53016 60065 555 0/211
      47///=
01433 NIL=
01450 NIL=
01465 46/// /1313 10171 20126 30090 40107 52008 555 0/215=







NNNN
ZCZC 719
SIVF99 ENMI 092100
BBXX
LF5T 09214 99660 10081 41998 51218 10156 20113 40152 57003 7////
     8//// 22200 00139 10402 70009=







NNNN
ZCZC 720
SINO93 DNMI 092100
AAXX 09211
01015 NIL=
01033 46/// /2001 10097 20082 30199 40228 52006 555 0/303=
01059 NIL=
01092 NIL=
01121 NIL=
01167 42380 73504 10103 20100 30214 40218 52003 83678 555 0/105=
01210 NIL=
01231 NIL=
01240 NIL=
01304 NIL=
01360 42682 71803 10096 20069 39375 40150 51004 86808 555 0/307=
01406 46/// /1004 10158 20106 30052 40070 58002 555 0/105=
01425 NIL=
01442 NIL=
01452 NIL=
01455 41460 82401 10130 20116 39820 40121 52010 76162 8462/ 555
      0/204=
01467 46/// /1109 10172 20131 30113 40118 53005 555 0/310=
01473 46/// /0602 10150 20102 39938 40140 52002 555 0/103=
01474 NIL=
01494 41986 61005 10160 20086 30084 40148 52006 70222 86031 333
      86359 91109 555 0/106=







NNNN
ZCZC 721
SINO94 DNMI 092100
AAXX 09211
01034 NIL=
01036 NIL=
01075 NIL=
01108 NIL=
01134 NIL=
01199 NIL=
01227 NIL=
01245 NIL=
01252 NIL=
01274 NIL=
01278 NIL=
01280 NIL=
01292 NIL=
01295 NIL=
01322 NIL=
01325 NIL=
01341 NIL=
01372 NIL=
01374 NIL=
01380 NIL=
01393 46/// /1002 10110 20081 39406 40189 52005 555 0/403=
01417 NIL=
01424 NIL=
01432 41570 70407 10125 20084 78282 879// 555 0/212=
01436 NIL=
01446 NIL=
01496 NIL=
01498 NIL=







NNNN
ZCZC 722
SIVF99 ENVV 092100
BBXX
3FYT  09211 99608 10036 41/98 71009 10153 20100 40077 57006 
70222 8//// 22200 06137 10502 70008=








NNNN
ZCZC 723
SIVF99 ENEK 092100
BBXX
LF5U  09214 99565 10032 41598 42711 10145 20091 40096 52012 70210
84200 22200 06160 10503 70013







NNNN
ZCZC 724
SINO91 DNMI 092100 RRA
AAXX 09211
01007 36/// /1502 10015 21003 30179 40189 51011 555 0/305=
01078 46/// /1702 10104 20090 555 0/203=
01115 42488 51203 10132 20108 30171 40191 51009 81108 555 0/306=
01160 42889 31502 10129 20098 30187 40204 52003 82038 555 02203=
01238 41560 81707 10091 20059 39052 40164 50000 78082 889// 555
      0/108=
01338 36/// /0905 10172 20076 30045 40104 56009 555 0/107=
01400 41598 42706 10145 20091 40096 52012 70210 84200 22200 06160
      10503 70013=
01448 41475 81214 10165 20136 30073 40083 51007 76062 8772/ 555
      05216=
01482 42580 61212 10171 20116 30125 40134 52007 83450 555 04113=







NNNN
ZCZC 725
SIVF99 ENMI 092100
BBXX
LF3N 09214 99653 10073 41998 01514 10151 20120 40140 52002 70000
     22200 004,2 10602 70011=







NNNN
ZCZC 726
SIVF99 ENMI 092100
BBXX
LF4C 09214 99584 10019 43/// /3011 10138 20104 40080 52007 92110
     22200 10702 70010=







NNNN
ZCZC 727
SIVF99 ENMI 092100
BBXX
LF4B 09214 99606 10037 47/99 /1113 10173 20081 40073 57003 700//
     92110 22200 00141 1//01 70006=







NNNN
ZCZC 728
SIVF99 ENMI 092100
BBXX
LF3J 09214 99612 10023 41698 80922 10158 22186 40075 57009 76166
     8//// 92110 22200 02143 10602 70010=







NNNN
ZCZC 729
SINO92 DNMI 092100 RRA
AAXX 09211
01433 46/// /1113 10083 20053 38875 40096 57001 555 0/114=







NNNN
ZCZC 730
SINO93 DNMI 092100 RRA
AAXX 09211
01015 46/// /3502 10096 20086 555 0/102=
01092 46/// /0802 10112 20097 555 0/302=
01304 46/// /1007 10155 20085 30065 40095 58003 555 0/210=
01425 46/// /3103 10143 20122 39989 40066 50000 555 0/305=
01452 31480 71107 10166 20128 30069 40089 51008 78022 8787/ 555
      0/309=







NNNN
ZCZC 731
SINO97 DNMI 092100
AAXX 09211
01106 46/// /0806 10136 20100 30193 40197 52003 555 0/206=
01113 16/// /0000 10131 20082 69925 555 0/000 42///=
01156 36/// /0702 10108 20089 30198 40208 52004 555 0/305=
01180 16/// /2901 10084 20075 30165 40219 52003 69965 555 0/102
      46///=
01203 46/// /1006 10178 20053 30057 40105 58003 555 0/006=
01225 46/// /1107 10162 20092 30129 40135 51005 555 0/107=
01228 46/// /1104 10146 20104 30143 40150 51006 555 0/206=
01257 NIL=
01259 36/// /1108 10172 20082 30147 40169 53008 555 0/208=
01265 NIL=
01277 36/// /0603 10146 20088 555 0/104=
01306 46/// /1010 10172 20147 30051 40077 57005 555 0/010=
01321 36/// /1403 10155 20058 39874 40117 50002 555 0/304=
01350 36/// /1011 10071 2//// 38762 40125 51004 555 0/315=
01366 46/// /1406 10060 20033 555 0/110=
01375 46/// /1408 10082 20074 555 0/309=
01378 46/// /1402 10100 20094 39877 40164 51003 555 0/302=
01383 46/// /0000 10108 20103 39873 52004 555 0/301=
01397 46/// /1101 10094 20079 39760 40191 51007 555 0/301=
01412 46/// /1404 10131 21038 30031 40062 51010 555 0/310=
01434 16/// /0000 10092 20072 39164 40107 53002 60045 555 0/000
      47///=
01441 46/// /1506 10095 20068 39142 40101 52006 555 0/006=
01470 46/// /0000 10166 20111 30017 40127 53005 555 0/000=
01476 36/// /1006 10171 20130 30117 40123 51009 555 0/309=
01481 36/// /1003 10169 20101 555 0/103=
01490 36/// /0706 10123 20095 555 0/106=
01495 36/// /1109 10171 20099 30129 40141 53008 555 0/210=







NNNN
ZCZC 732
SINO91 DNMI 092100 RRB
AAXX 09211
01300 41698 80911 10158 22186 40075 57009 76166 8//// 92110 22200
      02143 10602 70010=







NNNN
ZCZC 733
SINO97 DNMI 092100 RRA
AAXX 09211
01257 36/// /1502 10153 20076 30016 40172 50008 555 0/303=
01265 36/// /2301 10110 20077 39610 40179 50003 555 0/103=







NNNN
ZCZC 734
SINO98 DNMI 092100
NIL=







NNNN
ZCZC 735
SINO91 DNMI 092100 CCA
AAXX 09211
01098 41480 71001 10098 20090 30202 40220 52007 70282 85941 555
      02305=







NNNN
