ZCZC 690
SMNO91 DNMI 091800
AAXX 09181
01001 32486 22203 10084 20067 30194 40206 53004 81540 333 10092
      91105 555 02404 20071=
01003 11482 82803 10051 20013 40199 52010 69912 70222 875// 333
      10062 91111 555 0/408 20041=
01007 NIL=
01008 11384 72404 10034 20016 30148 40182 52010 69912 71582 878//
      333 10046 83707 86818 91110 555 0/409 20034 415//=
01010 31282 70403 10102 20086 30206 40222 52005 70122 876// 333
      10137 84706 86620 91105 555 0/104 20102=
01026 32288 60101 10099 20083 30082 40221 52008 81630 333 10150
      91106 555 0/404 20099=
01028 31380 72504 10068 20053 30206 40226 52009 70122 86570 333
      10086 91108 555 01306 20056=
01047 31684 61403 10107 20090 39842 40209 53007 70222 82508 333
      10140 555 20056=
01049 31886 51602 10116 20085 30211 40214 52011 70122 82048 333
      10140 91106 555 0/305 20098=
01055 31465 82404 10099 20088 30199 40216 52008 70342 88900 333
      10126 91106 555 02004 20099=
01062 31389 12409 10043 20027 30168 40182 53011 70220 81640 333
      10069 91114 555 02009 20043=
01078 NIL=
01098 31485 61502 1//// 2//// 30196 40214 53/// 70222 84441 333
      1//// 91104 555 01403=
01102 31585 61109 10161 20108 30152 40171 52004 70321 82278 333
      10187 91112 555 04411 20152=
01115 NIL=
01152 31988 40303 10151 20098 30177 40193 52002 70211 81078 333
      10195 82462 83270 91105 555 0/404 20112=
01160 NIL=
01205 31585 60607 10166 20116 30058 40106 57001 70322 84479 333
      10177 91108 555 03108 20123=
01212 46/// /1004 10173 20076 30105 40122 51003 333 10195 91109 555
      0/408 20146=
01218 32886 51803 10185 20067 30105 40125 54000 82251 333 10214 555
      0/003 20110=
01238 NIL=
01241 31688 31609 10188 20074 30133 40144 53006 70200 81141 333
      10209 81830 83360 911// 555 0/411 20153=
01271 31687 11503 10183 20073 30143 40167 55000 70100 81142 333
      10210 81835 91113 555 0/408 20157=
01300 NIL=
01317 11581 61105 10182 20071 30037 40079 55003 69922 78062 84362
      333 10194 81933 83645 91112 555 0/207 20125 425//=
01338 NIL=
01367 42570 82802 10119 20101 39725 40157 55003 86720 333 10132
      91105 555 0/103 20115=
01384 31587 70903 10154 20108 39914 40156 55001 70222 8127/ 333
      10180 81830 87365 91109 555 0/305 20098=
01389 31685 81401 10141 20135 70221 8337/ 333 10183 555 0/001 20057=
01400 NIL=
01403 16/// /1310 10162 20101 39990 40056 56010 60042 333 10162
      91114 555 0/312 20117 44///=
01415 11480 71207 10171 20096 30042 40052 57016 60012 70362 81878
      333 10173 81620 86357 91114 555 0/109 20130 405//=
01448 11470 81013 10169 20134 30066 40076 56007 60052 76162 8672/
      333 10171 91120 555 04315 20155 47///=
01482 NIL=
01492 11588 70704 10173 20098 30032 40145 56004 69902 72582 86878
      333 10183 91112 555 0/406 20129 40///=







NNNN
ZCZC 691
SMVF99 ENVV 091800
BBXX
3FYT 09181 99608 10036 41497 70805 10147 20111 40083 57004 
70162 875// 22200 06140 10501 70006=









NNNN
ZCZC 692
SMNO92 DNMI 091800
AAXX 09181
01023 31989 60000 10132 20095 30118 40213 52007 70122 85038 333
      10168 85362 91105 555 0/404 20051=
01025 31289 70403 10102 20086 30210 40221 52009 70222 82659 333
      10142 81704 85259 91109 555 0/407 20092=
01089 31260 72203 10104 20092 30103 40214 52007 70322 876// 333
      10165 91106 555 0/104 20100=
01262 NIL=
01288 31984 11503 10109 20059 39447 40177 57003 70210 80001 333
      10148 91111 555 0/407 20096=
01311 41684 70703 10150 20093 30019 40078 57005 70262 82570 333
      10167 82640 85357 91105 555 0/203 20116=
01355 11781 71705 10183 20074 30085 40128 56002 69902 72582 87900
      333 10189 555 0/005 20115 405//=
01364 31670 51301 10101 20063 70121 83065 333 10110 555 20080=
01427 11456 81110 10147 20137 30055 40039 56000 60142 76166 887//
      333 10152 91119 555 03412 20137 4/5//=
01433 NIL=
01450 11270 81210 10098 20071 69932 70262 887// 333 10100 555 20074
      43///=
01465 11460 81112 10168 20121 30082 40100 57009 60032 70262 8557/
      333 10172 91117 555 04413 20153 49///=







NNNN
ZCZC 693
SMNO93 DNMI 091800
AAXX 09181
01015 NIL=
01033 NIL=
01059 31882 50000 10114 20089 40212 52012 70112 85050 333 10178
      91104=
01092 NIL=
01121 32789 53602 10150 20129 81242 333 10195 555 0/805 20146=
01167 32380 73304 10111 20108 30211 40215 52005 81687 333 10133
      91109 555 0/406 20084=
01210 31886 40401 10166 20103 30092 40118 58002 70220 81042 333
      10202 91107 555 0/404 20166=
01231 11585 71203 10126 20064 69902 78082 87941 333 10159 555 0/407
      20120 405//=
01240 NIL=
01304 NIL=
01360 32682 70907 10120 20050 39372 40140 57003 86808 333 10147 555
      0/807 20087=
01406 46/// /1103 10172 20091 30054 40071 56008 333 10177 91109 555
      0/106 20125=
01425 11580 80303 10152 20114 39989 40066 55007 60032 78086 889//
      333 10163 91113 555 0/206 20135 435//=
01442 11588 71407 10142 20096 39849 40098 58003 60152 72582 87900
      333 10157 555 0//10 20135 43///=
01452 NIL=
01455 11456 81502 10141 20125 39810 40109 56008 60032 76162 8462/
      333 10165 91108 555 0/403 20121 45///=
01467 11356 81208 10170 20135 30108 40113 53002 69952 78182 8676/
      333 10178 91114 555 04311 20153 455//=
01473 46/// /0502 10153 20101 39936 40137 56004 333 10173 91108 555
      0/405 20111=
01474 32580 80601 10142 20104 39803 40149 57013 888// 333 10150 555
      20070=
01494 31584 61005 10172 20113 30078 40141 55001 70222 81472 333
      10189 81630 85358 91112 555 0/409 20127=







NNNN
ZCZC 694
SMNO94 DNMI 091800
AAXX 09181
01034 NIL=
01036 32989 30000 10108 20087 80008 333 10180 555 0/000 20042=
01075 31689 50000 10115 20106 30195 40209 52020 70211 85050 333
      10167 555 0/000 20087=
01108 32689 71601 10166 20086 30170 40181 52002 81102 333 10205 555
      0/407 20146=
01134 32686 31205 10152 20096 39749 40198 52010 81141 333 10178 555
      0/207 20132=
01199 11585 50000 10106 20095 69912 70252 83571 333 10120 555 0/303
      20062 415//=
01227 32680 51803 10188 21176 30054 40135 53001 83241 333 10202 555
      0/212 20160=
01245 31680 41505 10138 20033 39451 40148 57005 70120 83441 333
      10156 555 0/005 20123=
01252 31580 40903 10138 20021 70542 82262 333 10165 555 0/205 20110=
01274 31587 11307 10165 20066 70110 81543 333 10193 555 0/810 20122=
01278 NIL=
01280 32787 31510 10180 20088 30030 40167 54000 82031 333 10195 555
      0/010 20111=
01292 32784 20000 10143 20087 39899 40184 54000 81131 333 10188 555
      0/105 20100=
01295 NIL=
01322 32889 60905 10181 20028 30029 40104 54000 8423/ 333 10193 555
      0/310 20114=
01325 11670 81805 10173 20079 69902 76062 8802/ 333 10198 555 0/310
      20112 40///=
01341 32785 60907 10167 20096 39908 40102 58008 85960 333 10175
      91117 555 0/408 20146=
01372 11689 82901 10130 20129 39946 40144 54000 69912 70222 889//
      333 10144 555 0/001 20114 4153/=
01374 11589 80901 10124 20092 69902 70282 885// 333 10136 555 0//01
      20090 405//=
01380 12480 71201 10093 20079 69922 8657/ 333 10102 91107 555 0/104
      20070 425//=
01393 46/// /1303 10123 20076 39401 40179 54000 333 10139 91109 555
      0/305 20076=
01417 NIL=
01424 31670 83603 10181 20070 30081 40084 56011 70222 8817/ 333
      10189 555 20121=
01432 11570 70412 10128 20081 60032 70282 873// 333 10142 555 0/012
      20116 495//=
01436 11160 81615 10154 20136 60142 76266 8772/ 333 10166 555 04219
      20147 43///=
01446 11330 80607 10110 20096 39291 40110 55004 60012 76262 8672/
      333 10122 555 0/007 20087 42///=
01496 32572 70801 10161 20113 39967 40148 57004 8707/ 333 10186 555
      20110=
01498 32489 50901 10154 20093 39980 40161 56006 83440 333 10184 555
      0/503 20088=







NNNN
ZCZC 695
SMNO96 DNMI 091800
AAXX 09181
01014 31385 70201 10110 20096 70321 8163/ 333 10155 555 0/501 20077=
01041 32689 70000 10120 20102 86840 333 10155 555 0/700 20075=
01045 32686 70401 10114 20088 875// 333 10154 555 0/801 20090=
01051 31580 33501 10088 20050 70221 81240 333 10174 555 0/001 20052=
01057 31689 40000 10111 20078 70222 88344 333 10173 555 0/000 20061=
01065 31689 30000 10115 20102 30049 40210 52010 70211 81440 333
      10161 555 0/000 20072=
01066 31584 82303 10112 20082 70222 889// 333 10144 555 02003 20112=
01147 31589 71410 10148 20082 70222 81148 333 10190 555 0/010 20112=
01169 31989 11501 10134 20076 70111 80001 333 10219 555 0/407 20079=
01172 31870 31401 10150 20139 70200 82034 333 10183 555 0/001 20094=
01215 43/70 31603 10158 20106 333 10210 555 0/003 20121=
01232 31770 30901 10181 20089 70211 82101 333 10224 555 0/305 20115=
01236 33588 71107 10126 20071 333 10129 555 0/310 20109=
01298 32689 31203 10142 20058 81961 333 10172 555 0/003 20102=
01319 12584 72105 10152 20082 69912 8596/ 333 10194 555 0/707 20123
      41///=
01328 11689 70905 10148 20045 69912 70282 83848 333 10169 555 0/207
      20109 415//=
01344 32789 71805 10129 20056 8422/ 333 10138 555 0/805 20125=
01370 31460 70000 10098 20086 70222 878// 333 10100 555 0//05 20080=
01409 43/65 71007 10171 20098 30038 40046 57015 333 10172 555 0/107
      20116=
01423 NIL=
01430 11457 81212 10146 20141 60182 76386 8872/ 333 10150 555 0/315
      20132 405//=
01439 11350 80503 10131 20122 60132 78182 889// 333 10132 555 20121
      41///=
01459 11370 80907 10142 20128 60082 76162 887// 333 10172 555 20124
      48///=
01486 43/80 71001 10158 20092 333 10170 555 0//03 20108=
01493 NIL=
01497 32675 60905 10160 20108 84098 333 10180 555 0/210 20122=







NNNN
ZCZC 696
SMVF99 ENEK 091800
BBXX
LF5U  09184 99565 10032 41598 42711 10147 20100 40084 52008 70210
84200 22200 06160 10503 70015 333 91114 555 0/112







NNNN
ZCZC 697
SMNO91 DNMI 091800 RRA
AAXX 09181
01007 11275 62305 10024 21013 30169 40178 51010 60012 78086 84338
      333 10053 91109 555 0/306 20023 4253/=
01078 32580 71702 10107 20091 30205 40217 53007 85410 333 10136
      91104 555 02203 20107=
01115 32986 70606 10137 20112 30162 40183 56002 80008 333 10171
      91107 555 04106 20126=
01160 32889 43603 10137 20094 30184 40201 52002 82038 333 10152
      91104 555 02203 20117=
01238 32570 61606 10095 20039 39052 40162 55000 83930 333 10111
      91114 555 0/109 20082=
01338 36/// /1004 10164 20080 30054 40113 58012 333 10179 91110 555
      0/405 20127=
01400 41598 42706 10147 20100 40084 52008 70210 84200 22200 06160
      10503 70015 333 91107 555 0/106=
01482 32582 61111 10176 20125 30119 40128 57002 82446 333 10181
      91114 555 03412 20152=







NNNN
ZCZC 698
SMVF99 ENMI 091800
BBXX
LF3N 09184 99653 10073 41798 11219 10155 20115 40138 57007 70200
     81001 22200 00142 10602 70008 333 91120 555 0/019=







NNNN
ZCZC 699
SMVF99 ENMI 091800
BBXX
LF5T 09184 99660 10081 41998 51116 10153 20113 40155 57002 70222
     82041 22200 00140 10502 70009=







NNNN
ZCZC 700
SMVF99 ENMI 091800
BBXX
LF3J 09184 99612 10023 41697 80718 10147 22189 40083 57011 76166
     8802/ 91810 22200 02141 10602 70009 333 91121 555 0/119=







NNNN
ZCZC 701
SMVF99 ENMI 091800
BBXX
LF4C 09184 99584 10019 43/// /2808 10133 20111 40073 52002 91810
     22200 10702 70008 333 91110 555 0/109=







NNNN
ZCZC 702
SMVF99 ENMI 091800
BBXX
LF4B 09184 99606 10037 47/98 /0714 10166 20074 40076 57010 723//
     91810 22200 00146 1//01 70006 333 91117 555 0/415=







NNNN
ZCZC 703
SMNO92 DNMI 091800 RRA
AAXX 09181
01262 32989 31106 10154 20105 80008 333 10185 91112 555 03211 20147=
01433 46/// /1111 10077 20051 38876 40100 55004 333 10083 91120 555
      0/414 20066=







NNNN
ZCZC 704
SMNO93 DNMI 091800 RRA
AAXX 09181
01015 31260 80000 10100 20089 71242 886// 333 10128 91104 555 03404
      20100 4/3//=
01033 32475 81603 10099 20085 30193 40222 52008 886// 333 10122
      91109 555 02408 20097=
01092 11586 70701 10112 20097 60022 70282 85950 333 10145 91109 555
      02306 20110 465//=
01304 46/// /1109 10168 20072 30068 40098 55000 333 10183 91114 555
      0/411 20120=
01452 11582 70908 10169 20113 30061 40081 56007 60052 70286 8487/
      333 10170 91113 555 0/308 20139 4/5//=







NNNN
ZCZC 705
SMNO97 DNMI 091800
AAXX 09181
01106 46/// /0906 10131 20099 30190 40195 52001 333 10149 91109 555
      0/408 20122=
01113 36/// /0000 10142 20095 333 10204 91105 555 0/402 20134=
01156 36/// /0804 10124 20096 30194 40203 52002 333 10147 91106 555
      0/105 20103=
01180 36/// /1801 10103 20091 30162 40216 52006 333 10149 91103 555
      0/402 20103=
01203 46/// /0803 10173 20059 30060 40108 53003 333 10190 91109 555
      0/208 20116=
01225 46/// /1305 10177 20075 30124 40130 51003 333 10203 91110 555
      0/407 20147=
01228 46/// /0903 10173 20087 30137 40144 52004 333 10212 91108 555
      0/406 20139=
01257 NIL=
01259 36/// /1305 10184 20063 30139 40161 53009 333 10198 91116 555
      0/412 20159=
01265 36/// /1902 10118 20081 39607 40174 57001 333 10161 91108 555
      0/405 20105=
01277 16/// /0702 10153 20078 69922 333 10214 91110 555 0/205 20128
      42///=
01306 46/// /0707 10161 20129 30056 40082 58003 333 10172 91108 555
      0/207 20116=
01321 36/// /1303 10164 20055 39872 40115 56004 333 10188 91112 555
      0/407 20102=
01350 16/// /1113 10071 2//// 38758 40122 56006 60022 333 10071
      91119 555 0/113 20059 49///=
01366 46/// /1006 10067 20028 333 10069 91115 555 0/311 20049=
01375 46/// /1407 10087 20067 333 10096 91114 555 0/109 20060=
01378 46/// /1402 10125 20103 39874 40158 55000 333 10160 91103 555
      0/002 20083=
01383 46/// /0000 10126 20117 39869 55001 333 10176 91106 555 0/404
      20083=
01397 46/// /0000 10105 20073 39754 40182 53002 333 10176 91108 555
      0/305 20078=
01412 46/// /1407 10140 20071 30021 40051 55003 333 10159 91115 555
      0/311 20122=
01434 16/// /0000 10089 20069 39162 40107 55003 60032 333 10108
      91100 555 0/000 20087 43///=
01441 46/// /1505 10097 20070 39136 40093 58005 333 10124 91113 555
      0/207 20092=
01470 46/// /0000 10169 20112 30012 40122 56003 333 10188 91100 555
      0/000 20129=
01476 36/// /0809 10178 20126 30108 40114 56004 333 10186 91114 555
      0/409 20151=
01481 36/// /0802 10174 20114 333 10195 91109 555 0/405 20133=
01490 36/// /0906 10130 20098 333 10141 91112 555 0/107 20092=
01495 36/// /1009 10177 20119 30121 40133 55001 333 10187 91114 555
      0/312 20141=







NNNN
ZCZC 706
SMNO94 DNMI 091800 RRA
AAXX 09181
01417 11689 81507 10170 20082 39988 40064 69942 70282 883// 333
      10180 555 20119 445//=







NNNN
ZCZC 707
SMNO96 DNMI 091800 RRA
AAXX 09181
01423 32475 80907 10162 20139 885// 333 10167 555 20120=







NNNN
ZCZC 708
SMNO91 DNMI 091800 RRB
AAXX 09181
01300 41697 80709 10147 22189 40083 57011 76166 8802/ 91810 22200
      02141 10602 70009 333 91111 555 0/110=







NNNN
ZCZC 709
SMNO91 DNMI 091800 CCA
AAXX 09181
01098 31485 61301 10107 20093 30195 40213 53004 70222 84441 333
      10156 555 01203 20105=







NNNN
ZCZC 710
SMNO97 DNMI 091800 RRA
AAXX 09181
01257 36/// /1602 10173 20068 30008 40163 52004 333 10199 91112 555
      0/408 20149=







NNNN
ZCZC 711
SMNO98 DNMI 091800
NIL=







NNNN
ZCZC 712
SMNO96 DNMI 091800 RRB
AAXX 09181
01493 36/70 50910 10173 20095 333 10190 555 0/0// 20130=







NNNN
ZCZC 713
SMNO94 DNMI 091800 RRB
AAXX 09181
01278 31785 31405 10186 20091 30073 40171 52004 70111 81441 333
      10210 555 0/210 20142=







NNNN
ZCZC 714
SMNO94 DNMI 091800 RRC
AAXX 09181
01295 32989 31505 10178 20092 30155 40184 54000 80003 333 10205 555
      0/407 20150=







NNNN
ZCZC 715
SMNO98 DNMI 091800 RRA
AAXX 09181
01006 46/// /0000 10015 20000 30153 52017 555 0//03=







NNNN
ZCZC 716
SMNO91 DNMI 091800 CCB
AAXX 09181
01008 11384 72404 10034 20016 30148 40182 52010 60012 71582 878//
      333 10046 83707 86818 91110 555 0/409 20034 445//=







NNNN
