ZCZC 775
SMNO91 DNMI 100600
AAXX 10061
01001 11384 73302 10084 20071 30197 40208 56002 60012 70161 8457/
      333 20061 91105 555 02303 10086 435//=
01003 11115 82404 10047 20040 40209 53004 60092 71062 886// 333
      20038 555 0/906 10059 445//=
01007 NIL=
01008 11478 82305 10038 20025 30145 40178 57003 69932 76062 8352/
      333 20023 81710 83625 87550 91107 555 0/206 10040 435//=
01010 31/08 91603 10098 20089 30205 40221 54000 74344 333 20093
      89/03 91108 555 0/407 10103=
01026 46/// /1801 10081 20075 30091 40232 52003 333 20073 91104 555
      0/402 10099=
01028 31782 72205 10072 20056 30228 40247 56005 70222 87700 333
      20062 91108 555 02407 10073=
01047 NIL=
01049 31475 81202 10096 20076 30240 40243 52007 70222 886// 333
      20085 91103 91103 555 0/503 10117=
01055 41350 80613 10080 20069 30233 40250 52011 70242 889// 333
      20080 91114 555 03013 10101=
01062 31256 72506 10049 20042 30198 40212 52005 71020 85650 333
      20035 91110 555 02408 10049=
01078 NIL=
01098 11135 83402 1//// 2//// 30225 40243 53/// 60012 78084 886//
      333 91103 555 01102 1//// 4253/=
01102 31585 31312 10149 20103 30160 40179 52004 70110 83038 333
      20146 91116 555 04414 10165=
01115 NIL=
01152 31989 31205 10126 20078 30192 40208 52002 70300 81042 333
      20113 81362 83070 91109 555 0/306 10151=
01160 NIL=
01205 11489 60707 10166 20107 30053 40101 54000 69942 71562 8397/
      333 20186 91108 555 03007 10149 445//=
01212 NIL=
01218 32885 61405 10180 20106 30113 40133 51010 82281 333 20140 555
      0/307 10191=
01238 NIL=
01241 31988 31209 10161 20098 30133 40144 58003 70300 81042 333
      20151 81359 83075 91114 555 0/111 10190=
01271 31988 10705 10150 20091 30151 40175 52001 70200 81042 333
      20113 81361 91113 555 0/408 10183=
01300 NIL=
01317 NIL=
01338 NIL=
01367 NIL=
01384 31389 53602 10102 20086 39930 40177 53004 70222 82671 333
      20078 82710 85070 91104 555 0/403 10154=
01389 31910 31701 10056 20056 71041 80004 333 20050 555 0/001 10141
      4/30/=
01400 NIL=
01403 11580 42203 10134 20102 30051 40118 53020 60112 70182 83960
      333 20128 91112 555 03409 10162 4/5//=
01415 11482 61304 10123 20112 30111 40121 52016 60142 70222 85838
      333 20118 81812 85650 91107 555 0/405 10172 47///=
01448 NIL=
01482 NIL=
01492 31486 50505 10130 20085 30049 40164 53005 70222 83571 333
      20118 91109 555 0/106 10173 30100=







NNNN
ZCZC 776
SMNO92 DNMI 100600
AAXX 10061
01023 31/08 90901 10075 20068 30132 40229 52003 74542 333 20073
      91102 555 0/101 10132 4/0//=
01025 31080 71002 10083 20075 30221 40232 52003 74041 85631 333
      20068 81700 84704 91105 555 0/404 10100=
01089 NIL=
01262 32889 21313 10150 20095 81041 333 20143 91115 555 02114 10174=
01288 31888 01302 10098 20058 39457 40191 53005 70110 333 20081
      91111 555 0/408 10115=
01311 41145 82005 10127 20114 30059 40120 52032 75862 877// 333
      20127 81703 86709 91108 555 0/206 10179=
01355 11780 71603 10177 20069 30090 40133 52009 69902 70282 85860
      333 20173 555 0/410 10192 405//=
01364 11460 80000 10090 20081 60012 70282 8807/ 333 20085 555 10100
      42///=
01427 11480 60903 10106 20098 30123 40106 52009 60252 70262 83832
      333 20102 91108 555 03407 10149 4/5//=
01433 NIL=
01450 11270 80907 10080 20065 60072 70262 886// 333 20080 555 0//10
      10098 45///=
01465 11460 80601 10145 20120 30109 40127 53006 60032 76162 8477/
      333 20142 91109 555 03408 10173 40///=







NNNN
ZCZC 777
SMNO93 DNMI 100600
AAXX 10061
01015 NIL=
01033 NIL=
01059 31180 70000 10092 20083 40243 5//// 70222 8253/ 333 20056
      91101 91101 555 0/601 10117=
01092 NIL=
01121 32889 31207 10153 20105 81041 333 20138 555 0/807 10156=
01167 31/00 93303 10087 20086 30210 40214 58002 74544 333 20087
      91107 555 0/405 10120=
01210 31786 51305 10153 20087 30090 40116 53004 70222 82538 333
      20150 91106 91106 555 0/005 10168=
01231 NIL=
01240 NIL=
01304 NIL=
01360 12688 73405 10104 20046 39381 40154 53007 69902 83448 333
      20084 555 0/005 10123 40///=
01406 46/// /2004 10138 20106 30101 40119 53026 333 20134 91110 555
      0/408 10175=
01425 NIL=
01442 11488 71503 10119 20105 39868 40120 51007 60212 70182 87803
      333 20119 555 0//07 10144 445//=
01452 NIL=
01455 11350 81402 10132 20124 39820 40121 51004 60442 75066 886//
      333 20127 91110 555 0/405 10145 41///=
01467 11320 81111 10148 20132 30121 40126 53004 60192 76462 886//
      333 20147 91116 555 04413 10172 405//=
01473 11575 80402 10127 20099 39952 40155 52006 69932 70382 8472/
      333 20127 91106 555 0/203 10154 435//=
01474 31570 80303 10122 20103 39811 40159 53004 71022 887// 333
      20116 555 10140=
01494 31480 40604 10125 20104 30094 40125 52005 70121 83541 333
      20121 83614 91109 555 0/406 10173=







NNNN
ZCZC 778
SMNO94 DNMI 100600
AAXX 10061
01034 NIL=
01036 31460 80000 10072 20071 71020 886// 333 20053 555 0/000 10108=
01075 31470 80000 10102 20100 30224 40238 52010 71022 886// 333
      20064 555 0/000 10115=
01108 32689 41407 10154 20098 30178 40189 56003 81141 333 20127 555
      0/409 10166=
01134 32686 31803 10140 20090 39759 40210 54000 82244 333 20103 555
      0/705 10152=
01199 31104 90000 10052 20049 74444 333 20030 555 0/301 10110=
01227 32780 61615 10174 21186 30048 40129 58003 81111 333 20173 555
      0/015 10191=
01245 31680 43603 10115 20033 39457 40161 52002 70110 82101 333
      20110 555 0/605 10146=
01252 31570 31801 10110 20045 70541 81202 333 20095 555 0/603 10138=
01274 31887 11607 10126 20081 70200 81083 333 20126 555 0/807 10167=
01278 31985 11207 10138 20110 30080 40180 52002 70200 81042 333
      20131 555 0/210 10186=
01280 32887 11501 10120 2//// 30046 40186 54000 81040 333 20093 555
      0/001 10180=
01292 32589 10701 10098 20081 39906 40195 54000 81131 333 20091 555
      0/001 10143=
01295 32689 30601 10138 20097 30164 40193 54000 81509 333 20138 555
      0/001 10178=
01322 11889 63607 10186 21041 30032 40107 52010 69902 70281 84231
      333 20168 555 0/210 10195 405//=
01325 12682 81803 10166 20109 69922 889// 333 20163 555 0/205 10174
      42///=
01341 32780 70809 10163 20070 39921 40116 52010 86964 333 20143
      91117 555 0/610 10168=
01372 11589 80401 10118 20110 39966 40166 52002 69912 70252 8672/
      333 20118 555 0/001 10130 4153/=
01374 11370 70903 10096 20087 69902 70182 876// 333 20094 555 0//03
      10127 405//=
01380 NIL=
01393 16/// /0903 10083 20068 39409 40200 52002 69914 333 20074
      91106 555 0/403 10123 41///=
01417 11475 81705 10127 2//// 30042 40120 60112 70282 886// 333
      20125 555 10132 425//=
01424 11450 83603 10137 20105 30121 40124 52031 69922 70262 885//
      333 20137 555 10191 425//=
01432 11370 70901 10098 20074 60132 72588 879// 333 20098 555 0/607
      10124 415//=
01436 11370 50803 10122 20106 60062 70262 81278 333 20121 555 03615
      10166 47///=
01446 11440 80807 10092 20088 39308 40138 51008 60212 76366 8672/
      333 20092 555 0/610 10110 30078 425//=
01496 32460 33601 10104 20098 39979 40165 54000 83500 333 20104 555
      10161=
01498 32489 53401 10110 20096 39984 40168 54000 83540 333 20078 555
      0/801 10154=







NNNN
ZCZC 779
SMVF99 ENVV 100600
BBXX
3FYT  10061 99608 10036 41498 81803 10132 20118 40102 52024 
70322 8572/ 22200 06140 10402 70011=
LAJP  10064 99599 10021 41598 52/// 10134 20091 40109 52025 
70122 83221 22200 333   91116 555   0/415=








NNNN
ZCZC 780
SMNO96 DNMI 100600
AAXX 10061
01014 31/01 90201 10090 20086 74542 333 20090 555 0/101 10112=
01041 NIL=
01045 32365 81601 10096 20091 886// 333 20082 555 0/801 10116=
01051 31/05 93501 10066 20062 74341 333 20026 555 0/001 10088 403//=
01057 11302 80000 10051 20048 69912 74442 886// 333 20012 555 0/000
      10112 31018 410//=
01065 11/02 90000 10065 20064 30078 40242 52009 69912 74584 333
      20046 555 0//00 10115 20018 405//=
01066 11/50 90307 10085 20059 60012 74084 333 20085 555 03407 10112
      4153/=
01147 31489 21307 10118 20088 70211 81142 333 20082 555 0/610 10148=
01169 31989 10901 10104 20072 70200 80001 333 20044 555 0/405 10175=
01172 31989 10000 10084 2//// 70200 80001 333 20077 555 0/001 10150=
01215 33/80 11601 10127 20118 333 20122 555 0/403 10158=
01232 31784 20903 10098 20082 70200 81149 333 20078 555 0/003 10181=
01236 13588 71105 10110 20071 69912 333 20106 555 0/607 10126 41///=
01298 32689 31901 10093 20085 81041 333 20081 555 0/703 10152=
01319 12586 71107 10186 20055 69912 8696/ 333 20137 555 0/110 10189
      415//=
01328 11689 81603 10140 20061 69932 70282 888// 333 20110 555 0/410
      10150 435//=
01344 32775 70910 10123 20050 86440 333 20121 555 0/212 10130=
01370 31960 02001 10076 20073 70200 333 20075 555 0//01 10100=
01409 NIL=
01423 11480 72801 10125 2//// 60082 70282 872// 333 20125 555 10172
      405//=
01430 11465 62903 10110 20105 60042 70382 86251 333 20100 555 0/615
      10149 4750/=
01439 11480 61801 10090 20086 60192 70182 85961 333 20089 555 10136
      40///=
01459 11220 82701 10131 20122 60182 76362 8362/ 333 20131 555 10142
      47///=
01486 33/88 80601 10118 20097 333 20118 555 0//03 10158=
01493 36/57 40710 10132 20109 333 20125 555 0/0// 10173=
01497 32675 30905 10124 20108 83300 333 20115 555 0/005 10160=







NNNN
ZCZC 781
SMVF99 ENVV 100600 CCA
BBXX
LAJP  10064 99599 10021 41598 52110 10134 20091 40109 52025 
70122 83221 22200 333   91116 555   0/415=








NNNN
ZCZC 782
SMVF99 ENEK 100600
BBXX
LF5U  10064 99565 10032 41498 51806 10146 20095 40105 52005 71322
85940 22200 06159 10502 70011 333 91111 555 0/210=







NNNN
ZCZC 783
SMVF99 ENMI 100600
BBXX
LF3N 10064 99653 10073 43/// /1418 10153 20117 40144 52002 22200
     10603 70014 333 91122 555 0/420=







NNNN
ZCZC 784
SMVF99 ENMI 100600
BBXX
LF5T 10064 99660 10081 41998 11520 10150 20111 40156 52002 70200
     80040 22200 00137 10404 70017=







NNNN
ZCZC 785
SMVF99 ENMI 100600
BBXX
LF4C 10064 99584 10019 41498 41303 10140 20099 40111 52011 715//
     82961 90610 22200 00153 10601 70007 333 91114 555 0/309=







NNNN
ZCZC 786
SMVF99 ENMI 100600
BBXX
LF4B 10064 99606 10037 46/// /2008 10134 20119 40109 52030 90610
     22200 00147 1//02 70008 333 91120 555 0/417=







NNNN
ZCZC 787
SMNO91 DNMI 100600 RRA
AAXX 10061
01007 11025 81302 10033 20018 30150 40160 55007 69962 76164 886//
      333 20008 91106 555 0/405 10035 40///=
01047 11/01 90000 10048 20030 39862 40240 53006 69922 74564 333
      20040 555 0/605 10107 42///=
01078 11330 80606 10083 20077 30240 40253 53017 60022 74084 8662/
      333 20082 91109 555 03107 10107 4553/=
01115 32889 31205 10142 20095 30175 40195 55002 83070 333 20131
      91110 555 03209 10147=
01160 32889 30905 10126 20092 30194 40211 53004 81046 333 20122
      91110 555 02208 10139=
01212 46/// /1206 10154 20112 30103 40120 53006 333 20147 91109 555
      0/407 10176=
01238 11570 61502 10078 20034 39058 40176 53005 69992 70182 82940
      333 20073 91115 555 0/410 10100 495//=
01317 11156 81402 10140 20126 30075 40117 52032 69972 76162 887//
      333 20140 81702 87707 91114 555 0/409 10187 47///=
01338 36/// /0406 10176 20068 30064 40123 53010 333 20162 91114 555
      0/006 10185=
01367 11580 80000 10106 20091 39741 40175 53004 69992 70282 887//
      333 20102 91106 555 0/403 10136 495//=
01400 41498 51803 10146 20095 40105 52005 71322 85940 22200 06159
      10502 70011 333 91106 555 0/205=
01448 12480 73402 10127 20113 30115 40125 50005 69922 8487/ 333
      20120 91108 555 03407 10170 425//=
01482 32582 41111 10144 20112 30135 40144 53004 82452 333 20143
      91114 555 04211 10176=







NNNN
ZCZC 788
SMNO91 DNMI 100600 CCA
AAXX 10061
01001 11384 73302 10084 20071 30197 40208 56002 60012 72161 8457/
      333 20061 91105 555 02303 10086 435//=







NNNN
ZCZC 789
SMVF99 ENMI 100600
BBXX
LF3J 10064 99612 10023 41598 71814 10132 22192 40089 52018 70262
     82270 90610 22200 02142 10604 70019 333 91122 555 0/221=







NNNN
ZCZC 790
SMNO92 DNMI 100600 RRA
AAXX 10061
01433 46/// /1110 10071 20044 38895 52009 333 20068 91120 555 0/414
      10086=







NNNN
ZCZC 791
SMNO93 DNMI 100600 RRA
AAXX 10061
01015 31145 61610 10091 20084 71142 86600 333 20082 91112 555 03010
      10101 4/3//=
01033 31001 82801 10085 20075 30204 40234 51001 74542 886// 333
      20083 91104 555 02503 10100=
01092 11220 83102 10102 20094 60022 75354 886// 333 20101 91104 555
      02402 10113 4553/=
01231 12589 70705 10113 20058 69902 8684/ 333 20107 555 0/005 10126
      40///=
01304 46/// /2205 10154 20102 30076 40106 53019 333 20152 91115 555
      0/412 10185=
01425 11082 73501 10116 20111 30048 40127 52011 60262 70286 875//
      333 20109 91105 555 0/404 10154 445//=
01452 11/04 90502 10107 20099 30104 40125 50006 69952 74284 333
      20101 91105 555 0/404 10171 4/5//=







NNNN
ZCZC 792
SMNO97 DNMI 100600
AAXX 10061
01106 46/// /1005 10134 20113 30199 40204 53002 333 20114 91109 555
      0/407 10143=
01113 16/// /0000 10120 20077 60022 333 20110 91103 555 0/401 10142
      42///=
01156 36/// /3301 10095 20083 30200 40210 53001 333 20085 91105 555
      0/403 10124=
01180 16/// /1501 10093 20087 30167 40221 52001 60022 333 20076
      91102 555 0/401 10103 49///=
01203 46/// /1007 10186 20050 30059 40107 53008 333 20153 91110 555
      0/108 10187=
01225 46/// /0905 10155 20098 30123 40129 53002 333 20148 91110 555
      0/408 10177=
01228 46/// /1107 10153 20111 30136 40143 55000 333 20138 91112 555
      0/309 10174=
01257 NIL=
01259 36/// /1209 10155 20085 30146 40168 53007 333 20154 91117 555
      0/214 10185=
01265 16/// /2002 10091 20079 39619 40192 53005 69962 333 20062
      91104 555 0/402 10118 46///=
01277 16/// /0904 10136 20087 69922 333 20102 91110 555 0/405 10160
      42///=
01306 46/// /1909 10138 20121 30084 40110 53024 333 20138 91112 555
      0/411 10176=
01321 36/// /1402 10152 20048 39879 40123 53007 333 20143 91108 555
      0/205 10175=
01350 16/// /1107 10069 2//// 38773 40140 53008 69942 333 20066
      91120 555 0/414 10076 44///=
01366 46/// /1502 10050 20025 333 20047 91113 555 0/309 10069=
01375 46/// /1305 10064 20058 333 20064 91112 555 0/409 10092=
01378 46/// /1401 10105 20105 39888 40175 52005 333 20079 91103 555
      0/402 10125=
01383 46/// /0000 10098 20090 39885 53004 333 20087 91102 555 0/101
      10126=
01397 46/// /0101 10076 20067 39767 40200 52001 333 20039 91103 555
      0/402 10114=
01412 46/// /1304 10126 20048 30089 40120 53015 333 20123 91110 555
      0/510 10142=
01434 16/// /0000 10082 20063 39179 40128 50006 60142 333 20081
      91100 555 0/000 10096 44///=
01441 46/// /0404 10090 20064 39153 40115 51007 333 20086 91113 555
      0/407 10102=
01470 46/// /0000 10137 20116 30033 40144 53008 333 20129 91100 555
      0/000 10173=
01476 16/// /0907 10151 20120 30129 40135 53006 60022 333 20150
      91111 555 0/107 10178 43///=
01481 36/// /0603 10138 20110 333 20132 91107 555 0/103 10174=
01490 36/// /0705 10086 20077 333 20085 91109 555 0/406 10130=
01495 36/// /0907 10142 20112 30138 40150 53005 333 20132 91111 555
      0/409 10177=







NNNN
ZCZC 793
SMNO94 DNMI 100600 RRA
AAXX 10061
01380 11480 60801 10070 20066 69922 70282 81662 333 20070 91109 555
      0/604 10100 425//=







NNNN
ZCZC 794
SMNO96 DNMI 100600 CCA
AAXX 10061
01065 11/02 90000 10065 20064 30078 40242 52009 69912 74584 333
      20046 555 0//00 10115 30018 405//=







NNNN
ZCZC 795
SMNO91 DNMI 100600 RRB
AAXX 10061
01098 11135 80101 10102 20098 30222 40240 52009 60012 78084 886//
      333 20094 555 0//03 10112 4053/=
01300 41598 71807 10132 22192 40089 52018 70262 82270 90610 22200
      02142 10604 70019 333 91111 555 0/211=







NNNN
ZCZC 796
SMNO91 DNMI 100600 CCB
AAXX 10061
01026 31/02 91801 10081 20075 30091 40232 52003 74742 333 20073
      91104 555 0/402 10099 400//=







NNNN
ZCZC 797
SIVF99 ENVV 100300 CCA
BBXX
LF3J 10034 99612 10023 41597 81418 10142 40071 52004 76166 8////  22200 
02143 10602 70010=








NNNN
ZCZC 798
SMNO96 DNMI 100600 RRA
AAXX 10061
01041 32360 80000 10086 20083 886// 333 20070 555 0/600 10122=







NNNN
ZCZC 799
SMVF99 ENVV 100000 CCA
BBXX
LF3J 10004 99612 10023 41598 81018 10148 40067 57008 76166 8//// 22200 
02143 10602 70010 333   91129 555   0/324=








NNNN
ZCZC 800
SIVF99 ENVV 092100 CCA
BBXX
LF3J 09214 99612 10023 41698 80922 10158 40075 57009 76166 8//// 22200 02143 
10602 70010=









NNNN
ZCZC 801
SMVF99 ENVV 091800 CCA
BBXX
LF3J 09184 99612 10023 41697 80718 10147 40083 57011 76166 8802/ 22200 02141 
10602 70009 333   91121 555   0/119=








NNNN
ZCZC 802
SIVF99 ENVV 091500 CCA
BBXX
LF3J 09154 99612 10023 41497 80613 10130 40094 57014 76166 8772/ 22200 
02143 10702 70011=








NNNN
ZCZC 803
SMVF99 ENVV 091200 CCA
BBXX
LF3J 09124 99612 10023 41498 81009 10120 40108 52003 76062 8772/ 22200 
02143 10703 70014 333   91111 555   0/411=








NNNN
ZCZC 804
SIVF99 ENVV 090900 CCA
BBXX
LF3J 09094 99612 10023 41598 71406 10128 40105 52002 70222 8127/ 22200 
02143 10603 70014=








NNNN
ZCZC 805
SMVF99 ENVV 090600 CCA
BBXX
LF3J 09064 99612 10023 41598 71309 10127 40103 52001 70221 82278 22200 
02143 10602 70012 333   91110 555   0/410=








NNNN
ZCZC 806
SMNO97 DNMI 100600 RRA
AAXX 10061
01257 36/// /0902 10151 20084 30015 40172 52004 333 20133 91107 555
      0/403 10173=







NNNN
ZCZC 807
SMNO98 DNMI 100600
NIL=







NNNN
ZCZC 808
SMNO94 DNMI 100600 CCA
AAXX 10061
01393 11/01 90903 10083 20068 39409 40200 52002 69914 74921 333
      20074 91106 555 0/403 10123 41///=







NNNN
ZCZC 809
SMVF99 ENVV 100600 CCA
BBXX
LF3J 10064 99612 10023 41598 71814 10132 40089 52018 70262 82270 22200 
02142 10604 70019 333   91122 555   0/221=








NNNN
ZCZC 810
SMNO91 DNMI 100600 CCC
AAXX 10061
01300 41598 71807 10132 40089 52018 70262 82270 22200 02142 10604
      70019 333 91111 555 0/211=







NNNN
ZCZC 811
SMNO92 DNMI 100600 RRB
AAXX 10061
01089 31/05 93201 10093 20090 30126 40238 52009 74544 333 20084
      91104 555 0/403 10104=







NNNN
ZCZC 812
SIVF99 ENEK 100900
BBXX
LF5U  10094 99565 10032 41498 42803 10144 20087 40110 52005 70122
84250 22200 06158 10402 70009=







NNNN
