ZCZC 834
SMVF99 ENVV 101200
BBXX
3FYT  10121 99608 10036 41499 71902 10152 20115 40147 52014 
70222 8345/ 22200 06140 10502 70009=








NNNN
ZCZC 835
SMNO91 DNMI 101200
AAXX 10121
01001 32486 31302 10095 20071 30193 40205 56006 81831 222// 00056
      333 91104 555 02102=
01003 NIL=
01007 NIL=
01008 41458 82402 10065 20053 30134 40168 57009 75286 875// 333
      81712 84620 86630 91107 555 0/405 4/5//=
01010 41160 31705 10108 20093 30199 40215 57006 71142 83600 333
      83701 91108 555 0/406=
01026 42180 82601 10101 20085 30081 40221 57008 886// 333 91104 555
      0/302=
01028 NIL=
01047 41480 83601 10106 20085 39859 40228 58002 71042 886//=
01049 41480 71903 10123 20079 30233 40236 57009 70222 876// 333
      91106 555 0/003=
01055 31365 60911 10088 20069 30227 40245 57007 70122 86900 333
      91114 555 03413=
01062 NIL=
01078 NIL=
01098 46/// /0304 1//// 2//// 30241 40259 52/// 333 91106 555 0/104=
01102 41585 31211 10176 20116 30151 40169 58012 70100 81038 222//
      00145 333 91116 555 04415=
01115 NIL=
01152 31989 51004 10187 20085 30189 40204 57005 70211 80002 333
      85070 91109 555 0/407=
01160 NIL=
01205 31485 42407 10153 20138 30093 40141 52019 70222 82170 333
      91114 555 03311=
01212 NIL=
01218 42886 51403 10209 20089 30125 40146 51000 85200 555 0/405=
01238 NIL=
01241 31688 61409 10194 20071 30143 40154 57002 70222 81172 333
      81835 84362 91119 555 0/413=
01271 31788 51405 10212 20066 30148 40171 57007 70320 81142 333
      81850 83068 91110 555 0/307=
01300 NIL=
01317 NIL=
01338 NIL=
01367 NIL=
01384 31688 50904 10160 20076 39924 40166 56006 70322 83808 333
      82835 85270 91108 555 0/105=
01389 41689 52001 10171 20098 70311 82263 555 0/103 4/0//=
01400 41598 20201 10149 20093 40119 52009 70100 82200 22200 06158
      10502 70010 333 91105 555 0/204=
01403 31584 81303 10148 20110 30070 40137 52005 70222 8482/ 333
      91105 555 03304=
01415 41485 83602 10149 20101 30124 40134 50003 70222 8227/ 333
      82212 88357 91104 555 0/404=
01448 NIL=
01482 NIL=
01492 11486 50706 10164 20069 30046 40159 56009 60141 70122 84201
      333 91111 555 0/107 47///=







NNNN
ZCZC 836
SMNO92 DNMI 101200
AAXX 10121
01023 41989 10000 10128 20099 30119 40215 58012 70140 80008 333
      81070 91104 555 0/102=
01025 31180 82102 10095 20080 30216 40227 57008 70222 886// 333
      81702 87705 91103 555 0/203=
01089 41280 80504 10108 20089 30136 40247 52003 70242 886// 333
      91105 555 0/004 4/3//=
01262 32589 21410 10174 20103 81201 222// 00142 333 91116 555 02314=
01288 41687 21405 10148 20064 39453 40174 57004 70321 82281 333
      91109 555 0/206=
01311 41280 83001 10135 20114 30081 40142 50004 76162 8657/ 333
      81704 85650 91105 555 0/405=
01355 42780 42105 10189 20064 30105 40148 51007 81831 555 0/005=
01364 41780 41205 10112 20044 70182 82200=
01427 31480 80802 10146 20110 30131 40114 52001 70222 8282/ 333
      91104 555 02303=
01433 NIL=
01450 NIL=
01465 41460 80809 10144 20117 30115 40133 55001 71562 8587/ 222//
      00165 333 91112 555 04110=







NNNN
ZCZC 837
SMVF99 ENMI 101200
BBXX
LF5T 10124 99660 10081 41998 11419 10152 20106 40158 57003 70200
     80008 22200 00138 10504 70017=







NNNN
ZCZC 838
SMNO93 DNMI 101200
AAXX 10121
01015 NIL=
01033 NIL=
01059 41180 73504 10099 20079 40248 54000 70222 875// 333 91106=
01092 NIL=
01121 NIL=
01167 42785 13605 10108 20102 30212 40216 57003 81108 333 91105 555
      0/005=
01210 41986 42706 10166 20129 30125 40151 52019 70122 83038 333
      91109 555 0/406=
01231 42689 41103 10161 20048 82241 555 0/305=
01240 NIL=
01304 NIL=
01360 42689 30407 10149 20040 39389 40150 52005 81131 555 0/007=
01406 46/// /0603 10144 20110 30122 40140 52003 333 91105 555 0/404=
01425 NIL=
01442 41450 81505 10125 20106 39877 40128 56002 78182 889// 555
      0//05=
01452 NIL=
01455 41458 80102 10133 20101 39840 40141 52008 71062 8362/ 333
      91110 555 0/204=
01467 41465 70610 10155 20105 30132 40137 53003 70162 85703 222//
      00169 333 91115 555 04412=
01473 46/// /0603 10149 20075 39954 40155 57007 333 91109 555 0/104=
01474 NIL=
01494 41584 50606 10170 20082 30090 40153 56006 70321 83542 333
      83625 85070 91111 555 0/108=







NNNN
ZCZC 839
SMNO94 DNMI 101200
AAXX 10121
01034 NIL=
01036 41460 80000 10113 20096 71020 886// 555 0/000=
01075 NIL=
01108 42689 51306 10203 20093 30169 40180 58009 81101 555 0/409=
01134 42686 31803 10180 20094 39749 40193 54000 82102 555 0/803=
01199 41585 60000 10118 20109 70144 84670 555 0/301=
01227 42780 31603 10213 21158 30066 40146 51005 81241 555 0/315=
01245 41680 33203 10162 20046 39461 40154 57002 70100 81141 555
      0/003=
01252 41580 31805 10168 20005 70541 81142 555 0/005=
01274 41588 51210 10190 20071 70310 83243 555 0/810=
01278 41785 41505 10209 20129 30078 40175 57008 70211 82242 555
      0/107=
01280 42687 41507 10196 20131 30040 40176 57005 82201 555 0/007=
01292 NIL=
01295 NIL=
01322 42887 80901 10184 20046 30063 40139 52010 885// 555 0/307=
01325 42684 81803 10164 20135 889// 555 0/203=
01341 41785 60703 10166 20073 39940 40135 50009 70282 85944 333
      91119 555 0/412=
01372 41689 42601 10174 20046 39956 40152 57006 70210 81101 555
      0/001=
01374 42589 20903 10142 20045 81204 555 0//03=
01380 42782 41403 10118 20050 83241 333 91108 555 0/204=
01393 41575 71204 10144 20077 39404 40177 58004 70242 87240 333
      91107 555 0/204=
01417 41680 81401 10138 20129 30056 40133 78082 883//=
01424 41340 80000 10128 20110 30136 40139 52003 70262 886//=
01432 NIL=
01436 41375 80801 10147 20112 76062 8272/ 222// 00165 555 02403=
01446 NIL=
01496 42473 30903 10158 20092 39973 40155 58004 83201=
01498 NIL=







NNNN
ZCZC 840
SMVF99 ENVV 101200
BBXX
LAJP  10124 99599 10021 41598 31904 10159 20096 40145 52016 
70221 82203 22200 333   91111 555   0/410=








NNNN
ZCZC 841
SMNO96 DNMI 101200
AAXX 10121
01014 41982 12001 10122 20108 71242 80006 555 0/801=
01041 42460 70000 10105 20089 87600 555 0/800=
01045 42686 12701 10130 20100 81101 555 0/801=
01051 41580 81401 10110 20075 70242 8372/ 555 0/001 4/3//=
01057 41309 61202 10120 20088 70242 8465/ 555 0/002 4/0//=
01065 NIL=
01066 NIL=
01147 41688 61507 10178 20093 70211 84101 555 0/807=
01169 41989 11205 10225 20015 70200 80001 555 0/107=
01172 41975 21401 10188 20137 70200 80001 555 0/001=
01215 43/70 31603 10200 20148 555 0/003=
01232 31785 42503 10212 20051 70211 81141 555 0/003=
01236 43688 11305 10154 20042 555 0/207=
01298 42689 11803 10177 20029 81041 555 0/003=
01319 NIL=
01328 41688 82401 10119 20110 70282 885// 555 0/203=
01344 42470 81707 10135 20044 85436 555 0/310=
01370 41980 01601 10128 20053 70200 555 0//01=
01409 43/65 /1203 10150 20121 30118 40125 52010 555 0/103=
01423 NIL=
01430 41465 82901 10133 20115 76382 888// 555 0/003=
01439 41460 80303 10121 20113 78082 889//=
01459 41570 80901 10131 20110 76162 8672/=
01486 43/88 41605 10155 20073 555 0//05=
01493 46/80 20712 10167 20071 555 0/0//=
01497 42580 41010 10158 20083 82202 555 0/310=







NNNN
ZCZC 842
SMNO91 DNMI 101200 RRA
AAXX 10121
01003 11465 82504 10054 20046 40207 58004 60061 70265 875// 555
      0/806 455//=
01007 11450 82604 10069 20031 30138 40148 55011 60011 76364 8872/
      333 91109 555 0/205 43///=
01028 31684 72305 10080 20045 30226 40246 53004 70222 87800 222//
      00033 333 91108 555 01207=
01062 11483 72309 10070 20049 30189 40202 57005 69901 70262 81650
      00034 333 91114 555 03109 40///=
01078 11220 80906 10078 20070 30248 40261 58002 69912 75054 8662/
      222// 00092 333 91108 555 03407 4153/=
01115 42989 11504 10170 20092 30175 40195 58002 80001 222// 00124
      333 91111 555 02410=
01160 32786 20906 10151 20081 30189 40206 58004 81032 222// 00122
      333 91109 555 02408=
01212 46/// /1803 10188 20111 30130 40147 53012 333 91109 555 0/408=
01238 32683 31805 10126 20021 39064 40162 57002 81248 333 91109 555
      0/105=
01317 41282 73103 10146 20123 30099 40142 51003 72162 8557/ 333
      81706 85635 91108 555 0/406=
01338 36/// /1202 10189 20074 30087 40145 51008 333 91114 555 0/407=
01367 41985 21403 10166 20040 39734 40160 58010 70182 82100 333
      91106 555 0/403=
01448 11380 80104 10132 20114 30123 40133 53001 60031 76162 8372/
      333 91105 555 03004 46///=
01482 32584 30809 10163 20097 30132 40141 57005 81272 333 91114 555
      03412=







NNNN
ZCZC 843
SMNO91 DNMI 101200 CCA
AAXX 10121
01098 41150 83603 10084 20079 30241 40259 52007 71084 886// 333
      911// 555 02105 4/53/=







NNNN
ZCZC 844
SMVF99 ENMI 101200
BBXX
LF3F 10124 99643 10078 41999 51515 10169 20111 40165 52009 70221
     8203/ 22200 04145 10602 70010=







NNNN
ZCZC 845
SMVF99 ENMI 101200
BBXX
LF3N 10124 99653 10073 41998 11615 10164 20118 40151 52006 70200
     80001 22200 00142 10603 70016 333 91119 555 0/217=







NNNN
ZCZC 846
SMVF99 ENMI 101200
BBXX
LF4C 10124 99584 10019 41498 30805 10145 20094 40137 52012 70110
     82301 91210 22200 00156 10601 70006 333 91109 555 0/407=







NNNN
ZCZC 847
SMVF99 ENMI 101200
BBXX
LF3J 10124 99612 10023 41598 31809 10138 20096 40139 52019 70210
     82178 91210 22200 02142 10603 70014 333 91115 555 0/415=







NNNN
ZCZC 848
SMVF99 ENMI 101200
BBXX
LF4B 10124 99606 10037 46/// /1804 10143 20124 40145 52010 91209
     22200 00150 1//02 70008 333 91109 555 0/408=







NNNN
ZCZC 849
SMNO92 DNMI 101200 RRA
AAXX 10121
01433 46/// /1208 10085 20039 38905 40131 54000 333 91119 555 0/413=
01450 41582 60903 10095 20043 70522 85441 555 0//07=







NNNN
ZCZC 850
SMNO93 DNMI 101200 RRA
AAXX 10121
01015 41178 31606 10105 20093 71042 83600 333 91116 555 03412 4/3//=
01033 42360 23201 10113 20085 30191 40220 57009 82600 333 91103 555
      02302=
01092 41330 80503 10080 20074 75154 886// 222// 00095 333 91107 555
      03405 4/63/=
01304 46/// /1903 10144 20117 30118 40148 50013 333 91109 555 0/408=
01425 41370 80401 10142 20121 30055 40133 53002 76122 8672/ 333
      91102 555 0/201=
01452 11265 80103 10116 20093 30113 40134 53001 60031 76164 8472/
      333 91104 555 0/003 4/3//=







NNNN
ZCZC 851
SMNO97 DNMI 101200
AAXX 10121
01106 46/// /0906 10153 20107 30199 40204 58002 333 91108 555 0/407=
01113 36/// /1402 10207 20076 333 91107 555 0/102=
01156 36/// /2802 10135 20097 30197 40206 57005 333 91102 555 0/002=
01180 16/// /0801 10102 20090 30159 40213 57008 60011 333 91103 555
      0/402 44///=
01203 46/// /2107 10138 20107 30099 40148 51013 333 91112 555 0/110=
01225 46/// /1903 10193 20100 30142 40148 53010 333 91106 555 0/405=
01228 46/// /1404 10189 20094 30150 40157 53007 333 91110 555 0/408=
01257 36/// /1704 10192 20046 30016 40171 57004 333 91110 555 0/106=
01259 36/// /1311 10199 20072 30136 40157 56006 222// 00141 333
      91119 555 0/112=
01265 36/// /2202 10159 20069 39612 40171 56009 333 91108 555 0/405=
01277 36/// /1703 10211 20092 333 91107 555 0/204=
01306 46/// /1202 10148 20109 30118 40144 51007 333 91112 555 0/411=
01321 36/// /1303 10181 20076 39902 40144 51005 333 91109 555 0/405=
01350 36/// /1208 10084 2//// 38780 40140 50000 333 91113 555 0/310=
01366 46/// /1106 10084 21003 333 91111 555 0/308=
01375 46/// /1305 10111 20048 333 91110 555 0/408=
01378 46/// /2202 10174 20087 39878 40157 57011 333 91104 555 0/102=
01383 46/// /1403 10176 20074 39869 56014 333 91106 555 0/104=
01397 46/// /0903 10153 20072 39759 40179 58001 333 91108 555 0/305=
01412 46/// /2001 10150 20147 30102 40133 52005 333 91105 555 0/404=
01434 16/// /0000 10118 20052 39188 40124 57002 69921 333 91100 555
      0/000 42///=
01441 46/// /0305 10103 20055 39167 40126 55000 333 91111 555 0/106=
01470 46/// /0000 10162 20077 30037 40147 55001 333 91100 555 0/000=
01476 36/// /0607 10171 20086 30134 40140 56002 333 91112 555 0/408=
01481 NIL=
01490 36/// /0806 10127 20063 333 91111 555 0/406=
01495 36/// /1009 10171 20088 30132 40144 56005 333 91112 555 0/310=







NNNN
ZCZC 852
SMNO94 DNMI 101200 RRA
AAXX 10121
01075 41480 80205 10113 20109 30230 40244 51012 75052 886// 555
      0/205=
01432 41265 81401 10125 20097 76186 8672/ 555 0/001=







NNNN
ZCZC 853
SMNO96 DNMI 101200 RRA
AAXX 10121
01065 41689 70000 10130 20107 30074 40233 58004 70242 878// 555
      0//00=
01423 41470 80201 10140 2//// 78082 8422/=







NNNN
ZCZC 854
SMNO91 DNMI 101200 RRB
AAXX 10121
01300 41598 31805 10138 20096 40139 52019 70210 82178 91210 22200
      02142 10603 70014 333 91108 555 0/408=







NNNN
ZCZC 855
SMNO93 DNMI 101200 RRB
AAXX 10121
01474 42580 40405 10157 20077 39815 40159 56007 84801=







NNNN
ZCZC 856
SMNO97 DNMI 101200 RRA
AAXX 10121
01481 36/// /0704 10173 20079 333 91109 555 0/105=







NNNN
ZCZC 857
SMNO98 DNMI 101200
NIL=







NNNN
ZCZC 858
SMNO93 DNMI 101200 RRC
AAXX 10121
01121 42889 21206 10175 20109 81011 555 0/806=







NNNN
ZCZC 859
SMNO94 DNMI 101200 RRB
AAXX 10121
01295 42789 20803 10202 20089 30157 40186 57002 82400 555 0/003=







NNNN
ZCZC 860
SMNO91 DNMI 101200 CCB
AAXX 10121
01062 11483 72309 10070 20049 30189 40202 57005 69901 70262 81650
      222// 00034 333 91114 555 03109 40///=







NNNN
ZCZC 861
SMNO93 DNMI 101200 CCA
AAXX 10121
01092 41330 80503 10080 20074 75154 886// 222// 00095 333 91107 555
      03405 4/53/=







NNNN
ZCZC 862
SIVF99 ENVV 101500
BBXX
3FYT  10151 99608 10036 41599 60101 10162 20103 40157 52010 
70122 8223/ 22200 06137 10602 70009=








NNNN
